{"type": "FeatureCollection", "features": [{"type": "Feature", "geometry": {"type": "Polygon", "coordinates": [[[865694.296667319, 9195552.030162696], [865693.4239380724, 9195557.110866483], [865692.6905708368, 9195564.757351886], [865693.8084755009, 9195573.707726669], [865695.4487057365, 9195582.127306229], [865695.7792654422, 9195591.346928718], [865691.8984450529, 9195600.333876073], [865687.2206399832, 9195608.272705793], [865683.3822215474, 9195623.056051653], [865678.5030001577, 9195639.427931264], [865676.4676610107, 9195648.928346995], [865674.7166126713, 9195661.325037656], [865675.0702906896, 9195673.706331242], [865676.8165165561, 9195696.616911246], [865676.2411713429, 9195725.868157435], [865673.6642201238, 9195733.264638074], [865665.6008909349, 9195745.970984198], [865656.4967532181, 9195760.265860269], [865649.7353821207, 9195771.118269928], [865646.8587181491, 9195773.510690033], [865639.7899316624, 9195778.305150092], [865635.5997360406, 9195780.970662424], [865631.1464485255, 9195783.638098298], [865630.9951142941, 9195798.921433946], [865627.8726973239, 9195803.687029295], [865613.549086933, 9195823.816763561], [865612.0071432485, 9195828.834285641], [865610.7591169907, 9195838.065444682], [865587.5308181724, 9195863.793494606], [865567.444187525, 9195887.390661184], [865566.1518430589, 9195890.561948115], [865570.1144357207, 9195928.73852588], [865566.0436439575, 9195947.739316655], [865561.23557219, 9195973.85963111], [865555.3982304842, 9196003.149304284], [865549.0135047247, 9196029.544623058], [865547.9880957482, 9196033.240928875], [865532.4617777755, 9196032.827441765], [865529.8616631341, 9196037.062229095], [865525.5123316296, 9196053.957149003], [865523.4923177261, 9196065.565314906], [865513.6854204631, 9196091.722141061], [865506.0961613263, 9196097.310817886], [865497.7291743223, 9196104.486094283], [865487.0059004922, 9196113.25950462], [865481.7786967014, 9196118.040455377], [865472.8874424817, 9196125.483041616], [865467.6602361966, 9196130.26398969], [865460.8563960663, 9196135.319943087], [865443.3042419754, 9196145.724150974], [865434.6645217461, 9196151.58397059], [865431.261636785, 9196153.980207747], [865424.2524436789, 9196166.942238025], [865414.6604335634, 9196186.510287508], [865409.5409984166, 9196206.045659307], [865397.4065653423, 9196237.752631031], [865388.889987831, 9196260.474641295], [865381.1723008994, 9196284.508241624], [865359.9603712398, 9196334.198529558], [865347.5473577356, 9196363.799605422], [865345.5253359266, 9196375.144266529], [865340.2023686038, 9196402.849158244], [865337.1510483187, 9196417.363164008], [865337.6680769178, 9196452.139529847], [865338.6093310373, 9196472.948044725], [865342.3638295732, 9196482.669611417], [865347.1937911097, 9196495.5451575], [865353.6311767288, 9196512.361257337], [865359.7939277538, 9196527.598447591], [865366.4963360031, 9196544.676100425], [865372.3959960057, 9196559.915213343], [865378.0344862815, 9196575.419719927], [865382.5994375071, 9196588.033719199], [865384.8292332818, 9196605.144030107], [865386.2774359235, 9196623.31399176], [865386.9151914913, 9196638.59152435], [865388.2691391276, 9196643.851359935], [865388.3229970706, 9196651.228575114], [865389.2007637422, 9196663.342523586], [865386.9040705606, 9196673.10827271], [865384.3558202968, 9196684.456773667], [865383.3765255294, 9196694.476390526], [865381.8748844969, 9196705.02679221], [865381.52371258, 9196729.006580682], [865381.9156659729, 9196746.657280665], [865382.2422281238, 9196755.349934448], [865402.9983636215, 9196787.343717499], [865413.1094963065, 9196802.815586643], [865419.4988177901, 9196813.044903122], [865426.1435447305, 9196822.21841124], [865432.4963277285, 9196827.441759212], [865442.2982182531, 9196836.592220586], [865454.7426198502, 9196847.304308068], [865460.3022723778, 9196852.006472852], [865462.7047643667, 9196856.731685296], [865471.204645785, 9196867.736054126], [865478.6540660404, 9196879.011578022], [865484.7687695873, 9196887.661983948], [865492.2162712693, 9196898.674036283], [865500.4549905348, 9196909.943799019], [865506.3046796571, 9196918.33265409], [865507.660558569, 9196923.855967205], [865514.1114593516, 9196942.51639858], [865517.6202040047, 9196954.61115262], [865520.3569673116, 9196969.08291943], [865522.8229391233, 9196982.502718374], [865524.7607918787, 9196995.662886744], [865526.6467133376, 9197001.709304309], [865526.7274943047, 9197012.775139399], [865526.5240198141, 9197020.944700126], [865528.1372265893, 9197025.675677363], [865529.2896300361, 9197039.368552905], [865529.6854337153, 9197057.546218764], [865529.8142900798, 9197075.198860573], [865529.4073313957, 9197091.537981853], [865529.7415863861, 9197101.284535138], [865531.1070793638, 9197108.125211947], [865530.6770386249, 9197121.302665941], [865531.3013128345, 9197134.735910656], [865531.4378493617, 9197153.442441309], [865531.5436149187, 9197167.933415702], [865532.4194449666, 9197179.783906711], [865533.5718334483, 9197193.476783479], [865534.4361240938, 9197203.746441158], [865534.2614789441, 9197215.868085485], [865533.0209766518, 9197226.15310444], [865531.7862413526, 9197237.228539856], [865535.0203422247, 9197247.74438904], [865537.9971128544, 9197259.05257547], [865540.9758065126, 9197270.624234566], [865541.7324387357, 9197277.559381217], [865555.4193667179, 9197278.249953229], [865559.9093597447, 9197280.588561706], [865565.2021114166, 9197284.765715763], [865566.7768614065, 9197284.227250084], [865566.9092021842, 9197266.309211135], [865573.2178143467, 9197265.472708464], [865575.307224167, 9197263.349567551], [865581.5542990786, 9197254.08194774], [865588.3218002015, 9197244.02006813], [865592.7444840246, 9197237.137139063], [865595.8785953952, 9197233.952425014], [865601.9029500324, 9197230.219640478], [865608.7108314637, 9197225.690675909], [865612.6380850517, 9197223.027143281], [865618.9101501, 9197217.184655264], [865628.3047811519, 9197206.576613117], [865631.6846765929, 9197201.018721769], [865634.0204460013, 9197196.601444561], [865635.7141981672, 9197190.739678113], [865637.5600384625, 9197184.086341402], [865647.3727104546, 9197187.492724653], [865656.5574093702, 9197191.377967274], [865664.9574298612, 9197195.901305733], [865667.9567592723, 9197195.879407374], [865670.4825104126, 9197195.860966511], [865679.1728599576, 9197196.90416002], [865692.2878930948, 9197198.547413219], [865699.2406364651, 9197199.44519887], [865709.9877804669, 9197201.105737617], [865724.3889874283, 9197203.227042416], [865734.9475893367, 9197207.8927027], [865742.076282596, 9197211.265974468], [865762.096339296, 9197178.447405439], [865767.0317251377, 9197169.716294767], [865772.0017456328, 9197165.727693643], [865789.6293909892, 9197165.598947646], [865795.8860400725, 9197157.64864172], [865799.0085904635, 9197152.883069446], [865803.1931590714, 9197149.427174248], [865807.3796516522, 9197146.234751344], [865813.1716820602, 9197146.71941796], [865823.4517956192, 9197149.279196275], [865836.364828187, 9197152.083226938], [865844.2674292084, 9197153.34293409], [865854.8010241705, 9197154.583420286], [865857.9582158322, 9197154.560356215], [865867.4278665932, 9197154.227689747], [865870.3296584834, 9197155.260439176], [865875.8855421236, 9197159.435644347], [865890.4195303258, 9197168.024539307], [865904.4215508557, 9197175.826857306], [865920.0117996219, 9197184.935005598], [865937.6491007966, 9197186.123576563], [865958.9659512984, 9197186.758280775], [865961.8715995217, 9197188.31797315], [865972.9468173473, 9197191.662380572], [865981.6464381128, 9197193.970196132], [865992.7274363836, 9197198.105020368], [866002.7560378413, 9197202.247533642], [866008.8323662654, 9197205.628465945], [866020.4665281232, 9197213.448068535], [866030.77556643, 9197219.959916744], [866032.8822924745, 9197220.208007988], [866038.0768999362, 9197210.947981596], [866040.431321285, 9197209.086361937], [866044.1089450044, 9197208.269021602], [866052.5223695303, 9197207.417068765], [866065.4084956279, 9197206.532423908], [866074.0907985091, 9197206.468964765], [866069.005238266, 9197194.649193684], [866082.5708893024, 9197178.74078121], [866078.8354916206, 9197171.653919326], [866076.9533490196, 9197166.13443691], [866071.9024531827, 9197159.057191001], [866070.2911145794, 9197154.589679828], [866068.9428758775, 9197150.120245574], [866067.5137501314, 9197134.584923532], [866066.4112779591, 9197127.742304688], [866070.5592426127, 9197119.280380804], [866073.6509549968, 9197110.299201842], [866075.9379587792, 9197099.216003694], [866077.9695652177, 9197089.188622443], [866084.2473572326, 9197084.13646448], [866088.4242046744, 9197079.626639578], [866087.2658684795, 9197065.143286694], [866087.1175516157, 9197044.855821516], [866085.9746218754, 9197032.480257515], [866081.9664944159, 9197024.07795588], [866078.2156881603, 9197014.883310327], [866074.2692017402, 9197014.912162753], [866069.0014414665, 9197014.160211569], [866057.9262410719, 9197010.815839991], [866050.5479118186, 9197009.288853928], [866050.1307220566, 9196988.212897947], [866050.318700175, 9196977.93550827], [866047.343713269, 9196966.890779626], [866044.1171851555, 9196957.428815704], [866041.9276424065, 9196945.851370389], [866040.5004277967, 9196930.57952625], [866039.1406312487, 9196924.529253906], [866025.2137455865, 9196927.00245921], [866023.3393110783, 9196922.53687483], [866020.1513106769, 9196918.344381128], [866017.1763286232, 9196907.299655048], [866014.2629846872, 9196904.686078649], [866008.7186576333, 9196902.09173638], [866006.8596339843, 9196899.733939607], [866007.7348186388, 9196875.486692995], [866007.6751058351, 9196867.319017496], [866008.3006681935, 9196844.918007523], [866010.8834908963, 9196838.31193668], [866015.5402746648, 9196827.474901749], [866022.0252559269, 9196814.780085579], [866025.6527594118, 9196807.112423766], [866029.8122365797, 9196800.231334018], [866030.0040531456, 9196790.480892153], [866031.2829377947, 9196785.465277355], [866035.4674568262, 9196782.009341113], [866044.5988134933, 9196771.403066106], [866050.8649919741, 9196764.770054067], [866055.8079732333, 9196757.092766372], [866059.1820006347, 9196750.744389424], [866061.7725144441, 9196745.192204645], [866067.9924419175, 9196732.235822517], [866065.593733767, 9196728.037562773], [866059.5078068278, 9196723.339293543], [866052.3733448832, 9196719.175667437], [866044.4206901417, 9196711.065710433], [866040.420278803, 9196703.717313223], [866038.505378776, 9196693.718788888], [866038.4128910487, 9196681.072061298], [866038.0129864914, 9196662.367367478], [866038.6018779695, 9196634.960351557], [866038.7397214306, 9196617.832650028], [866038.908394641, 9196604.920524335], [866036.630185631, 9196581.223303905], [866035.5508197068, 9196577.542372264], [866032.1190003346, 9196575.98654742], [866028.9502779271, 9196574.42879815], [866025.2611435782, 9196573.66531774], [866023.8917033309, 9196566.297682025], [866023.0523102377, 9196559.453144774], [866021.4043566679, 9196549.979645884], [866019.2109391303, 9196537.87526126], [866015.702039433, 9196525.780498678], [866012.1545978384, 9196508.416267667], [866008.8663978868, 9196490.523166135], [866006.6787609998, 9196479.20920353], [866000.8328324058, 9196471.347337455], [865982.5404563302, 9196452.510033928], [865977.2380694979, 9196447.015579738], [865965.9028362487, 9196408.102345338], [865962.3438398592, 9196389.15728158], [865954.6620375549, 9196382.09930852], [865940.8962826917, 9196370.606548754], [865932.1524699787, 9196362.238905841], [865931.8200002941, 9196352.755792428], [865930.2202309298, 9196349.869132342], [865919.5962156351, 9196336.24549504], [865909.2275923674, 9196321.566040905], [865893.430328872, 9196320.100655347], [865884.2123696089, 9196318.85063526], [865877.3738273343, 9196319.164135631], [865867.7578958415, 9196299.472918253], [865862.4035102424, 9196286.864690604], [865845.6482982606, 9196298.317172518], [865841.9225831538, 9196292.547700804], [865840.8413030028, 9196288.603300786], [865841.3270304222, 9196283.066518478], [865843.9021003274, 9196275.406559356], [865847.0014313525, 9196267.479278501], [865848.7852880241, 9196259.561617497], [865850.8418725708, 9196252.959397458], [865853.6993012731, 9196247.932243206], [865857.6148881586, 9196243.68781111], [865864.3898278747, 9196234.679695781], [865870.1297305275, 9196228.050533809], [865869.8492925589, 9196225.681199873], [865868.5010603605, 9196221.211778034], [865863.7094765203, 9196213.605694523], [865870.405396774, 9196193.795177218], [865872.9862334647, 9196186.92563167], [865878.1883752664, 9196178.719475515], [865894.2313420696, 9196177.811662253], [865910.2781654231, 9196177.430790061], [865925.2783959857, 9196177.848031214], [865927.325326059, 9196169.928435368], [865928.8441388687, 9196161.74921534], [865930.6125519297, 9196151.723757248], [865933.18952175, 9196144.32725718], [865934.7102585873, 9196136.411509397], [865934.6350810658, 9196126.136050861], [865933.7070073485, 9196107.171748199], [865933.0593743534, 9196090.576780425], [865931.8296465089, 9196066.344937129], [865931.5125749428, 9196058.969609872], [865928.8411544126, 9196053.455920843], [865919.2367669074, 9196035.345564822], [865912.0272140935, 9196020.906510502], [865904.5796315714, 9196009.894534016], [865924.2133158918, 9195996.313018806], [865924.4571302191, 9195993.676360844], [865921.0060702739, 9195989.485814977], [865914.1000962248, 9195980.57777679], [865902.4063947464, 9195964.590612777], [865893.8968060483, 9195952.268973548], [865886.7335310495, 9195944.153280647], [865874.7690401701, 9195927.114150157], [865866.5283386512, 9195915.581006475], [865864.1470089331, 9195913.754019456], [865861.7733904957, 9195912.980924984], [865858.0862360867, 9195912.480928438], [865845.56087605, 9195890.703132723], [865832.760865062, 9195867.346425058], [865822.3672478613, 9195849.241856014], [865821.7832313655, 9195841.3415142], [865819.905005079, 9195834.121642267], [865824.4976022261, 9195820.363884702], [865830.413773298, 9195801.876493443], [865835.3141998365, 9195788.402788784], [865840.2242622694, 9195776.246447911], [865843.8362136664, 9195766.470989717], [865846.4073636006, 9195758.284070464], [865849.4950554128, 9195748.775934374], [865854.1227331613, 9195733.986782564], [865858.2473614708, 9195722.363157684], [865863.1284812335, 9195706.254711328], [865867.1848391714, 9195685.304133166], [865868.9358465837, 9195672.9074147], [865871.9733824607, 9195656.548969656], [865874.4828026642, 9195639.93090165], [865877.5241869576, 9195624.099400736], [865879.2598264301, 9195610.765381869], [865881.9018582699, 9195597.887860399], [865882.5593003618, 9195594.49939951], [865868.450335112, 9195585.008970093], [865859.4512392213, 9195577.697198022], [865852.3092112818, 9195572.479730457], [865843.8517304366, 9195567.27189115], [865837.5279061191, 9195566.000742424], [865829.888628104, 9195564.739221318], [865825.1491356255, 9195564.24693664], [865818.3010599422, 9195563.243110199], [865808.0308760616, 9195562.000842066], [865801.7128402645, 9195561.520108622], [865794.5978195451, 9195559.991258802], [865782.749094727, 9195558.7605389], [865771.6877156936, 9195557.26056742], [865761.9475760763, 9195556.541386059], [865751.6774001835, 9195555.299107632], [865739.8325381491, 9195554.595324324], [865726.6683690144, 9195553.374218348], [865714.2915458218, 9195551.883861175], [865704.5514131683, 9195551.164669488], [865695.3336070657, 9195549.914680528], [865694.296667319, 9195552.030162696]]]}, "properties": {"Id": 0, "Nama_Dusun": "Dusun Desa", "Luas": 76.8005247054}}, {"type": "Feature", "geometry": {"type": "Polygon", "coordinates": [[[865541.7324387357, 9197277.559381217], [865540.9758065126, 9197270.624234566], [865537.9971128544, 9197259.05257547], [865535.0203422247, 9197247.74438904], [865531.7862413526, 9197237.228539856], [865533.0209766518, 9197226.15310444], [865534.2614789441, 9197215.868085485], [865534.4361240938, 9197203.746441158], [865533.5718334483, 9197193.476783479], [865532.4194449666, 9197179.783906711], [865531.5436149187, 9197167.933415702], [865531.4378493617, 9197153.442441309], [865531.302151799, 9197134.850853764], [865531.3013128345, 9197134.735910656], [865530.6770386249, 9197121.302665941], [865531.1070793638, 9197108.125211947], [865529.7415863861, 9197101.284535138], [865529.4073313957, 9197091.537981853], [865529.8142900798, 9197075.198860573], [865529.6854337153, 9197057.546218764], [865529.2896300361, 9197039.368552905], [865528.7230967369, 9197032.636993771], [865528.1372265893, 9197025.675677363], [865526.5240198141, 9197020.944700126], [865526.7274943047, 9197012.775139399], [865526.6467133376, 9197001.709304309], [865524.7607918787, 9196995.662886744], [865522.8229391233, 9196982.502718374], [865520.3569673116, 9196969.08291943], [865517.6202040047, 9196954.61115262], [865517.3381936961, 9196953.639054157], [865514.1114593516, 9196942.51639858], [865511.1527909741, 9196933.957900036], [865507.660558569, 9196923.855967205], [865506.3046796571, 9196918.33265409], [865500.4549905348, 9196909.943799019], [865492.2162712693, 9196898.674036283], [865484.7687695873, 9196887.661983948], [865478.6540660404, 9196879.011578022], [865471.204645785, 9196867.736054126], [865462.7047643667, 9196856.731685296], [865460.3022723778, 9196852.006472852], [865456.7115196383, 9196848.969536584], [865454.7426198502, 9196847.304308068], [865442.2982182531, 9196836.592220586], [865432.4963277285, 9196827.441759212], [865426.1435447305, 9196822.21841124], [865422.809080526, 9196817.614951601], [865419.4988177901, 9196813.044903122], [865413.1094963065, 9196802.815586643], [865402.9983636215, 9196787.343717499], [865382.2422281238, 9196755.349934448], [865381.9156659729, 9196746.657280665], [865381.52371258, 9196729.006580682], [865381.8748844969, 9196705.02679221], [865383.3765255294, 9196694.476390526], [865383.8982452287, 9196689.13843725], [865384.3558202968, 9196684.456773667], [865385.3374147203, 9196680.085294941], [865386.9040705606, 9196673.10827271], [865389.2007637422, 9196663.342523586], [865388.3229970706, 9196651.228575114], [865388.2691391276, 9196643.851359935], [865386.9151914913, 9196638.59152435], [865386.2774359235, 9196623.31399176], [865384.8292332818, 9196605.144030107], [865382.5994375071, 9196588.033719199], [865378.083097427, 9196575.554043569], [865378.0344862815, 9196575.419719927], [865372.3959960057, 9196559.915213343], [865370.7111610374, 9196555.563201835], [865366.4963360031, 9196544.676100425], [865359.7939277538, 9196527.598447591], [865353.6311767288, 9196512.361257337], [865347.1937911097, 9196495.5451575], [865342.3638295732, 9196482.669611417], [865338.6093310373, 9196472.948044725], [865337.9105081181, 9196457.499003388], [865337.6680769178, 9196452.139529847], [865337.1880094132, 9196419.849216463], [865337.1510483187, 9196417.363164008], [865340.2023686038, 9196402.849158244], [865345.5253359266, 9196375.144266529], [865347.5473577356, 9196363.799605422], [865359.2145364772, 9196335.977109162], [865359.9603712398, 9196334.198529558], [865371.3069262865, 9196307.61852751], [865381.1723008994, 9196284.508241624], [865388.889987831, 9196260.474641295], [865355.4826631963, 9196257.935245411], [865337.3253720114, 9196257.540882071], [865328.6471400277, 9196258.13123152], [865318.953092554, 9196263.735229624], [865311.6288076402, 9196269.585405534], [865294.2569520045, 9196268.65831752], [865275.8404220592, 9196268.792794999], [865260.1510134737, 9196282.081641126], [865236.7260946298, 9196280.935241409], [865218.9165421857, 9196292.131661588], [865202.5201325272, 9196280.657993555], [865198.304872023, 9196279.898309007], [865177.0616440575, 9196289.275377719], [865162.3976632094, 9196298.867895946], [865128.472112473, 9196300.959914366], [865118.4995735952, 9196304.458008979], [865062.91995804, 9196331.739114683], [865058.4973610209, 9196338.622002741], [865054.118979081, 9196351.564727757], [865051.0253011073, 9196360.282313794], [864986.7692972008, 9196388.417048784], [864955.0616645192, 9196369.94090945], [864953.4600437449, 9196366.790772462], [864955.021304776, 9196364.408018844], [864956.5748779511, 9196360.971381167], [864957.0626254557, 9196355.698123122], [864955.4456291037, 9196350.440218477], [864941.9625466174, 9196341.580082348], [864938.8092761647, 9196342.130053671], [864938.2619499207, 9196339.235711504], [864939.8174443073, 9196336.062545419], [864939.0051032079, 9196332.90665145], [864929.2207019632, 9196326.12741438], [864927.4059585719, 9196329.82944091], [864922.5686261854, 9196351.99745933], [864918.9045435206, 9196354.65903417], [864908.4038893813, 9196357.897442525], [864893.1406613776, 9196357.481795419], [864850.141389929, 9196378.083711877], [864849.3790097141, 9196381.778057812], [864849.4443335589, 9196390.73606269], [864860.0948564702, 9196408.048390519], [864863.634185728, 9196424.358636677], [864862.6087110066, 9196428.054901367], [864855.8412960744, 9196438.116670243], [864845.4328376977, 9196454.001649972], [864833.6820108718, 9196466.207626099], [864832.4472263209, 9196477.282986157], [864830.9262953699, 9196485.198615925], [864821.0901020679, 9196507.403041702], [864806.2685643178, 9196531.488197362], [864790.3408582888, 9196548.203837033], [864806.2301895411, 9196562.3161775], [864780.5161481586, 9196571.989063911], [864777.4262397694, 9196581.233545732], [864773.7909379714, 9196587.847156731], [864759.4052764212, 9196599.545327947], [864770.6222844229, 9196622.386725403], [864752.6301003112, 9196644.65055432], [864754.2451079612, 9196685.74236291], [864770.6625580803, 9196700.114364933], [864762.9674926659, 9196727.309347171], [864758.293231703, 9196735.774913447], [864745.7088542706, 9196741.926759183], [864634.9461264338, 9196742.733753687], [864580.3301908623, 9196721.789375752], [864465.6903307986, 9196732.1096729], [864445.4129283852, 9196729.622479621], [864439.8917970601, 9196730.189646255], [864435.9664925409, 9196733.11654663], [864399.1004497354, 9196765.002981007], [864356.4301954932, 9196867.018224007], [864337.377291224, 9196924.332794817], [864315.1393183774, 9196905.52381368], [864328.2107236579, 9196966.293363148], [864332.4624161571, 9196972.059060741], [864372.127951093, 9196999.43618581], [864450.9770863559, 9197060.25403351], [864505.6660815261, 9197091.210546644], [864513.4722952924, 9197115.394238897], [864467.0300544759, 9197205.316730035], [864447.4397063672, 9197224.957078826], [864420.5554882202, 9197254.662859045], [864409.5337001343, 9197294.79255234], [864368.2806677287, 9197338.567428982], [864357.5238065942, 9197378.95863814], [864354.2855906497, 9197404.013116024], [864355.0034042259, 9197430.356237695], [864357.7550940617, 9197446.935681049], [864359.087825756, 9197449.297339322], [864418.5587795565, 9197486.542939164], [864411.3844270299, 9197585.401451165], [864406.2891590772, 9197608.361573016], [864398.3796385257, 9197678.505703198], [864399.8528339302, 9197772.558598422], [864408.0350577827, 9197812.28511772], [864407.5624933972, 9197819.666091489], [864401.7027519844, 9197846.057041727], [864397.4967753321, 9197955.169774162], [864402.6634681455, 9198014.415998623], [864415.4723006259, 9198039.0903457], [864417.8363753747, 9198038.546195528], [864649.6854329011, 9197936.209553223], [864651.50988818, 9197933.824925343], [864666.125206569, 9197881.285271095], [864711.4000261589, 9197847.756869169], [864997.9927258344, 9197639.362071896], [865094.510088037, 9197633.125786629], [865095.0151727584, 9197630.2237697], [865122.1435162374, 9197525.68595149], [865183.1038648494, 9197550.536282469], [865224.6390608641, 9197509.393294374], [865304.2297161442, 9197563.354602836], [865360.1353523345, 9197472.307863215], [865342.9841698082, 9197446.020788075], [865343.0867197998, 9197445.651160115], [865411.5983860353, 9197427.09403062], [865411.7174786031, 9197430.856202247], [865411.9110039342, 9197436.969735654], [865411.3342109595, 9197439.005292052], [865434.3523959828, 9197438.83083128], [865438.0434805558, 9197439.857851677], [865440.6917753658, 9197442.209908556], [865443.8816450217, 9197446.665903375], [865467.2958184215, 9197482.329217033], [865546.8392844668, 9197601.898672385], [865558.9538844593, 9197675.586460752], [865618.7152945707, 9197824.547302816], [865621.3482390943, 9197824.791583532], [865646.2410902575, 9197810.64521453], [865679.5807160944, 9197818.240715405], [865677.856013679, 9197798.228318645], [865668.9718057628, 9197770.627046894], [865663.3236379749, 9197753.805116028], [865648.8854633782, 9197722.29207205], [865643.0318675701, 9197713.37623796], [865634.537645485, 9197703.162237199], [865597.6878171391, 9197665.225545086], [865566.3266471468, 9197622.242570715], [865560.864729387, 9197594.879839431], [865561.2275490648, 9197572.480855554], [865559.6179468344, 9197532.179191845], [865556.8908279939, 9197519.024772765], [865554.6956767627, 9197506.656931804], [865544.5806026136, 9197490.658066848], [865539.522106264, 9197482.526898537], [865514.0703432618, 9197456.100478202], [865493.2659844225, 9197417.519788241], [865490.782505007, 9197365.631131059], [865498.0993115322, 9197358.727105923], [865506.1977249307, 9197350.76343098], [865515.8324378168, 9197336.99184634], [865532.2154427231, 9197310.523672443], [865534.5448835322, 9197305.236947896], [865537.8690393972, 9197292.03837512], [865541.7324387357, 9197277.559381217]]]}, "properties": {"Id": 0, "Nama_Dusun": "Dusun Cikatomas", "Luas": 132.065599756}}, {"type": "Feature", "geometry": {"type": "Polygon", "coordinates": [[[865679.5807160944, 9197818.240715405], [865646.2410902575, 9197810.64521453], [865621.3482390943, 9197824.791583532], [865618.7152945707, 9197824.547302816], [865599.7848022673, 9197777.36133962], [865581.1298787706, 9197730.862220548], [865568.9215982317, 9197700.431934824], [865558.9538844593, 9197675.586460752], [865553.6926884529, 9197643.58490559], [865546.8392844668, 9197601.898672387], [865541.3708002345, 9197593.678479642], [865508.0094756267, 9197543.529893752], [865494.3737405885, 9197523.032700036], [865467.2958184215, 9197482.329217033], [865447.221606375, 9197451.753169948], [865443.8816450217, 9197446.665903375], [865440.6917753658, 9197442.209908554], [865438.0434805558, 9197439.857851677], [865434.3523959828, 9197438.83083128], [865411.3342109595, 9197439.005292052], [865411.9110039342, 9197436.969735654], [865411.5983860353, 9197427.09403062], [865343.0867197998, 9197445.651160115], [865342.9841698082, 9197446.020788075], [865360.1353523345, 9197472.307863215], [865352.3608757295, 9197484.969245743], [865317.653592435, 9197541.492812844], [865304.229716144, 9197563.354602834], [865272.4703289776, 9197541.822221925], [865234.1053142482, 9197515.811286481], [865224.6390608641, 9197509.393294374], [865204.721617782, 9197529.122677976], [865183.1038648494, 9197550.536282469], [865122.1435162374, 9197525.68595149], [865099.783199721, 9197611.850461276], [865095.0151727584, 9197630.2237697], [865094.510088037, 9197633.125786629], [865028.198732371, 9197637.410389086], [864997.9927258344, 9197639.362071896], [864945.8565610738, 9197677.272999829], [864882.0804433194, 9197723.647756126], [864796.9022240723, 9197785.584709642], [864748.8344795839, 9197820.536786785], [864711.4000261589, 9197847.756869169], [864681.0730892913, 9197870.21558407], [864666.125206569, 9197881.285271095], [864654.980732786, 9197921.347832061], [864651.50988818, 9197933.824925343], [864649.6854329011, 9197936.209553223], [864625.1652967964, 9197947.032661807], [864540.0141820575, 9197984.61793623], [864417.8363753747, 9198038.546195528], [864415.4723006259, 9198039.0903457], [864402.6634681455, 9198014.415998623], [864385.4227241038, 9198147.442343567], [864384.9577886071, 9198155.877191192], [864393.3116230144, 9198327.8711556], [864334.5242364164, 9198421.0443389], [864265.753985418, 9198516.397701655], [864254.3056383565, 9198534.13419189], [864248.6359790708, 9198550.511305125], [864223.908995304, 9198587.578443132], [864216.5861033242, 9198593.691711687], [864140.416297019, 9198612.161428943], [864073.7074336235, 9198665.342058092], [863889.8370933557, 9198817.12416934], [863933.4082816858, 9198875.037795391], [863986.827330701, 9198839.607260838], [864077.8949965341, 9198807.328792088], [864203.5420303751, 9198790.344648028], [864321.6230662181, 9198818.470703473], [864339.0089980275, 9198821.242803793], [864347.6914454433, 9198821.179770608], [864542.5868478224, 9198738.347998682], [864553.0823177183, 9198734.319496479], [864605.8104335264, 9198748.691505743], [864608.7237284884, 9198751.305177199], [864632.0377570977, 9198773.26842768], [864643.7598688966, 9198793.208033737], [864672.7637844173, 9198837.789564291], [864670.1652761938, 9198842.287673792], [864607.1465388562, 9199005.051588321], [864662.5022765135, 9199091.335712032], [864662.277445117, 9199096.607024366], [864662.3807870515, 9199110.834407581], [864734.4252404717, 9199140.084765654], [864763.5469521575, 9199164.640711542], [864699.91047322, 9199278.664612887], [864721.8718265845, 9199259.270770425], [864731.0021319418, 9199248.40160457], [864752.7290619537, 9199232.961702041], [864756.9043328757, 9199228.188656723], [864760.8030975924, 9199221.57323008], [864769.4435388185, 9199215.713808596], [864796.7014465397, 9199201.024145821], [864823.8751094267, 9199174.741762029], [864840.593373209, 9199158.020765657], [864842.9096466806, 9199150.889855552], [864848.623339188, 9199140.572443457], [864855.3971166143, 9199131.301263455], [864867.6999736645, 9199122.516867938], [864873.2252269465, 9199122.476712836], [864890.0468617175, 9199119.983096298], [864909.6362865727, 9199100.079375371], [864932.914942485, 9199080.939275788], [864951.8842677027, 9199048.1292824], [864980.6983748013, 9198994.168912876], [865030.8993716696, 9198914.23144973], [865033.4997791211, 9198909.996779721], [865053.9052001559, 9198893.775791317], [865065.9621083683, 9198887.36445726], [865081.7044223708, 9198881.18979648], [865108.5067928078, 9198876.25209848], [865113.2331279046, 9198874.90029092], [865152.7877900882, 9198850.635377921], [865176.5445308227, 9198824.904458463], [865195.9032111786, 9198809.48144728], [865211.0771044227, 9198797.51418659], [865239.137848903, 9198748.565174125], [865252.2394644974, 9198741.092222687], [865271.352245259, 9198728.0423155], [865287.0388839977, 9198714.226880869], [865300.3575596109, 9198700.428676076], [865307.1120032748, 9198688.522652868], [865317.2350290417, 9198669.47799122], [865321.8750232584, 9198656.26992871], [865337.9116097109, 9198582.11369878], [865343.5733047207, 9198564.682416813], [865376.2561816813, 9198536.25143122], [865393.2409782088, 9198520.055094587], [865410.926799603, 9198491.733292067], [865412.1482863538, 9198478.813588124], [865411.2879603823, 9198469.070878616], [865408.3151161924, 9198458.289614173], [865397.8620982962, 9198432.017174762], [865393.5871661387, 9198423.089797307], [865385.0814466428, 9198411.294894915], [865378.7189522317, 9198404.754096553], [865358.1240391387, 9198358.794108255], [865351.6963007492, 9198343.29527188], [865351.3583471128, 9198333.021790616], [865357.580725342, 9198320.329148896], [865362.2686188444, 9198313.70785555], [865377.4250157598, 9198299.369210174], [865392.8867385127, 9198290.825019784], [865415.1546116613, 9198277.488486532], [865434.7856750279, 9198263.380693734], [865453.5986172054, 9198245.32656026], [865466.3582334492, 9198227.053042108], [865475.1213548571, 9198201.958005914], [865476.1987648181, 9198169.277884932], [865478.2018185477, 9198155.298525475], [865481.8411019198, 9198149.211821048], [865488.3726036197, 9198142.840549044], [865520.3195230397, 9198121.792276945], [865551.2620274854, 9198107.338450458], [865572.2277157666, 9198095.8556874], [865583.7331955351, 9198086.022806844], [865594.165124621, 9198073.2993997], [865596.4888698065, 9198067.222269969], [865599.841973641, 9198057.975797733], [865602.3807892504, 9198045.30993975], [865605.265204956, 9198007.873841932], [865613.5882992223, 9197958.541189892], [865638.0624741414, 9197923.055507524], [865651.9031467469, 9197908.726283194], [865658.4363123002, 9197866.520785727], [865670.698343362, 9197852.20306199], [865679.5807160944, 9197818.240715405]]]}, "properties": {"Id": 0, "Nama_Dusun": "Dusun Cilopadang", "Luas": 139.794048646}}]}