{"type": "FeatureCollection", "features": [{"type": "Feature", "geometry": {"type": "Polygon", "coordinates": [[[201218.7879999997, 9199246.9423], [201261.56800000183, 9199305.3948], [201315.4213000005, 9199270.6912], [201406.85809999984, 9199239.634500002], [201532.65089999977, 9199224.319000002], [201650.286700001, 9199253.9856], [201667.62509999983, 9199256.985400002], [201676.30300000124, 9199257.037], [201872.16870000027, 9199176.8292], [201882.71059999987, 9199172.941700002], [201935.21580000222, 9199188.0005], [201938.09279999975, 9199190.651], [201961.10219999962, 9199212.907900002], [201972.55380000174, 9199232.9896], [202000.95100000035, 9199277.925700003], [201998.29480000027, 9199282.386600003], [201933.16860000137, 9199444.2161], [201987.35100000072, 9199531.1758], [201987.05680000223, 9199536.4408], [201986.97240000032, 9199550.6606], [202058.58540000021, 9199580.8427], [202087.3646999998, 9199605.767100004], [202022.2648, 9199718.879400002], [202044.46800000034, 9199699.787500001], [202053.73589999974, 9199689.0457], [202075.6526000006, 9199673.9021], [202079.88820000086, 9199669.187200002], [202083.87170000002, 9199662.627300002], [202092.5839999998, 9199656.885600002], [202120.01829999965, 9199642.564800002], [202147.52130000107, 9199616.657500003], [202164.4495000001, 9199600.1677], [202166.85839999933, 9199593.0719], [202172.70449999906, 9199582.8364], [202179.59619999956, 9199573.6604], [202192.00710000005, 9199565.043900004], [202197.5295000011, 9199565.0766], [202214.3732000012, 9199562.8065], [202234.21270000096, 9199543.1738], [202257.7290000012, 9199524.353000002], [202277.11900000088, 9199491.8142], [202306.62660000194, 9199438.268300004], [202357.8501000004, 9199359.044300001], [202360.5047000004, 9199354.8466], [202381.11110000033, 9199338.905200003], [202393.2449000012, 9199332.6571], [202409.05870000087, 9199326.694100002], [202435.90899999999, 9199322.1131], [202440.65020000003, 9199320.8246], [202480.49959999975, 9199297.097100003], [202504.58060000092, 9199271.696200002], [202524.13030000217, 9199256.5385], [202539.4523999989, 9199244.7792], [202568.14110000152, 9199196.2319], [202581.3328999998, 9199188.936600002], [202600.60559999943, 9199176.1473], [202616.46440000087, 9199162.5478], [202629.9567000009, 9199148.9343], [202636.8638000004, 9199137.1251], [202647.23180000205, 9199118.2262], [202652.0431000013, 9199105.087900002], [202669.04800000135, 9199031.191100003], [202674.93609999865, 9199013.845800001], [202707.9731999999, 9198985.864500003], [202725.16090000048, 9198969.9029], [202743.20910000056, 9198941.832800005], [202749.80270000082, 9198932.4771], [202752.31620000117, 9198926.127200002], [202750.99340000004, 9198913.824], [202744.37870000117, 9198895.038600003], [202733.26620000042, 9198874.6657], [202724.40270000044, 9198861.701], [202717.65580000076, 9198851.5146], [202703.63280000072, 9198815.795700002], [202698.34120000154, 9198798.8624], [202696.22440000065, 9198785.897700004], [202697.41509999987, 9198775.7112], [202701.11920000147, 9198766.8477], [202714.21619999874, 9198751.105000002], [202727.8331000004, 9198740.816000003], [202750.26269999985, 9198727.7822], [202770.06739999913, 9198713.9427], [202789.10649999976, 9198696.148700003], [202802.099200001, 9198678.0555], [202811.18810000177, 9198653.092300002], [202812.69630000088, 9198620.447600001], [202814.88260000013, 9198606.5037], [202818.6000000015, 9198600.469], [202825.21140000038, 9198594.1882], [202857.41570000164, 9198573.575400002], [202888.5290000001, 9198559.539600002], [202909.63269999996, 9198548.341100004], [202921.26060000062, 9198538.6666], [202931.85380000155, 9198526.0892], [202934.25629999954, 9198520.0467], [202937.72929999884, 9198510.850500004], [202940.4338000007, 9198498.226500005], [202943.81070000026, 9198460.8527], [202952.7801000001, 9198411.662000002], [202977.70710000023, 9198376.5226], [202991.7281000018, 9198362.3856], [202998.81450000033, 9198320.2938], [203011.25780000165, 9198306.1474], [203020.58299999963, 9198272.324400002], [203019.1238000011, 9198252.302300004], [203010.61010000017, 9198224.6016], [203005.18790000118, 9198207.7159], [202991.17540000193, 9198176.0327], [202985.44350000005, 9198167.0452], [202977.08969999943, 9198156.7256], [202940.7650000006, 9198118.3267], [202909.9923000019, 9198074.957200002], [202904.89550000057, 9198047.5401], [202905.55410000216, 9198025.1604], [202904.47809999995, 9197984.8635], [202901.92670000065, 9197971.681600003], [202899.8962999992, 9197959.292700004], [202889.99930000026, 9197943.1706], [202885.05150000192, 9197934.9778], [202859.96559999976, 9197908.2321], [202839.68460000027, 9197869.4014], [202837.8886000011, 9197817.513500001], [202845.29190000053, 9197810.7107], [202853.49040000048, 9197802.859200003], [202863.30100000184, 9197789.224], [202880.0231999997, 9197762.9895], [202882.42100000102, 9197757.737], [202885.91760000028, 9197744.5909], [202889.9698999999, 9197730.1724], [202903.63879999984, 9197731.043500002], [202908.0948999999, 9197733.439900003], [202913.3289999999, 9197737.6843], [202914.90990000125, 9197737.1671], [202915.27900000103, 9197719.2623], [202921.59449999966, 9197718.5098], [202923.7106999997, 9197716.4157], [202930.0762, 9197707.2367], [202936.97240000218, 9197697.270800002], [202941.48319999967, 9197690.4507], [202944.65739999898, 9197687.3095], [202950.72719999962, 9197683.658900002], [202957.59050000086, 9197679.2228], [202961.55040000007, 9197676.613], [202967.8957000021, 9197670.8572], [202977.42440000083, 9197660.3802], [202980.87560000084, 9197654.8706], [202983.2683000015, 9197650.4872], [202985.03839999996, 9197644.6516], [202986.9711000016, 9197638.027], [202996.7323000012, 9197641.5608], [203005.85960000101, 9197645.565], [203014.19450000022, 9197650.1965], [203017.19209999964, 9197650.214200001], [203019.71640000213, 9197650.2292], [203028.38740000222, 9197651.3867], [203041.47210000176, 9197653.202200001], [203048.4084999999, 9197654.191300003], [203059.12660000008, 9197655.992800001], [203073.49040000048, 9197658.3033], [203083.9804999996, 9197663.105400002], [203091.0599000007, 9197666.570800005], [203111.50090000033, 9197634.038300004], [203116.5485000005, 9197625.3781], [203121.56800000183, 9197621.4578], [203139.1858000001, 9197621.5623], [203145.54360000137, 9197613.699900001], [203148.72699999996, 9197608.978700003], [203152.95460000075, 9197605.5804], [203157.18060000148, 9197602.4454], [203162.9623999996, 9197603.006300002], [203173.20190000068, 9197605.7003], [203186.06950000115, 9197608.673300004], [203193.9503000006, 9197610.036600001], [203204.4606000008, 9197611.4156], [203207.61600000225, 9197611.4343], [203217.0839000009, 9197611.2271], [203219.9701000005, 9197612.2975], [203225.46719999984, 9197616.5435], [203239.87810000125, 9197625.318900004], [203253.7678000005, 9197633.3013], [203269.22740000114, 9197642.6096], [203286.83740000054, 9197644.0306], [203308.13200000022, 9197644.9467], [203311.0150000006, 9197646.543800002], [203322.03880000114, 9197650.0324], [203330.70220000017, 9197652.4537], [203341.72130000126, 9197656.732300004], [203351.6886, 9197661.004700003], [203357.7162000006, 9197664.463800004], [203369.23940000124, 9197672.432100002], [203379.45550000016, 9197679.076000003], [203381.55749999918, 9197679.3517], [203386.87119999994, 9197670.1665], [203389.24870000035, 9197668.3373], [203392.9347000001, 9197667.569000002], [203401.35390000045, 9197666.8289], [203414.24320000038, 9197666.1152], [203422.92059999984, 9197666.1666], [203417.9946999997, 9197654.2873], [203431.76180000044, 9197638.5687], [203428.12250000145, 9197631.437100004], [203426.31460000202, 9197625.8963], [203421.36060000025, 9197618.757], [203419.8094000006, 9197614.271100003], [203418.52110000048, 9197609.786800005], [203417.2984000016, 9197594.2428], [203416.28710000124, 9197587.390100002], [203420.54430000111, 9197578.9886], [203423.75269999914, 9197570.0542], [203426.1847000001, 9197559.0085], [203428.34759999998, 9197549.0145], [203434.68810000084, 9197544.0488], [203438.92179999873, 9197539.5972], [203437.95570000075, 9197525.108000001], [203438.0758000007, 9197504.831800003], [203437.09729999956, 9197492.449400002], [203433.20290000085, 9197483.999600003], [203429.57610000018, 9197474.761300001], [203425.63179999962, 9197474.738], [203420.37750000134, 9197473.916800002], [203409.3537999997, 9197470.4283], [203402.00050000008, 9197468.804700004], [203401.86240000091, 9197447.737000002], [203402.18610000145, 9197437.468800005], [203399.35910000093, 9197426.3921], [203396.25990000088, 9197416.893600004], [203394.2248999998, 9197405.294800002], [203393.0005999999, 9197390.014100002], [203391.72169999965, 9197383.949900001], [203377.7712999992, 9197386.2373], [203375.95710000023, 9197381.749800002], [203372.82660000026, 9197377.5179], [203369.99969999958, 9197366.441100001], [203367.1228, 9197363.790700004], [203361.6164999986, 9197361.1246], [203359.7899000002, 9197358.7439], [203360.9851000011, 9197334.5241], [203361.03350000083, 9197326.360900002], [203361.955000001, 9197303.9829], [203364.6235000007, 9197297.4153], [203369.4205, 9197286.647000002], [203376.06920000073, 9197274.0463], [203379.79580000043, 9197266.431600003], [203384.04349999968, 9197259.6101], [203384.36419999972, 9197249.8686], [203385.70859999955, 9197244.8732], [203389.93610000145, 9197241.4749], [203399.2017000001, 9197230.9964], [203405.55150000006, 9197224.450700002], [203410.59279999975, 9197216.8438], [203414.04860000033, 9197210.5442], [203416.71079999954, 9197205.029900001], [203423.09820000175, 9197192.164300002], [203420.75660000183, 9197187.9371], [203414.73670000117, 9197183.161400001], [203407.66210000217, 9197178.9061], [203399.8219000008, 9197170.6963], [203395.92129999958, 9197163.299800001], [203394.1400000006, 9197153.282500004], [203394.2148999991, 9197140.642900001], [203394.0627000006, 9197121.9452], [203395.01379999984, 9197094.564], [203395.37820000015, 9197077.449300002], [203395.7176000001, 9197064.547800004], [203393.75439999998, 9197040.836], [203392.72449999955, 9197037.1433], [203389.3154000016, 9197035.5431], [203386.1694, 9197033.944400001], [203385.59610000066, 9197033.438100005], [203383.85740000103, 9197019.4295], [203383.93879999965, 9196986.3207], [203370.25830000173, 9196967.753000002], [203367.20900000073, 9196949.8281], [203365.17250000034, 9196938.492600003], [203359.43450000044, 9196930.5585], [203341.40340000018, 9196911.491400002], [203336.17720000166, 9196905.9305], [203325.3644000003, 9196866.8928], [203322.05850000028, 9196847.913000003], [203314.47510000132, 9196840.7579], [203300.8704000013, 9196829.0906], [203292.24310000148, 9196820.6126], [203292.0362999998, 9196811.1314], [203290.47590000182, 9196808.2254], [203280.03910000157, 9196794.4701], [203269.87150000036, 9196779.663000003], [203254.10410000198, 9196777.9895], [203244.90859999973, 9196776.6182], [203238.0705000013, 9196776.841], [203228.7214000011, 9196757.035400001], [203223.53740000073, 9196744.364600003], [203206.64150000084, 9196755.587800004], [203202.99459999986, 9196749.7728], [203201.96630000044, 9196745.8166], [203202.5250000013, 9196740.2899], [203205.19970000163, 9196732.6691], [203208.40199999977, 9196724.788000004], [203210.28949999996, 9196716.899100002], [203212.43209999986, 9196710.3284], [203215.35419999994, 9196705.3424], [203219.32340000104, 9196701.1525], [203226.21320000105, 9196692.240000002], [203232.03710000124, 9196685.691100001], [203231.7882000003, 9196683.3196], [203230.50000000093, 9196678.835300002], [203225.81230000127, 9196671.1708], [203232.76600000076, 9196651.461900001], [203235.43620000128, 9196644.6309], [203240.74349999987, 9196636.499], [203256.78800000064, 9196635.804200001], [203272.82940000016, 9196635.636], [203287.8141999999, 9196636.251500001], [203289.96469999943, 9196628.364200002], [203291.59080000222, 9196620.2105], [203293.49080000073, 9196610.215], [203296.16399999987, 9196602.8575], [203297.78850000165, 9196594.967], [203297.84939999972, 9196584.697300002], [203297.17300000135, 9196565.7332], [203296.74550000113, 9196549.1405], [203295.8373999996, 9196524.9082], [203295.61820000038, 9196517.5335], [203293.02150000073, 9196511.988], [203283.66320000123, 9196493.762400001], [203276.64949999936, 9196479.2373], [203269.35270000063, 9196468.133900004], [203291.88380000181, 9196451.853400003], [203287.10269999877, 9196444.5749], [203271.9232999999, 9196421.467300002], [203243.5296, 9196384.8604], [203232.57519999985, 9196373.3783], [203230.2195000006, 9196371.5209], [203227.8576999996, 9196370.716900002], [203224.17960000038, 9196370.168400005], [203211.9508000007, 9196348.239000002], [203199.46850000136, 9196324.728], [203189.32150000054, 9196306.497700004], [203188.84250000212, 9196298.5947], [203187.06099999975, 9196291.3548], [203191.83279999904, 9196277.666800003], [203197.99000000022, 9196259.269800002], [203203.06570000201, 9196245.869800001], [203208.1336000003, 9196233.7865], [203211.87260000035, 9196224.065200003], [203214.55050000083, 9196215.9177], [203217.76219999883, 9196206.456600001], [203222.58270000014, 9196191.738500005], [203226.85860000178, 9196180.177100003], [203231.94990000222, 9196164.1438], [203236.2811000012, 9196143.2607], [203238.19519999903, 9196130.8953], [203241.4474000018, 9196114.5878], [203244.17530000024, 9196098.0138], [203247.42440000083, 9196082.233], [203249.33559999894, 9196068.930700004], [203252.1464999998, 9196056.0966], [203252.84840000048, 9196052.719], [203238.8744000001, 9196043.0479], [203229.9781000018, 9196035.621700004], [203222.90979999956, 9196030.313], [203214.52690000087, 9196024.9965], [203208.2240000004, 9196023.6425], [203200.6065000007, 9196022.280500002], [203195.87660000008, 9196021.725700002], [203189.0463000005, 9196020.6319], [203178.79920000024, 9196019.2544], [203172.49170000106, 9196018.690200003], [203165.4016000023, 9196017.068200001], [203153.57690000068, 9196015.6812], [203142.54250000138, 9196014.0357], [203132.8183000004, 9196013.187900001], [203122.57130000181, 9196011.8104], [203110.7435000008, 9196010.950100003], [203097.60410000198, 9196009.5554], [203085.25510000158, 9196007.9021], [203075.53080000076, 9196007.0543], [203066.33550000004, 9196005.683000004], [203065.27130000107, 9196007.783400003], [203064.33180000074, 9196012.849200001], [203063.49760000128, 9196020.481], [203064.4962000018, 9196029.440300003], [203066.02380000055, 9196037.876200004], [203066.23199999984, 9196047.094200002], [203062.23470000178, 9196056.0239], [203057.45480000135, 9196063.8955], [203053.42310000118, 9196078.6185], [203048.33000000007, 9196094.915], [203046.1701999996, 9196104.382300003], [203044.25600000098, 9196116.747700002], [203044.44550000038, 9196129.1256], [203045.887099999, 9196152.044400003], [203044.92470000125, 9196181.269100001], [203042.25150000025, 9196188.6265], [203034.02509999927, 9196201.2178], [203024.73750000075, 9196215.3828], [203017.8367999997, 9196226.138600001], [203014.93030000012, 9196228.491400003], [203007.80270000082, 9196233.189100001], [203003.57990000024, 9196235.7974], [202999.09420000203, 9196238.404100005], [202998.74040000048, 9196253.6754], [202995.5569000002, 9196258.3966], [202980.97609999962, 9196278.3236], [202979.36869999953, 9196283.317400001], [202977.99920000136, 9196292.5261], [202954.44519999996, 9196317.929800002], [202934.05920000188, 9196341.2456], [202932.7257000003, 9196344.3977], [202936.1802000003, 9196382.6019], [202931.8604000006, 9196401.5365], [202926.7095000008, 9196427.5762], [202920.48819999956, 9196456.769600002], [202913.7580000013, 9196483.063200004], [202912.68429999985, 9196486.7435], [202905.88769999985, 9196496.9735], [202905.09380000085, 9196512.2136], [202904.30009999964, 9196529.517400002], [202897.63260000106, 9196550.154900001], [202887.7901000008, 9196563.1724], [202875.72499999963, 9196568.2524], [202866.99380000122, 9196571.2686], [202855.88120000158, 9196571.586200003], [202845.39510000125, 9196570.611600002], [202836.41110000107, 9196577.9316], [202831.1240000017, 9196582.640200002], [202824.25760000106, 9196587.6029], [202806.57909999974, 9196597.768000001], [202797.86739999987, 9196603.5096], [202794.43500000145, 9196605.8592], [202787.25870000012, 9196618.72], [202777.4139000019, 9196638.1485], [202772.03910000063, 9196657.603500001], [202759.492800002, 9196689.1293], [202750.68090000004, 9196711.724000001], [202717.32880000025, 9196708.744], [202699.1885000011, 9196708.1095], [202690.50800000038, 9196708.5845], [202680.7460000012, 9196714.056600003], [202673.34900000133, 9196719.806100003], [202656.0007000016, 9196718.649600003], [202637.5943, 9196718.5403], [202621.73900000192, 9196731.612900002], [202598.3443, 9196730.157200003], [202580.39810000174, 9196741.1107], [202564.16410000063, 9196729.427300002], [202559.9615000002, 9196728.6123], [202538.60789999925, 9196737.702200001], [202523.82630000077, 9196747.0944], [202489.8947999999, 9196748.736], [202479.88240000047, 9196752.099900002], [202423.9773000013, 9196778.6278], [202419.46650000103, 9196785.447800003], [202414.91959999967, 9196798.324200004], [202411.71250000037, 9196806.9953], [202347.12520000152, 9196834.261700004], [202315.6824000012, 9196815.377600003], [202314.12349999975, 9196812.2083], [202315.7153000012, 9196809.847700002], [202317.31340000127, 9196806.4339], [202317.87070000172, 9196801.1704], [202316.32430000138, 9196795.894500002], [202302.96710000094, 9196786.8616], [202299.8085000012, 9196787.369500002], [202299.29989999998, 9196784.469700001], [202300.89640000183, 9196781.3192], [202300.1263000006, 9196778.154500004], [202290.4377999995, 9196771.2501], [202288.57529999968, 9196774.9258], [202283.44770000037, 9196797.015600001], [202279.7507000016, 9196799.6269], [202269.21380000003, 9196802.7244], [202253.96590000112, 9196802.1069], [202210.7213000022, 9196822.1266], [202209.9105000021, 9196825.808500001], [202209.8573000012, 9196834.7617], [202220.27190000098, 9196852.203900004], [202223.59310000017, 9196868.5506], [202222.51929999888, 9196872.2309], [202215.62300000153, 9196882.1967], [202205.0111000007, 9196897.933900004], [202193.10610000044, 9196909.9765], [202191.72559999954, 9196921.0285], [202190.10080000106, 9196928.918900004], [202179.97710000072, 9196950.979100002], [202164.84630000126, 9196974.852800002], [202148.70749999862, 9196991.347000003], [202164.40000000224, 9197005.660600001], [202138.5742999995, 9197014.9871], [202135.36410000082, 9197024.184900003], [202131.64360000007, 9197030.7462], [202117.11220000125, 9197042.246500004], [202128.01990000065, 9197065.221800001], [202109.74450000003, 9197087.233500004], [202110.81489999965, 9197128.320500001], [202127.03180000093, 9197142.9006], [202118.98180000018, 9197169.9765], [202114.19859999977, 9197178.3748], [202101.5407999996, 9197184.3563], [201990.83770000096, 9197183.697500002], [201936.5333000021, 9197162.0438], [201821.8294000011, 9197170.8409], [201801.59770000167, 9197168.087000001], [201796.07249999978, 9197168.5808], [201792.11089999974, 9197171.4539], [201754.8463000022, 9197202.8325], [201710.8534000013, 9197304.2191], [201691.05440000072, 9197361.245600004], [201669.0791000016, 9197342.154300002], [201681.33870000113, 9197403.0586], [201685.5113000013, 9197408.8769], [201724.78990000207, 9197436.7614], [201802.7851000009, 9197498.5837], [201857.03019999992, 9197530.244000003], [201864.5117000006, 9197554.5155], [201816.9098000005, 9197643.767200002], [201797.07200000063, 9197663.1362], [201769.81200000085, 9197692.4678], [201758.26660000067, 9197732.426500004], [201716.46090000216, 9197775.6284], [201705.17679999955, 9197815.852], [201701.60949999932, 9197840.848], [201701.97860000003, 9197867.184], [201704.50939999986, 9197883.7894], [201705.8102000011, 9197886.1672], [201764.7513000006, 9197924.1754], [201756.27500000224, 9198022.8769], [201750.8794999998, 9198045.7552], [201742.04800000042, 9198115.7507], [201742.2776000006, 9198209.7638], [201749.92969999928, 9198249.573400004], [201749.3599000005, 9198256.9435], [201743.15520000085, 9198283.2405], [201737.5104000019, 9198392.229000002], [201741.8913000021, 9198451.506200003], [201722.90449999925, 9198584.2211], [201722.3284, 9198592.6445], [201728.4059000006, 9198764.640600001], [201668.42530000117, 9198856.979000004], [201598.4394000005, 9198951.3647], [201586.76410000026, 9198968.939000003], [201580.88180000056, 9198985.231], [201555.6810000008, 9199021.9486], [201548.28199999966, 9199027.9613], [201471.9161000019, 9199045.4141], [201404.54700000118, 9199097.681100002], [201218.7879999997, 9199246.9423]]]}, "properties": {"Id": 0}}]}