{"type": "FeatureCollection", "features": [{"type": "Feature", "geometry": {"type": "Polygon", "coordinates": [[[202750.68090000097, 9196711.7239], [202717.32875620853, 9196708.743902907], [202699.18840266485, 9196708.10944485], [202690.5079545984, 9196708.584539128], [202680.74597915262, 9196714.056602607], [202673.34897870757, 9196719.806055197], [202656.00059297774, 9196718.649615442], [202637.59414912015, 9196718.540228462], [202621.73894336168, 9196731.612838512], [202598.3442781018, 9196730.157108013], [202580.39798107464, 9196741.110586219], [202564.16398869362, 9196729.427263562], [202559.96149405837, 9196728.612271134], [202550.9325111108, 9196732.45573325], [202538.60779837333, 9196737.702123327], [202523.82626643218, 9196747.094378954], [202489.8948058728, 9196748.73600087], [202479.88236384746, 9196752.099850398], [202451.95201579388, 9196765.353297506], [202451.93550658505, 9196765.361131418], [202450.67278083414, 9196765.960317256], [202449.1665525455, 9196766.675049383], [202423.977284709, 9196778.627805147], [202419.46641980857, 9196785.44774686], [202414.91953610908, 9196798.324230341], [202411.71245756932, 9196806.99528636], [202360.84055836685, 9196828.471470084], [202347.12520251796, 9196834.261572413], [202315.68237077445, 9196815.377585335], [202314.1234664768, 9196812.208262833], [202315.71526680328, 9196809.847695438], [202317.31333290786, 9196806.433815693], [202317.87056319136, 9196801.170382423], [202316.32419160474, 9196795.894435154], [202302.96699244156, 9196786.861500164], [202299.8084565187, 9196787.36938415], [202299.29978884012, 9196784.469646057], [202300.8962894911, 9196781.319094805], [202300.12623838987, 9196778.15446422], [202290.4378151195, 9196771.250049563], [202288.57523018308, 9196774.925692473], [202283.44757375494, 9196797.015532661], [202279.75060235336, 9196799.626912097], [202269.21378761902, 9196802.724271359], [202253.96579887997, 9196802.106871964], [202210.72126549575, 9196822.12654129], [202209.91047556046, 9196825.808443079], [202209.85719756316, 9196834.761604931], [202220.27180671412, 9196852.20385935], [202223.59302028175, 9196868.550551943], [202222.51928110514, 9196872.230889171], [202215.623018099, 9196882.196683425], [202205.01096751727, 9196897.933795072], [202193.1060927892, 9196909.97648705], [202191.7255264055, 9196921.028452912], [202190.10081203002, 9196928.918914437], [202179.9770434769, 9196950.97903645], [202178.17035531066, 9196953.829662818], [202164.84622243606, 9196974.852728765], [202148.70745901298, 9196991.346967654], [202164.39994091168, 9197005.660582412], [202138.5742648905, 9197014.987062605], [202135.36399832647, 9197024.184779799], [202131.64349756017, 9197030.746083427], [202117.11219418515, 9197042.246470392], [202128.01984650176, 9197065.221765043], [202109.74452405144, 9197087.233386038], [202110.81483705342, 9197128.320448656], [202127.03170844726, 9197142.90052024], [202118.9817511635, 9197169.976410776], [202114.19846599735, 9197178.374758365], [202101.5407001786, 9197184.35621155], [202062.7182404576, 9197184.125164995], [201990.83756784163, 9197183.697377019], [201936.53329277504, 9197162.04371574], [201875.5251577366, 9197166.722688155], [201821.82931662258, 9197170.840849759], [201801.59760552645, 9197168.08696306], [201796.0724512171, 9197168.580729727], [201792.11089914292, 9197171.453855107], [201754.84624509607, 9197202.83248994], [201710.8533622753, 9197304.219083963], [201691.0543419076, 9197361.24560621], [201669.07912303042, 9197342.1543117], [201681.33856008388, 9197403.058563612], [201685.51132497098, 9197408.876869405], [201724.7898425255, 9197436.761373848], [201802.7850218853, 9197498.583676998], [201857.03014910314, 9197530.243865002], [201864.5116418125, 9197554.51551396], [201874.53127828613, 9197555.089705462], [202298.46617429424, 9197579.383981511], [202298.47826451622, 9197579.38467436], [202382.64797580242, 9197584.208156032], [202404.08610374946, 9197585.436702687], [202404.87302025873, 9197585.788024245], [202411.48761681747, 9197588.741133418], [202417.20262824744, 9197591.292619742], [202450.26197023876, 9197606.052075626], [202451.6450530328, 9197606.66955765], [202466.18973938376, 9197606.15317825], [202507.53839398548, 9197604.685178678], [202516.13736951817, 9197604.949762538], [202523.2282170318, 9197603.600384843], [202527.72614269424, 9197599.102459177], [202531.16573290806, 9197595.265993172], [202535.00219891313, 9197591.694111029], [202539.36783264484, 9197586.799309574], [202543.20429864991, 9197583.492011292], [202545.58555341326, 9197582.036800047], [202557.0949514322, 9197573.57011645], [202564.2387157185, 9197568.013855336], [202577.46790884342, 9197558.885712078], [202580.11028645933, 9197557.04405496], [202586.1991763087, 9197552.800283242], [202593.21064866334, 9197546.053394753], [202596.86190596595, 9197541.290885225], [202600.6719135875, 9197534.305871256], [202602.25941676088, 9197529.067110777], [202603.05316834804, 9197522.39959744], [202603.05316834804, 9197518.536673045], [202600.6189968139, 9197511.974993255], [202598.0789917335, 9197507.953318546], [202596.44585744943, 9197506.075214121], [202595.96232083254, 9197505.51914701], [202591.4114783993, 9197503.93164384], [202589.4006410446, 9197499.486634945], [202589.2948074974, 9197496.205795052], [202589.61230813526, 9197492.39578743], [202590.98814422078, 9197488.903280446], [202592.04647966847, 9197486.998276634], [202594.5071095908, 9197482.315142272], [202596.33273824025, 9197478.346384333], [202597.28524014726, 9197475.012627669], [202596.72961403336, 9197472.94887354], [202596.88836435322, 9197471.996371636], [202597.59339500964, 9197470.919353358], [202605.73869455233, 9197469.773867188], [202608.101900002, 9197468.573400002], [202611.0603915006, 9197475.804659368], [202611.67236847803, 9197477.300477168], [202612.16868699063, 9197478.513598071], [202614.951853469, 9197477.724874027], [202615.4229048947, 9197479.06296562], [202616.05790616386, 9197479.962550754], [202648.48064228427, 9197469.282708077], [202667.54592580535, 9197463.002725167], [202668.18092707638, 9197465.622105408], [202669.86368044466, 9197474.24224765], [202670.02243075892, 9197477.258503683], [202669.94305560272, 9197479.004757179], [202668.59367790073, 9197480.512885187], [202664.466169646, 9197481.544762254], [202656.36990345363, 9197483.291015748], [202658.19553210493, 9197493.13353543], [202659.0157420803, 9197499.377714586], [202679.13073022664, 9197492.928482939], [202680.32135760784, 9197493.166608417], [202681.35323467012, 9197493.642859366], [202683.4963639574, 9197493.880984843], [202685.48074292485, 9197495.627238339], [202686.19511935487, 9197497.214741515], [202687.30637157708, 9197499.199120477], [202687.94137284625, 9197500.786623653], [202706.27703451738, 9197495.071612222], [202713.34142364748, 9197492.293481674], [202714.45267587155, 9197491.658480402], [202714.9289268218, 9197490.94410397], [202716.9133057911, 9197490.070977226], [202718.73893444333, 9197489.753476586], [202719.2945605535, 9197489.435975954], [202720.64393825177, 9197488.800974682], [202721.42798843235, 9197488.515478149], [202735.24896746222, 9197483.482839048], [202736.51897000335, 9197483.720964521], [202737.78897254262, 9197483.403463889], [202740.8846037332, 9197481.895335872], [202759.21056399588, 9197476.200586539], [202763.5329823643, 9197474.857405128], [202764.0803097412, 9197474.344285714], [202765.22631908394, 9197473.269901956], [202767.34298998583, 9197472.317400048], [202800.7863902049, 9197459.723208193], [202804.80806491524, 9197457.924037928], [202805.65473327506, 9197457.28903666], [202807.136402905, 9197457.71237084], [202825.65727328137, 9197450.198189149], [202826.5039416384, 9197449.66902142], [202826.71560872905, 9197449.03402015], [202836.68071893696, 9197445.89284411], [202855.92566714808, 9197439.826501736], [202874.97399285063, 9197435.05688594], [202872.72628347576, 9197421.843548419], [202872.68709518295, 9197421.613176193], [202870.14349816926, 9197407.114583667], [202869.8745179996, 9197406.139383009], [202869.31471256632, 9197404.109696535], [202866.79699325655, 9197394.981221871], [202863.95342126023, 9197386.38917894], [202860.59707775153, 9197376.247587673], [202859.31511210464, 9197370.709908713], [202853.5801807018, 9197362.249114579], [202845.49583049398, 9197350.877692271], [202838.19881209265, 9197339.774273781], [202833.3296264978, 9197332.688781792], [202832.20249327924, 9197331.04858451], [202831.02442172542, 9197329.213080987], [202824.90702128224, 9197319.68181187], [202816.55820471048, 9197308.572127368], [202814.2197807692, 9197303.818205051], [202810.6715080915, 9197300.73572669], [202808.72590841632, 9197299.045530349], [202796.4312693635, 9197288.175785962], [202790.54665460438, 9197282.534686994], [202790.45461347792, 9197282.446450023], [202786.7567271497, 9197278.901585892], [202783.1798913842, 9197275.880410206], [202780.47717200126, 9197273.597583184], [202777.20572833437, 9197268.95298507], [202773.9580722209, 9197264.342100874], [202771.96925126296, 9197261.062161518], [202756.23153524194, 9197235.93693963], [202742.01247193385, 9197213.370827656], [202737.48877730034, 9197206.191573594], [202737.27740637865, 9197197.500199923], [202737.16319550853, 9197184.761000039], [202737.15610875003, 9197183.971074145], [202740.35405811016, 9197162.341105122], [202743.74325455446, 9197139.417633556], [202745.66002257168, 9197114.335619891], [202745.56980983447, 9197112.810778668], [202745.38172713574, 9197109.631684067], [202744.94310520776, 9197102.21789496], [202744.98689341545, 9197094.844719714], [202743.70340577327, 9197089.570384972], [202743.60942445416, 9197086.271553196], [202743.2682007337, 9197074.294282712], [202743.24095817283, 9197073.883966276], [202742.46027573477, 9197062.125651687], [202742.0613296153, 9197056.116890779], [202741.03199840523, 9197047.309800189], [202740.05938923173, 9197038.988114756], [202739.27981468476, 9197036.74145414], [202736.92853612266, 9197029.96529019], [202735.71109216195, 9197026.456731064], [202735.66429055855, 9197026.321877662], [202732.95836163778, 9197018.562901158], [202730.23459443916, 9197010.752775224], [202728.60842079297, 9197006.381278075], [202724.54039202817, 9196995.44541522], [202718.2283976646, 9196978.714500885], [202718.06829088368, 9196978.290102854], [202717.31559173763, 9196976.355792748], [202716.49246187788, 9196974.240487564], [202713.06538587436, 9196965.43347912], [202712.11112867203, 9196962.98119875], [202705.90042633004, 9196946.09077593], [202701.24398669042, 9196933.15960619], [202697.62056916207, 9196923.39461972], [202693.3213986056, 9196904.823246721], [202691.85840000305, 9196898.503500003], [202689.15060000122, 9196867.413700003], [202689.67592122313, 9196861.832179409], [202690.52099239733, 9196852.853326146], [202692.46425615344, 9196838.186260197], [202696.2814000016, 9196817.948800001], [202703.7286308147, 9196808.17422723], [202720.02521552145, 9196786.78479371], [202720.79411256034, 9196785.017217368], [202724.2733221529, 9196777.156909807], [202732.48517405428, 9196758.604579618], [202742.6500775898, 9196735.639794298], [202750.68090000097, 9196711.7239]]]}, "properties": {"Id": 0, "Nama_RW": "RW 003", "Luas": 63.1473668764}}, {"type": "Feature", "geometry": {"type": "Polygon", "coordinates": [[[202874.97399285063, 9197435.056885941], [202855.92566714808, 9197439.826501736], [202836.68071893696, 9197445.89284411], [202826.71560872905, 9197449.03402015], [202826.5039416384, 9197449.66902142], [202825.65727328137, 9197450.198189149], [202807.136402905, 9197457.71237084], [202805.65473327506, 9197457.28903666], [202804.80806491524, 9197457.924037928], [202800.7863902049, 9197459.723208193], [202767.34298998583, 9197472.317400048], [202765.22631908394, 9197473.269901956], [202764.0803097412, 9197474.344285714], [202763.5329823643, 9197474.857405128], [202759.21056399588, 9197476.200586539], [202740.8846037332, 9197481.895335872], [202737.78897254262, 9197483.403463889], [202736.51897000335, 9197483.720964521], [202735.24896746222, 9197483.482839048], [202721.42798843235, 9197488.515478149], [202720.64393825177, 9197488.800974682], [202719.2945605535, 9197489.435975954], [202718.73893444333, 9197489.753476586], [202716.9133057911, 9197490.070977226], [202714.9289268218, 9197490.94410397], [202714.45267587155, 9197491.658480402], [202713.34142364748, 9197492.293481674], [202706.27703451738, 9197495.071612222], [202687.94137284625, 9197500.786623653], [202687.30637157708, 9197499.199120477], [202686.19511935487, 9197497.214741515], [202685.48074292485, 9197495.627238339], [202683.4963639574, 9197493.880984843], [202681.35323467012, 9197493.642859366], [202680.32135760784, 9197493.166608417], [202679.13073022664, 9197492.928482939], [202659.0157420803, 9197499.377714586], [202658.19553210493, 9197493.13353543], [202656.36990345363, 9197483.291015748], [202664.466169646, 9197481.544762254], [202668.59367790073, 9197480.512885187], [202669.94305560272, 9197479.004757179], [202670.02243075892, 9197477.258503683], [202669.86368044466, 9197474.24224765], [202668.18092707638, 9197465.622105408], [202667.54592580535, 9197463.002725167], [202648.48064228427, 9197469.282708077], [202616.05790616386, 9197479.962550754], [202615.4229048947, 9197479.06296562], [202614.951853469, 9197477.724874027], [202612.16868699063, 9197478.513598071], [202611.67236847803, 9197477.300477168], [202611.0603915006, 9197475.804659368], [202608.101900002, 9197468.573400002], [202605.73869455233, 9197469.773867188], [202597.59339500964, 9197470.919353358], [202596.88836435322, 9197471.996371636], [202596.72961403336, 9197472.94887354], [202597.28524014726, 9197475.012627669], [202596.33273824025, 9197478.346384333], [202594.5071095908, 9197482.315142272], [202592.04647966847, 9197486.998276634], [202590.98814422078, 9197488.903280446], [202589.61230813526, 9197492.39578743], [202589.2948074974, 9197496.205795052], [202589.4006410446, 9197499.486634945], [202591.4114783993, 9197503.93164384], [202595.96232083254, 9197505.51914701], [202596.44585744943, 9197506.075214121], [202598.0789917335, 9197507.953318546], [202600.6189968139, 9197511.974993255], [202603.05316834804, 9197518.536673045], [202603.05316834804, 9197522.39959744], [202602.25941676088, 9197529.067110777], [202600.6719135875, 9197534.305871256], [202596.86190596595, 9197541.290885225], [202593.21064866334, 9197546.053394753], [202586.1991763087, 9197552.800283242], [202580.11028645933, 9197557.04405496], [202577.46790884342, 9197558.885712078], [202564.2387157185, 9197568.013855336], [202557.0949514322, 9197573.57011645], [202545.58555341326, 9197582.036800047], [202543.20429864991, 9197583.492011292], [202539.36783264484, 9197586.799309574], [202535.00219891313, 9197591.694111029], [202531.16573290806, 9197595.265993172], [202527.72614269424, 9197599.102459177], [202523.2282170318, 9197603.600384843], [202516.13736951817, 9197604.949762538], [202507.53839398548, 9197604.685178678], [202466.18973938376, 9197606.15317825], [202451.6450530328, 9197606.66955765], [202450.26197023876, 9197606.052075626], [202417.20262824744, 9197591.292619746], [202411.48761681747, 9197588.741133418], [202404.87302025873, 9197585.788024245], [202404.08610374946, 9197585.436702687], [202382.64797580242, 9197584.208156032], [202298.47826451622, 9197579.38467436], [202298.46617429424, 9197579.383981511], [201874.53127828613, 9197555.089705462], [201864.5116418125, 9197554.51551396], [201864.2053995775, 9197555.089705458], [201816.90970254876, 9197643.76717691], [201797.07202742808, 9197663.136126114], [201769.8120004097, 9197692.467745937], [201758.26661071088, 9197732.426451504], [201716.4608346736, 9197775.62841392], [201705.17679311987, 9197815.852023356], [201701.60942289978, 9197840.847942831], [201701.97857160307, 9197867.183990303], [201704.50938367005, 9197883.789381344], [201705.81006126385, 9197886.16717055], [201764.75129655097, 9197924.175392965], [201756.27490568627, 9198022.876837045], [201750.87941767462, 9198045.755168103], [201746.24177946988, 9198082.511618149], [201742.04794436228, 9198115.750625543], [201742.27746133972, 9198209.763793912], [201749.92965945136, 9198249.573414214], [201749.35987629276, 9198256.94349844], [201743.15515735932, 9198283.24042156], [201737.81192257628, 9198386.407128958], [201737.51039868966, 9198392.228925617], [201741.89125224762, 9198451.506114285], [201754.3661142364, 9198476.334114756], [201756.73588793445, 9198475.821532296], [201879.5489254119, 9198423.540972862], [201940.63083841838, 9198397.538838457], [201965.1427045334, 9198387.104317516], [201989.79030180722, 9198376.612005727], [201991.6451019505, 9198374.252989002], [201995.2785687996, 9198361.829648808], [201995.8327416163, 9198359.934853105], [201996.27164187748, 9198358.434190571], [202006.94522329886, 9198321.939693473], [202022.02986834385, 9198311.07449167], [202052.63427839428, 9198289.030674035], [202090.40453067794, 9198262.322352633], [202138.90346871596, 9198228.027488295], [202198.06890137494, 9198186.190045593], [202204.15904458798, 9198181.883546183], [202224.84580485616, 9198167.255371982], [202254.1721557388, 9198146.517910307], [202259.18095663004, 9198142.976056745], [202289.19407030102, 9198121.752970865], [202341.79796926957, 9198084.555301046], [202366.25548609998, 9198083.299504908], [202366.45730989054, 9198083.289142793], [202372.01045079436, 9198083.004009992], [202387.0539755905, 9198082.23158262], [202427.57577012572, 9198080.150940258], [202438.33597208, 9198079.598443495], [202438.8790822681, 9198076.704960627], [202443.88685176708, 9198058.40643434], [202445.61186582036, 9198052.103185263], [202450.24404009804, 9198035.177092563], [202460.95985943824, 9197996.021190869], [202467.37155726366, 9197972.592668371], [202490.16515611485, 9197982.237855263], [202527.96435847692, 9197998.232713016], [202549.85122436844, 9197977.118564019], [202570.0166211212, 9197957.665103737], [202579.3919694312, 9197964.204072122], [202596.9247464491, 9197976.432550713], [202617.3885382535, 9197990.705305913], [202626.93432623427, 9197997.363144914], [202629.323110193, 9197999.02923433], [202648.84289228637, 9198012.643565455], [202657.45249745157, 9197999.029235207], [202662.5470341919, 9197990.973265473], [202684.39115877356, 9197956.431232695], [202697.97898616362, 9197934.94485221], [202701.62520762067, 9197929.179095676], [202705.91579907574, 9197922.394396786], [202696.32948748954, 9197907.268353164], [202689.1231261203, 9197895.897583973], [202689.23049557488, 9197895.52954985], [202732.6421000613, 9197881.356432306], [202749.68595364504, 9197875.378884055], [202757.94322551414, 9197877.889968501], [202758.01251186617, 9197881.651283829], [202758.12510273978, 9197887.763417128], [202757.77784983814, 9197889.791489067], [202776.2455366645, 9197891.510664837], [202779.99817680102, 9197891.859993055], [202781.74444790464, 9197892.971276175], [202779.6807033522, 9197897.57499583], [202782.53813013807, 9197903.76628504], [202789.20668895915, 9197916.552890489], [202790.00035328884, 9197919.331081081], [202791.85251383763, 9197923.432153182], [202792.6462324718, 9197925.548756553], [202794.36607516743, 9197924.093600238], [202793.96915771067, 9197925.416523792], [202794.89521571808, 9197926.739452817], [202796.35043101478, 9197926.210257875], [202798.59935949836, 9197929.120641435], [202800.05456149857, 9197932.031122306], [202803.75874567032, 9197936.925924014], [202809.05039442517, 9197937.851904305], [202814.20984445047, 9197941.556122875], [202819.36919134203, 9197946.318639455], [202822.14731446654, 9197950.94881062], [202822.8068094449, 9197952.369165583], [202826.86408236902, 9197965.116858669], [202832.29632940888, 9197982.184632856], [202833.06140200514, 9197984.6006135], [202836.52395391, 9197992.945581239], [202842.02732703649, 9198003.52889106], [202845.56300410442, 9198010.199115934], [202844.17392706685, 9198014.630842002], [202843.71089150757, 9198016.350702543], [202843.38016908988, 9198018.268919865], [202843.04941875953, 9198021.443942532], [202843.38023181446, 9198024.55274922], [202843.94182784483, 9198026.399905805], [202844.17395037506, 9198027.727748923], [202844.76921640895, 9198029.182936277], [202845.29841337353, 9198030.638149485], [202845.82758448552, 9198032.027293567], [202846.42292634677, 9198033.15173826], [202847.67965403572, 9198034.805382868], [202849.13486364856, 9198035.863734905], [202850.7223608466, 9198036.789799644], [202852.11150334962, 9198037.318927841], [202854.02964476123, 9198037.980392115], [202856.38450370543, 9198039.237152519], [202858.8318693312, 9198040.361599296], [202861.54388372414, 9198041.419978553], [202864.78502172697, 9198043.47048852], [202868.4230673015, 9198047.637747495], [202871.79649062548, 9198051.407992985], [202873.9131320482, 9198055.773629222], [202876.22822837904, 9198060.536202736], [202882.31370696053, 9198072.376305254], [202886.87776042614, 9198081.438293679], [202891.5080137439, 9198085.274731776], [202892.10330357682, 9198087.58991036], [202891.24340931885, 9198090.23568132], [202891.83872539643, 9198092.35235424], [202893.22776544, 9198094.733602086], [202897.0844000019, 9198096.118600002], [202895.98085102346, 9198111.999443116], [202900.42588822916, 9198126.842612617], [202913.6020908039, 9198143.273226636], [202918.2059093006, 9198159.942024194], [202920.03149413597, 9198160.973883923], [202920.98404245824, 9198163.196430387], [202920.82526914682, 9198167.562059967], [202923.22456347104, 9198182.89653271], [202925.54404900782, 9198190.03144542], [202929.2613328388, 9198200.758123875], [202932.42945040483, 9198209.900115708], [202936.4621953126, 9198221.5370958], [202942.41527867038, 9198228.363398256], [202942.970919732, 9198232.173439542], [202945.1934683062, 9198234.237157546], [202947.81282805372, 9198235.983374668], [202950.74973624758, 9198237.888416408], [202952.65468565002, 9198240.34904469], [202953.60723736603, 9198243.20658725], [202954.6390517885, 9198245.587804252], [202956.91454922687, 9198247.267903855], [202957.7082524728, 9198250.112151384], [202957.5759970229, 9198254.54399773], [202959.67380147148, 9198277.822792962], [202962.3018000014, 9198278.101700002], [202964.21902928594, 9198277.045475334], [202964.19057085086, 9198275.274140224], [202965.57965705264, 9198273.289755106], [202967.0348659139, 9198273.554376379], [202968.15935762692, 9198273.355843494], [202969.15146056376, 9198273.025122404], [202970.14371172804, 9198272.297591783], [202970.87126512825, 9198271.5037917], [202971.92968451697, 9198270.51166199], [202973.18641136773, 9198269.784029532], [202974.31087815482, 9198270.0485764], [202975.501561475, 9198269.65171331], [202976.42754507344, 9198268.924106384], [202977.15514807682, 9198268.262644196], [202978.8160605859, 9198269.003459975], [202980.7932210341, 9198269.056385403], [202982.84374498203, 9198268.527257781], [202984.16663857643, 9198267.005877886], [202991.11200108659, 9198260.854264162], [202995.27914149873, 9198259.59757821], [203000.83540027868, 9198259.862142216], [203008.1775870556, 9198261.383429958], [203015.25524722505, 9198262.507907398], [203020.5829914445, 9198272.32441861], [203019.20574739203, 9198253.426619297], [203019.1238028519, 9198252.302224796], [203010.61002060864, 9198224.601523282], [203005.18780104164, 9198207.715913052], [203001.96749354806, 9198200.434502859], [202991.17539226636, 9198176.032598002], [202985.44339884166, 9198167.04520566], [202977.08967689332, 9198156.725605108], [202940.76501647662, 9198118.32661539], [202933.59089745302, 9198108.215801815], [202909.9921990838, 9198074.957113048], [202908.34967944305, 9198066.121481843], [202906.92539398186, 9198058.459801124], [202904.8954086434, 9198047.539979981], [202905.55400528852, 9198025.160297498], [202905.46412127092, 9198021.794499435], [202904.4780852953, 9197984.863495922], [202901.92658594996, 9197971.681579933], [202899.89630139526, 9197959.292712845], [202896.75910431426, 9197954.18227081], [202893.47480288148, 9197948.83219824], [202889.9992188802, 9197943.170522306], [202885.0514943637, 9197934.977794483], [202859.96549918596, 9197908.23209512], [202857.9722119365, 9197904.415693767], [202839.74271737132, 9197869.512790931], [202839.68457962666, 9197869.401398377], [202839.0886763027, 9197852.185191851], [202838.4635675233, 9197834.12521217], [202837.88858755957, 9197817.513501188], [202845.2919042604, 9197810.710683653], [202853.49037505686, 9197802.859201226], [202863.30088620912, 9197789.223900447], [202880.02318003122, 9197762.989475882], [202882.4209903637, 9197757.73692405], [202884.6145984577, 9197749.489399591], [202884.90898803622, 9197748.382596822], [202885.91748337168, 9197744.590887332], [202889.96977686975, 9197730.172340518], [202889.60629656352, 9197726.37556523], [202889.30531011056, 9197723.231693154], [202886.48152025603, 9197711.628123919], [202883.65620067157, 9197700.287917793], [202883.33445074316, 9197699.190264145], [202880.56321259588, 9197689.736121949], [202881.94359461777, 9197678.68420532], [202882.29011556692, 9197676.099339696], [202883.31928408332, 9197668.422279146], [202883.39378525037, 9197665.727299588], [202883.5914257234, 9197658.577200713], [202883.6540826941, 9197656.31078958], [202882.92610807996, 9197646.036375009], [202881.95550945774, 9197632.337105434], [202881.8969502831, 9197631.371082162], [202881.25231658574, 9197620.736564113], [202881.23692184687, 9197620.482709857], [202881.3228247529, 9197605.999719065], [202881.395299335, 9197593.783499999], [202881.43306988478, 9197587.418402504], [202881.43372418825, 9197587.30351273], [202880.9875016138, 9197573.870715965], [202881.31837280467, 9197566.660098754], [202881.59150518198, 9197560.707502207], [202880.31737876125, 9197553.853202395], [202880.11220023595, 9197544.108523985], [202880.33922950365, 9197538.158092689], [202880.55170717277, 9197532.589052856], [202880.7349777678, 9197527.785398504], [202880.8058727337, 9197515.83239984], [202880.80741985328, 9197515.569100125], [202880.65731387027, 9197514.39078958], [202875.5373000009, 9197474.194100006], [202876.74795244448, 9197448.272514155], [202876.73651874904, 9197448.234118719], [202875.3619382996, 9197437.957394881], [202875.18359827064, 9197436.624037264], [202874.97399285063, 9197435.056885941]]]}, "properties": {"Id": 0, "Nama_RW": "RW 004", "Luas": 68.8774468319}}, {"type": "Feature", "geometry": {"type": "Polygon", "coordinates": [[[203020.5829914445, 9198272.32441861], [202987.36538491026, 9198264.29338951], [202962.30180910602, 9198278.101699729], [202959.67380147148, 9198277.822792962], [202950.2588028172, 9198253.426618457], [202941.37904663198, 9198230.417340353], [202931.05274604075, 9198203.659764603], [202927.60516767204, 9198194.726377077], [202923.35059955157, 9198183.701913442], [202916.36715146247, 9198165.606348913], [202911.55229883734, 9198153.130062638], [202901.91931871604, 9198128.169000879], [202897.08441085648, 9198096.118670437], [202893.24798765779, 9198070.687227061], [202890.78631096426, 9198054.368895711], [202885.4300125502, 9198046.081757342], [202866.70357926842, 9198017.108654175], [202852.75307306554, 9197995.524751153], [202847.57918641996, 9197987.519829622], [202843.34092850517, 9197980.96249137], [202843.33096997254, 9197980.94708478], [202839.39705548622, 9197974.86062007], [202826.03184749838, 9197954.182269638], [202825.62660670094, 9197953.555288957], [202825.36183612514, 9197953.145641545], [202812.874581323, 9197933.825623663], [202793.21748491656, 9197903.004025556], [202789.94692229666, 9197897.875903485], [202786.81801252905, 9197893.380627168], [202784.20251847152, 9197890.9950866], [202780.52739475295, 9197889.919942508], [202757.77784983814, 9197889.791489065], [202758.12510273978, 9197887.763417127], [202758.01251186617, 9197881.651283825], [202757.94322551414, 9197877.889968501], [202749.68595364504, 9197875.378884055], [202733.494810652, 9197881.078037448], [202689.23049557488, 9197895.52954985], [202689.1231261203, 9197895.897583973], [202696.32948748954, 9197907.268353164], [202705.91579907574, 9197922.394396786], [202701.62520760112, 9197929.179095665], [202697.97898599878, 9197934.944852108], [202684.39115860313, 9197956.431232585], [202662.54703407642, 9197990.973265398], [202657.45249739382, 9197999.029235171], [202648.84289228637, 9198012.643565455], [202629.32311032433, 9197999.029234143], [202626.93432639446, 9197997.363144686], [202617.38853851892, 9197990.705305535], [202596.924746708, 9197976.432550343], [202579.3919695923, 9197964.204071887], [202570.0166211212, 9197957.665103737], [202549.85122425854, 9197977.118563903], [202527.96435847692, 9197998.232713016], [202490.16515611485, 9197982.237855263], [202467.37155726366, 9197972.592668371], [202460.95985943545, 9197996.021190869], [202450.24404006917, 9198035.177092554], [202445.61186578125, 9198052.103185251], [202443.88685171213, 9198058.406434324], [202438.8790822681, 9198076.704960627], [202438.33597208, 9198079.598443495], [202427.5757701276, 9198080.15094025], [202387.0539755812, 9198082.231582403], [202372.01045077015, 9198083.0040095], [202366.45730987843, 9198083.289142532], [202366.25548609346, 9198083.299504759], [202417.68033367023, 9198147.867328437], [202498.154321027, 9198188.053207517], [202671.0855279807, 9198274.408970412], [202673.59907467477, 9198294.729011051], [202681.37784023397, 9198294.490885578], [202679.5522115836, 9198282.981487561], [202687.17222682014, 9198282.452319833], [202689.9238989912, 9198294.729011051], [202693.74579984788, 9198320.764799047], [202676.93140000105, 9198321.706300002], [202674.99404743407, 9198321.764578497], [202674.96714044176, 9198321.7653879], [202675.68840524275, 9198337.909097409], [202678.9957035249, 9198337.64451355], [202679.68362156767, 9198348.524201974], [202678.65174450167, 9198362.811730545], [202672.30173180252, 9198362.891105706], [202671.74610569142, 9198368.090178605], [202670.47610315215, 9198374.67831678], [202669.60297640413, 9198377.694572816], [202668.17422354594, 9198380.710828843], [202690.9757184703, 9198389.930694534], [202748.39605065808, 9198413.148810385], [202767.76358939428, 9198423.573414575], [202775.70110526774, 9198429.791135337], [202781.125074449, 9198437.331775423], [202783.1094534183, 9198442.226576881], [202783.5063292142, 9198449.89950889], [202783.77091307566, 9198452.942223309], [202785.88758397475, 9198454.397434555], [202789.72404998168, 9198455.058894211], [202791.39092831407, 9198455.495457582], [202793.1371818073, 9198457.082960758], [202794.4530455498, 9198458.080441922], [202795.0483592404, 9198459.667945096], [202796.43742451724, 9198461.057010375], [202798.88482524734, 9198462.313783726], [202800.40618245583, 9198463.43826514], [202801.53066387214, 9198466.282541659], [202802.91972915083, 9198468.597650455], [202804.37494039256, 9198471.243489083], [202804.7321286071, 9198473.00297177], [202803.93837701995, 9198475.119642671], [202802.88004157227, 9198478.162357086], [202802.0862899823, 9198481.072779575], [202801.42483032774, 9198483.85091013], [202800.49878680892, 9198487.422792278], [202800.23420294467, 9198490.465506697], [202802.1392067559, 9198492.34405212], [202803.7267099293, 9198492.449885663], [202805.208379562, 9198492.449885663], [202806.3196317805, 9198492.926136615], [202807.11338337045, 9198494.037388839], [202807.96005173028, 9198494.3019727], [202809.494638131, 9198494.249055928], [202809.8650555387, 9198494.831140425], [202809.8650555387, 9198495.571975242], [202809.70630522352, 9198496.736144233], [202809.01838718075, 9198497.582812594], [202808.27755236533, 9198498.323647408], [202808.11863404978, 9198498.74080799], [202807.85421818588, 9198499.434899634], [202807.74838464241, 9198500.493235083], [202808.06588527653, 9198501.71032085], [202809.07130395435, 9198502.292405346], [202810.28838972002, 9198502.715739531], [202811.3996419441, 9198503.403657569], [202812.03464321326, 9198504.514909793], [202812.03464321326, 9198505.57324524], [202812.03464321326, 9198507.0019981], [202812.29922707472, 9198508.642418047], [202812.51089416537, 9198509.912420586], [202812.98714511748, 9198511.552840538], [202814.3100644322, 9198515.83909911], [202814.9450657023, 9198518.590771275], [202817.37923723552, 9198521.977444714], [202821.83207195625, 9198527.492973557], [202825.7400872903, 9198533.724968214], [202826.29853563756, 9198535.121089084], [202827.01008983236, 9198536.899974564], [202827.75092464313, 9198539.228312548], [202828.06842528284, 9198540.604148634], [202828.2443735469, 9198541.47462954], [202829.86494970787, 9198543.558227457], [202830.09646058735, 9198543.855884304], [202830.49333638046, 9198544.087395182], [202831.05557708815, 9198543.922030268], [202831.41937989928, 9198543.657446407], [202831.88240166008, 9198544.054322198], [202832.2792774532, 9198544.649635889], [202832.67615324445, 9198545.112657651], [202833.3376129018, 9198545.93948222], [202833.76756167784, 9198546.700160827], [202834.26365642063, 9198547.163182583], [202835.75194064714, 9198548.968967447], [202836.70444255415, 9198549.762719035], [202838.0538202515, 9198550.159594832], [202839.32382279076, 9198551.112096736], [202839.95882405993, 9198552.1439738], [202840.91132596415, 9198552.778975068], [202843.7688316824, 9198552.461474432], [202859.64857987128, 9198572.567960352], [202888.5288991956, 9198559.53950261], [202909.63264643773, 9198548.341073215], [202921.26052691508, 9198538.666522255], [202929.46007158514, 9198528.931149574], [202931.85372844338, 9198526.089145223], [202934.2562283855, 9198520.046648968], [202937.72927854396, 9198510.850462513], [202938.26015132666, 9198508.37240393], [202940.43373227026, 9198498.226355562], [202943.8107325472, 9198460.85265082], [202944.99345084094, 9198454.366195723], [202947.8506935779, 9198438.69619883], [202952.78002284374, 9198411.66197892], [202964.91399033833, 9198394.556893146], [202977.70708632935, 9198376.522604277], [202988.30188493244, 9198365.840085054], [202991.72801969666, 9198362.385513313], [202997.6287872279, 9198327.336697852], [202998.81450270675, 9198320.29378118], [203011.25770667102, 9198306.147318054], [203017.7500288617, 9198282.599606477], [203017.88506231457, 9198282.109838776], [203020.5829914445, 9198272.32441861]]]}, "properties": {"Id": 0, "Nama_RW": "RW 005", "Luas": 19.883361027}}, {"type": "Feature", "geometry": {"type": "Polygon", "coordinates": [[[202859.64857987128, 9198572.56796035], [202843.76883168053, 9198552.461474432], [202840.91132596415, 9198552.778975068], [202839.95882405993, 9198552.143973798], [202839.32382279076, 9198551.112096734], [202838.0538202515, 9198550.15959483], [202836.70444255322, 9198549.762719035], [202835.7519406462, 9198548.968967447], [202834.26365642063, 9198547.163182583], [202833.76756167784, 9198546.700160827], [202833.33761290088, 9198545.93948222], [202832.67615324445, 9198545.112657651], [202832.2792774532, 9198544.649635889], [202831.88240165915, 9198544.054322198], [202831.41937989835, 9198543.657446407], [202831.05557708722, 9198543.922030268], [202830.49333638046, 9198544.087395182], [202830.0964605864, 9198543.855884302], [202829.86494970787, 9198543.558227457], [202828.24437354784, 9198541.47462954], [202828.06842528097, 9198540.604148634], [202827.75092464313, 9198539.228312548], [202827.0100898305, 9198536.899974562], [202826.2985356385, 9198535.121089084], [202825.74008728936, 9198533.724968212], [202821.83207195532, 9198527.492973555], [202817.37923723552, 9198521.977444714], [202814.94506570045, 9198518.590771275], [202814.31006443128, 9198515.839099107], [202812.98714511655, 9198511.552840536], [202812.51089416537, 9198509.912420586], [202812.2992270738, 9198508.642418046], [202812.03464321233, 9198507.001998099], [202812.03464321233, 9198505.57324524], [202812.03464321233, 9198504.514909793], [202811.39964194223, 9198503.403657569], [202810.28838972002, 9198502.71573953], [202809.07130395342, 9198502.292405346], [202808.0658852756, 9198501.710320849], [202807.74838464148, 9198500.493235081], [202807.85421818495, 9198499.434899634], [202808.11863404978, 9198498.74080799], [202808.27755236533, 9198498.323647408], [202809.01838718075, 9198497.582812594], [202809.7063052226, 9198496.736144233], [202809.8650555387, 9198495.57197524], [202809.8650555387, 9198494.831140425], [202809.494638131, 9198494.249055926], [202807.96005173028, 9198494.301972698], [202807.11338336952, 9198494.037388837], [202806.3196317805, 9198492.926136613], [202805.20837956015, 9198492.44988566], [202803.7267099293, 9198492.44988566], [202802.1392067559, 9198492.344052117], [202800.23420294467, 9198490.465506697], [202800.49878680892, 9198487.422792276], [202801.4248303268, 9198483.85091013], [202802.0862899823, 9198481.072779574], [202802.88004157133, 9198478.162357086], [202803.93837701902, 9198475.119642671], [202804.7321286071, 9198473.002971768], [202804.37494039256, 9198471.243489083], [202802.91972915083, 9198468.597650455], [202801.53066387028, 9198466.282541659], [202800.40618245583, 9198463.438265137], [202798.88482524548, 9198462.313783724], [202796.43742451724, 9198461.057010375], [202795.04835923947, 9198459.667945096], [202794.4530455498, 9198458.080441922], [202793.1371818073, 9198457.082960758], [202791.39092831407, 9198455.495457582], [202789.72404998075, 9198455.058894211], [202785.88758397475, 9198454.397434553], [202783.7709130738, 9198452.942223309], [202783.50632921234, 9198449.89950889], [202783.1094534183, 9198442.22657688], [202781.12507444806, 9198437.331775423], [202775.7011052668, 9198429.791135337], [202767.76358939242, 9198423.573414573], [202748.39605065715, 9198413.148810385], [202690.97571846936, 9198389.930694534], [202668.17422354594, 9198380.710828843], [202669.60297640413, 9198377.694572814], [202670.47610315122, 9198374.67831678], [202671.7461056905, 9198368.090178603], [202672.3017318016, 9198362.891105704], [202678.65174450167, 9198362.811730545], [202679.6836215658, 9198348.524201972], [202678.99570352305, 9198337.644513547], [202675.68840524275, 9198337.909097407], [202674.96714044176, 9198321.765387898], [202674.99404743407, 9198321.764578493], [202676.93140000012, 9198321.7063], [202693.74579984788, 9198320.764799047], [202689.92389899027, 9198294.729011051], [202687.17222682014, 9198282.452319833], [202679.55221158266, 9198282.98148756], [202681.3778402321, 9198294.490885576], [202673.5990746757, 9198294.729011051], [202671.0855279807, 9198274.408970412], [202498.15432102606, 9198188.053207515], [202417.68033367023, 9198147.867328437], [202366.25548608974, 9198083.29950468], [202341.79796926957, 9198084.555301046], [202289.19406783022, 9198121.752967369], [202259.18095357344, 9198142.97605242], [202254.172153146, 9198146.517906642], [202224.84580117557, 9198167.255366776], [202204.1590402173, 9198181.883539999], [202198.06889718864, 9198186.190039676], [202138.90346536133, 9198228.027483545], [202090.40452893358, 9198262.322350163], [202052.6342783952, 9198289.030674035], [202022.02986825816, 9198311.074491553], [202006.94522329792, 9198321.939693473], [201996.2716418542, 9198358.43419056], [201995.83274159022, 9198359.934853101], [201995.2785687754, 9198361.829648798], [201991.64510194957, 9198374.252989002], [201989.7903018063, 9198376.612005727], [201965.14270399697, 9198387.10431626], [201940.63083785307, 9198397.538837131], [201879.54892400932, 9198423.540969562], [201756.73588793352, 9198475.821532294], [201754.3661142364, 9198476.334114756], [201741.89125224762, 9198451.506114285], [201722.90440942813, 9198584.221057119], [201722.3283728361, 9198592.64445918], [201728.4057945665, 9198764.640545584], [201668.4252220923, 9198856.97900996], [201598.43934736494, 9198951.364689765], [201586.76404998917, 9198968.938941045], [201580.88176600263, 9198985.230951598], [201555.6810019156, 9199021.948484592], [201548.28200243786, 9199027.961284451], [201471.91607902013, 9199045.41408349], [201404.54693770595, 9199097.681042094], [201218.7879607696, 9199246.9422107], [201261.56791307498, 9199305.394798478], [201315.42124880198, 9199270.691155316], [201406.8581082262, 9199239.634475587], [201532.65075930208, 9199224.318959357], [201650.2866413584, 9199253.98554742], [201667.62507776543, 9199256.98532189], [201676.3029035004, 9199257.036896622], [201872.16861660592, 9199176.829138398], [201882.71062191203, 9199172.941685885], [201935.21575204004, 9199188.000445472], [201938.09271324892, 9199190.650909169], [201961.10215908103, 9199212.907922825], [201972.55373000074, 9199232.989592543], [202000.95100786258, 9199277.925609503], [201998.29479322024, 9199282.386582326], [201933.168494503, 9199444.21603756], [201987.35097848251, 9199531.175790647], [201987.05675647873, 9199536.44079927], [201986.97236427106, 9199550.660536373], [202058.5853335876, 9199580.842643125], [202087.36467440892, 9199605.76711575], [202022.2647333853, 9199718.879404472], [202044.46792872343, 9199699.787482442], [202053.73578793462, 9199689.04562242], [202075.6525599761, 9199673.902059874], [202079.8881304236, 9199669.18710987], [202083.87166887056, 9199662.62730201], [202092.58390291594, 9199656.885557221], [202120.0182377454, 9199642.564727299], [202147.5212730011, 9199616.65744948], [202164.44944710005, 9199600.167594643], [202166.85830220953, 9199593.071772056], [202172.70444539934, 9199582.836287323], [202179.59620009176, 9199573.660353538], [202192.0070946766, 9199565.043826666], [202197.52936003637, 9199565.07657686], [202214.37317403965, 9199562.806430943], [202234.21265790425, 9199543.173785247], [202257.72894747276, 9199524.35295127], [202277.11897737347, 9199491.814113779], [202306.62653543148, 9199438.268297385], [202357.85007436574, 9199359.044209018], [202360.50469017215, 9199354.846555423], [202381.11107843556, 9199338.905167209], [202393.24486385845, 9199332.657014478], [202409.0585714234, 9199326.694011942], [202435.90892690234, 9199322.113112338], [202440.65007017087, 9199320.824531335], [202480.49953972735, 9199297.097075298], [202504.58055553492, 9199271.696130404], [202524.13031916507, 9199256.538460923], [202539.45238086488, 9199244.779111337], [202568.14102149196, 9199196.231838288], [202581.33282984234, 9199188.936584901], [202600.60553134792, 9199176.147293316], [202616.46439514123, 9199162.547760835], [202629.95659194887, 9199148.934203994], [202636.86381247453, 9199137.124986222], [202647.23165934067, 9199118.226187356], [202652.04298059642, 9199105.087869804], [202669.0479776254, 9199031.191077322], [202674.93610157724, 9199013.845759515], [202707.97317870613, 9198985.86450513], [202725.1608053958, 9198969.902816208], [202732.32776413672, 9198958.756201752], [202743.20906420983, 9198941.832753316], [202744.60030961502, 9198928.937515907], [202743.86915021949, 9198919.189740362], [202741.04054810293, 9198908.376192851], [202730.9411067022, 9198881.982721567], [202726.78678872064, 9198873.004670773], [202718.44227101933, 9198861.105090456], [202712.17023247853, 9198854.484515836], [202692.19537984114, 9198808.282273196], [202685.97641384695, 9198792.708566649], [202685.77431879286, 9198782.437247325], [202687.65432965197, 9198778.727154389], [202692.1602679668, 9198769.834945152], [202696.93256137706, 9198763.279817736], [202712.2685016943, 9198749.150539337], [202715.58901395928, 9198747.37246835], [202727.83306141756, 9198740.816014461], [202730.77882476524, 9198739.104222689], [202750.2626512982, 9198727.78211363], [202770.06731368415, 9198713.94264433], [202789.1064897906, 9198696.148591714], [202802.0991510572, 9198678.055374624], [202811.18798432313, 9198653.092285529], [202812.69625308923, 9198620.44753109], [202813.68125883397, 9198614.165517947], [202814.88262016792, 9198606.503666507], [202818.59993019328, 9198600.468960071], [202825.21134558413, 9198594.188065974], [202847.46946142334, 9198579.941453662], [202857.4155549677, 9198573.575320078], [202859.64857987128, 9198572.56796035]]]}, "properties": {"Id": 0, "Nama_RW": "RW 006", "Luas": 119.771813792}}, {"type": "Feature", "geometry": {"type": "Polygon", "coordinates": [[[203066.3355260184, 9196005.682977129], [203065.27123455983, 9196007.783343656], [203064.33176212106, 9196012.849176358], [203063.49756903388, 9196020.48096626], [203064.49616907258, 9196029.440322584], [203066.0237877909, 9196037.876148842], [203066.23199119605, 9196047.094146209], [203062.2346408777, 9196056.023828715], [203057.45471089054, 9196063.895519083], [203053.42294961493, 9196078.618390456], [203048.33002276067, 9196094.914975781], [203046.1701564286, 9196104.382245129], [203044.25603102893, 9196116.747670827], [203044.4454684751, 9196129.125590539], [203045.88707645796, 9196152.044389019], [203044.92464638874, 9196181.268974392], [203042.2514015427, 9196188.626507552], [203034.0250186203, 9196201.217782171], [203024.73746553063, 9196215.382771038], [203017.8367523076, 9196226.13856661], [203014.930271985, 9196228.491329443], [203007.80258067697, 9196233.189046357], [203003.5798055483, 9196235.79732714], [203002.78370028734, 9196236.25995562], [202999.09408391826, 9196238.404045977], [202998.74042621255, 9196253.675440995], [202995.556921456, 9196258.396583501], [202980.9760176558, 9196278.32352878], [202979.36862368695, 9196283.31736877], [202977.9991515875, 9196292.526000613], [202954.44520859048, 9196317.929710332], [202934.05911570322, 9196341.245544584], [202932.72561258078, 9196344.397658616], [202933.75652566366, 9196355.798944697], [202936.18007250037, 9196382.601932531], [202931.86031015497, 9196401.53648431], [202926.7094772393, 9196427.576179394], [202920.48808683548, 9196456.76955236], [202913.75800418295, 9196483.063206647], [202912.68431869615, 9196486.743537499], [202908.3350056, 9196493.28977096], [202905.8875605492, 9196496.973466827], [202904.3000573758, 9196529.517281916], [202897.63254404347, 9196550.154823186], [202887.79002435692, 9196563.17234922], [202875.72500022408, 9196568.252359383], [202866.9937327616, 9196571.268615413], [202855.88121053856, 9196571.586116051], [202845.39509393647, 9196570.611494808], [202836.4110783171, 9196577.931521565], [202831.1239193678, 9196582.640196126], [202824.25758329406, 9196587.602798205], [202806.5790148247, 9196597.767899837], [202797.86731058918, 9196603.509524494], [202794.43490696698, 9196605.859193172], [202792.36810092907, 9196609.56320052], [202787.25867704488, 9196618.720021028], [202785.9573933715, 9196621.288050093], [202777.41379833687, 9196638.148478623], [202772.03908031993, 9196657.603414787], [202767.22358524054, 9196669.703594131], [202759.49272225145, 9196689.129289353], [202750.68090000097, 9196711.7239], [202742.6500775898, 9196735.639794298], [202732.48517405428, 9196758.604579618], [202724.2733221501, 9196777.156909805], [202720.79411256034, 9196785.017217368], [202720.02521552145, 9196786.78479371], [202696.2814000016, 9196817.948800001], [202692.85383752733, 9196836.120805535], [202690.52099239733, 9196852.853326146], [202689.26736320183, 9196866.173094857], [202689.15060000122, 9196867.413700003], [202689.42331001442, 9196870.544839567], [202690.9933559224, 9196888.571434326], [202691.85840000305, 9196898.503500003], [202693.91665098164, 9196907.394571282], [202697.62056916207, 9196923.39461972], [202701.24398669042, 9196933.15960619], [202705.90042633004, 9196946.090775924], [202712.11112866923, 9196962.981198743], [202713.06538587157, 9196965.43347912], [202716.49246187788, 9196974.240487564], [202717.3155917395, 9196976.355792746], [202718.06829088647, 9196978.290102854], [202718.22839766182, 9196978.714500891], [202724.54039202817, 9196995.445415214], [202728.60842079297, 9197006.381278075], [202730.23459443916, 9197010.752775224], [202732.95836163778, 9197018.562901158], [202735.66429055855, 9197026.321877655], [202735.71109216474, 9197026.456731064], [202736.92853612266, 9197029.96529019], [202739.27981468476, 9197036.74145414], [202740.05938923173, 9197038.988114756], [202741.03199840523, 9197047.309800189], [202742.0613296153, 9197056.116890779], [202742.46027573664, 9197062.125651687], [202743.24095816817, 9197073.883966278], [202743.2682007337, 9197074.294282712], [202743.60942445602, 9197086.271553196], [202743.70340577327, 9197089.570384968], [202744.9868934173, 9197094.844719715], [202744.94310520776, 9197102.21789496], [202745.3817271376, 9197109.631684067], [202745.56980983913, 9197112.810778668], [202745.66002257168, 9197114.335619887], [202745.5513631981, 9197115.757193042], [202744.2837443538, 9197132.344924306], [202743.74325455446, 9197139.417633556], [202741.15016086865, 9197156.956513442], [202740.6044826433, 9197160.647311391], [202740.35405811016, 9197162.341105122], [202741.69786188751, 9197162.33108309], [202751.83615959994, 9197161.942537878], [202757.78929650597, 9197160.751910495], [202769.56327838916, 9197159.693575043], [202779.08829743695, 9197157.709196076], [202785.43831013888, 9197157.04773642], [202794.16957760137, 9197156.783152558], [202799.85813064408, 9197155.857109042], [202802.50396926887, 9197155.063357452], [202805.28209982533, 9197154.79877359], [202808.19252231345, 9197154.666481659], [202812.69044797588, 9197154.269605866], [202817.7175413631, 9197153.740438137], [202820.7602557838, 9197152.946686551], [202826.05193302967, 9197152.54981076], [202833.5925731128, 9197152.68210269], [202834.6509085605, 9197151.226891445], [202836.23841173947, 9197151.226891445], [202836.89987139404, 9197150.43313986], [202853.375381059, 9197148.72531264], [202858.59574812092, 9197148.184177026], [202863.88742536958, 9197147.787301233], [202865.73951241001, 9197146.993549647], [202866.66555592604, 9197146.067506127], [202874.33848793525, 9197145.935214194], [202912.0416883435, 9197146.199798057], [202937.72807336878, 9197140.84585502], [202940.1491055563, 9197140.450085], [202942.3453000011, 9197153.884800004], [202945.20530932117, 9197167.36872744], [202945.21214379743, 9197167.40094956], [202971.44076547492, 9197160.851129448], [202972.8695183359, 9197164.819887388], [202980.6482838923, 9197162.12113199], [202985.88704437017, 9197159.739877228], [202986.04579468537, 9197158.152374052], [202987.47454754356, 9197155.771119291], [202993.34830929153, 9197155.771119291], [203011.12834485155, 9197152.437362622], [203036.20814493764, 9197148.24665776], [203043.86321942415, 9197146.967534412], [203055.53068120126, 9197170.162895095], [203059.10256334487, 9197182.069168905], [203068.15681325458, 9197181.234966407], [203078.6199303968, 9197249.359307518], [203111.76925679203, 9197250.109233191], [203107.02012725733, 9197254.258989125], [203114.84241893142, 9197260.690263651], [203161.0198986316, 9197298.656125987], [203162.9852807587, 9197300.272009484], [203173.61445903592, 9197309.011029495], [203202.11744652223, 9197332.445407161], [203222.79811392818, 9197349.448486948], [203233.89310673438, 9197333.502475211], [203248.9743868988, 9197320.80244981], [203277.28486018628, 9197302.016995572], [203298.98073691037, 9197290.110721761], [203325.70370702166, 9197277.67528022], [203348.19333533477, 9197269.20859662], [203366.4496218469, 9197261.535664609], [203383.973375679, 9197259.722711952], [203384.0434598429, 9197259.610076757], [203384.3641297873, 9197249.868571987], [203385.70852240082, 9197244.873166589], [203389.93601058237, 9197241.474852659], [203399.20167576894, 9197230.996333696], [203405.551484243, 9197224.450569306], [203410.59277898353, 9197216.843712386], [203414.0485711284, 9197210.544139216], [203416.71083211154, 9197205.029870916], [203423.09807291627, 9197192.164283589], [203420.756479864, 9197187.937049257], [203414.73670506757, 9197183.161354586], [203407.66201070696, 9197178.90607958], [203399.8218678143, 9197170.69623976], [203395.9212985756, 9197163.299744036], [203394.1399324797, 9197153.28245073], [203394.21481927764, 9197140.64280248], [203394.0925656166, 9197125.621788181], [203394.06264161598, 9197121.945098061], [203395.01375346538, 9197094.563867167], [203395.37811976857, 9197077.449234618], [203395.52903011255, 9197071.71282619], [203395.71752328053, 9197064.547818212], [203393.75435634982, 9197040.836012308], [203392.72440359835, 9197037.14321556], [203389.31542325858, 9197035.543003557], [203386.16939250007, 9197033.94434942], [203385.59610065818, 9197033.438102368], [203383.85739401076, 9197019.429508954], [203383.92073311657, 9196993.658490408], [203383.93876786157, 9196986.320625946], [203378.3812381085, 9196978.777744493], [203370.25822648685, 9196967.752897765], [203369.37688237987, 9196962.571982907], [203367.20896157715, 9196949.828024006], [203365.172479189, 9196938.492535066], [203359.43442406133, 9196930.558465693], [203351.123118517, 9196921.769657258], [203341.40332850255, 9196911.491443807], [203336.17713021487, 9196905.930421714], [203333.55266568158, 9196896.455267094], [203325.36430846062, 9196866.892684035], [203324.74776455387, 9196863.353034467], [203322.0583742652, 9196847.912935125], [203314.4750166433, 9196840.757920308], [203312.89469933603, 9196839.402629947], [203300.87038617767, 9196829.090501087], [203292.24304688256, 9196820.612613423], [203292.03630626295, 9196811.131310053], [203290.47579049878, 9196808.22536687], [203280.0390469972, 9196794.470036006], [203269.87150426116, 9196779.662954984], [203254.1039740797, 9196777.98943806], [203244.90859025717, 9196776.618227912], [203238.07037135493, 9196776.841009025], [203228.72136201337, 9196757.035391334], [203223.53736371733, 9196744.364534736], [203206.64151459467, 9196755.587753378], [203202.99460050184, 9196749.772737153], [203201.9662364265, 9196745.816602277], [203202.52493379638, 9196740.289867133], [203205.1997125009, 9196732.668998456], [203208.4019490173, 9196724.787922913], [203210.2894444503, 9196716.899048993], [203212.43207798898, 9196710.328366859], [203215.35418359097, 9196705.342322284], [203219.32339493185, 9196701.152495665], [203226.21314772777, 9196692.239950782], [203232.03704966418, 9196685.691104392], [203231.78815890383, 9196683.319607528], [203230.49997211434, 9196678.835261075], [203225.81220725924, 9196671.17072194], [203232.76599660143, 9196651.46179734], [203235.43608459923, 9196644.630909275], [203240.7434582198, 9196636.498986702], [203256.7879476212, 9196635.804147253], [203272.8293110719, 9196635.635955395], [203287.81419729255, 9196636.251499368], [203289.96462855488, 9196628.364187472], [203291.37581750378, 9196621.288050093], [203291.59072639514, 9196620.210430512], [203293.49070366658, 9196610.214949429], [203296.1639055647, 9196602.857409379], [203296.1824826626, 9196602.767179724], [203296.80465495307, 9196599.745265922], [203297.78844135068, 9196594.966979051], [203297.84934934694, 9196584.697255697], [203297.1729555074, 9196565.733087681], [203296.74545546807, 9196549.140415154], [203295.83735820558, 9196524.908161925], [203295.6181441918, 9196517.533467272], [203293.02147555538, 9196511.988019358], [203283.66316545848, 9196493.762357306], [203276.64951528795, 9196479.237297444], [203269.35261600465, 9196468.13391711], [203291.88379333913, 9196451.853308188], [203287.10263477266, 9196444.574915394], [203271.92322128918, 9196421.46717033], [203243.52956608217, 9196384.860304916], [203232.57509199344, 9196373.378229542], [203230.21951341908, 9196371.520902457], [203227.85768481344, 9196370.716880767], [203224.1795624718, 9196370.168383809], [203216.1665573595, 9196355.798944697], [203211.9507881133, 9196348.238954576], [203199.4684576178, 9196324.727998976], [203189.321397949, 9196306.497610878], [203188.8423924651, 9196298.59469543], [203187.061012323, 9196291.35466516], [203191.83280791622, 9196277.666709436], [203197.98998639174, 9196259.269780701], [203203.0656247409, 9196245.869782321], [203207.09607343655, 9196236.25995562], [203208.13350504264, 9196233.786400264], [203211.8725877069, 9196224.065185698], [203214.55049031042, 9196215.917679232], [203217.7620954085, 9196206.45661742], [203222.58261539135, 9196191.738423482], [203226.8585119173, 9196180.1770776], [203231.94981050212, 9196164.143798422], [203236.28101980314, 9196143.260675656], [203238.19510667212, 9196130.895217737], [203241.44737816323, 9196114.587713756], [203244.17528626788, 9196098.013786077], [203247.42439466715, 9196082.232908923], [203249.3355170628, 9196068.930607673], [203252.14641676564, 9196056.096509986], [203252.84832138196, 9196052.718978789], [203238.8743274063, 9196043.0478518], [203229.97798326518, 9196035.62164193], [203222.90974684618, 9196030.312967822], [203214.52678951807, 9196024.996487055], [203208.223939172, 9196023.642389746], [203200.60636657104, 9196022.280486025], [203195.87649291754, 9196021.725732964], [203189.04619027115, 9196020.631837137], [203178.79917272273, 9196019.25431797], [203172.49163186736, 9196018.690195128], [203165.4015115844, 9196017.06808138], [203153.5768265333, 9196015.681188693], [203142.54253840167, 9196014.035650669], [203132.81828159746, 9196013.187897185], [203122.57126286812, 9196011.810365377], [203111.20061063115, 9196010.983364878], [203110.74344878923, 9196010.950114977], [203097.60403896403, 9196009.555399962], [203085.255026442, 9196007.90203976], [203075.53076766618, 9196007.054274332], [203066.3355260184, 9196005.682977129]]]}, "properties": {"Id": 0, "Nama_RW": "RW 001", "Luas": 52.9595832766}}, {"type": "Feature", "geometry": {"type": "Polygon", "coordinates": [[[202985.15288564935, 9197644.259095818], [202986.97099854425, 9197638.026902342], [202996.73227604106, 9197641.56080871], [203005.85960550606, 9197645.564985946], [203014.1943820063, 9197650.196415694], [203017.19201628026, 9197650.2142016], [203019.71639248356, 9197650.229184398], [203028.3872947581, 9197651.386592014], [203041.4720818745, 9197653.202184686], [203048.40840623807, 9197654.191298379], [203059.12660316285, 9197655.992824098], [203073.4903948987, 9197658.303188542], [203083.98041407205, 9197663.105399152], [203087.22986057494, 9197664.695961712], [203091.0598890921, 9197666.570711754], [203111.50080093928, 9197634.038219314], [203113.98840577155, 9197629.770257683], [203116.54840624426, 9197625.378087489], [203121.56791503355, 9197621.457794031], [203128.1090840036, 9197621.496557863], [203139.18579084426, 9197621.56219989], [203145.54348455742, 9197613.699803226], [203148.72699685674, 9197608.97861523], [203152.95451338124, 9197605.580309898], [203157.18049934506, 9197602.4453177], [203162.96232025325, 9197603.006285017], [203173.2018985944, 9197605.700302245], [203186.06941113435, 9197608.673222028], [203193.95020282175, 9197610.036609316], [203204.46050857287, 9197611.415586013], [203207.61597543024, 9197611.43428405], [203217.08380587865, 9197611.227014408], [203219.97007589694, 9197612.297485664], [203225.467099227, 9197616.543404054], [203239.87801047973, 9197625.31887829], [203242.8507632399, 9197627.027300764], [203253.76771080866, 9197633.301202463], [203269.2273218464, 9197642.609512242], [203286.83739250246, 9197644.030506155], [203295.10529892053, 9197644.386202216], [203308.13189167716, 9197644.946622565], [203311.01500320714, 9197646.543716606], [203322.0387246292, 9197650.032390732], [203330.7021778319, 9197652.453703525], [203341.721210734, 9197656.732314087], [203351.68848861754, 9197661.004708802], [203357.71611004416, 9197664.46378496], [203369.23928259034, 9197672.432080703], [203379.45542255323, 9197679.075917073], [203381.557504287, 9197679.351707898], [203386.87111752294, 9197670.166422816], [203389.24861196987, 9197668.337188149], [203392.9346199287, 9197667.568997674], [203401.353802328, 9197666.828819051], [203414.24318229035, 9197666.115122736], [203422.92060162872, 9197666.16650967], [203417.9946788177, 9197654.287287278], [203431.76171564404, 9197638.568686772], [203428.12249456998, 9197631.437089747], [203426.31458063144, 9197625.896318985], [203421.36057958286, 9197618.756979277], [203419.80932450574, 9197614.27108843], [203418.52109582443, 9197609.786775943], [203417.29830906168, 9197594.242719082], [203416.83081355598, 9197591.07486346], [203416.2870234372, 9197587.390018228], [203420.54418796673, 9197578.988509096], [203423.75260678492, 9197570.054110236], [203426.18468376528, 9197559.008422434], [203428.34751628526, 9197549.014508054], [203434.68800271396, 9197544.048695395], [203438.92172141187, 9197539.597080776], [203437.95569418557, 9197525.107905053], [203438.07572293002, 9197504.831808379], [203437.09721111786, 9197492.449285945], [203433.20282130502, 9197483.999493813], [203429.57609715685, 9197474.76129096], [203425.63180967793, 9197474.737912675], [203420.3774819849, 9197473.916802488], [203409.35378286522, 9197470.428183172], [203402.0004876852, 9197468.80460408], [203401.99549425114, 9197468.043369345], [203401.86229144968, 9197447.736986982], [203402.18607784808, 9197437.468809357], [203400.80937307235, 9197432.07454289], [203399.35909513384, 9197426.391998759], [203396.25980897527, 9197416.893587062], [203394.22481498495, 9197405.294785932], [203393.000516586, 9197390.014088843], [203391.7216247255, 9197383.949796345], [203377.77119715512, 9197386.237189496], [203375.95707567222, 9197381.74971695], [203372.82659638394, 9197377.517813368], [203369.99962080922, 9197366.440999992], [203367.1227884367, 9197363.790602868], [203361.6164002465, 9197361.12461729], [203359.78979063686, 9197358.743798189], [203360.98509952426, 9197334.52401526], [203361.03347883746, 9197326.360911468], [203361.95490455255, 9197303.982890915], [203364.62340894528, 9197297.415304188], [203369.42049633525, 9197286.646990294], [203376.06912050582, 9197274.046287606], [203379.79569508694, 9197266.43161458], [203383.973375679, 9197259.722711952], [203366.4496218469, 9197261.535664609], [203348.19333533477, 9197269.20859662], [203325.70370702166, 9197277.67528022], [203298.98073691037, 9197290.110721761], [203277.28486018628, 9197302.016995572], [203248.9743868988, 9197320.80244981], [203233.89310673438, 9197333.502475211], [203222.79811392818, 9197349.448486948], [203202.11744652223, 9197332.445407161], [203173.61445903592, 9197309.011029495], [203162.9852807615, 9197300.272009484], [203161.0198986316, 9197298.656125987], [203114.84241893142, 9197260.690263651], [203107.02012725733, 9197254.258989125], [203111.76925679203, 9197250.109233191], [203078.6199303968, 9197249.359307518], [203068.15681325458, 9197181.234966407], [203059.10256334487, 9197182.069168905], [203055.53068120126, 9197170.162895095], [203043.86321942415, 9197146.967534412], [203036.20814493764, 9197148.24665776], [203011.12834485155, 9197152.437362622], [202993.34830929153, 9197155.771119291], [202987.47454754356, 9197155.771119291], [202986.04579468537, 9197158.152374052], [202985.88704437017, 9197159.739877228], [202980.6482838923, 9197162.12113199], [202972.8695183359, 9197164.819887388], [202971.44076547492, 9197160.851129448], [202945.21214379743, 9197167.40094956], [202945.20530932117, 9197167.36872744], [202942.3453000011, 9197153.884800004], [202940.1491055563, 9197140.450085], [202937.72807336878, 9197140.84585502], [202912.0416883435, 9197146.199798057], [202874.33848793525, 9197145.935214194], [202866.66555592604, 9197146.067506127], [202865.73951241001, 9197146.993549647], [202863.88742536958, 9197147.787301233], [202858.59574812092, 9197148.184177026], [202853.375381059, 9197148.72531264], [202836.89987139404, 9197150.43313986], [202836.23841173947, 9197151.226891445], [202834.6509085605, 9197151.226891445], [202833.5925731128, 9197152.68210269], [202826.05193302967, 9197152.54981076], [202820.7602557838, 9197152.946686551], [202817.7175413631, 9197153.740438137], [202812.69044797588, 9197154.269605866], [202808.19252231345, 9197154.666481659], [202805.28209982533, 9197154.79877359], [202802.50396926887, 9197155.063357452], [202799.85813064408, 9197155.857109042], [202794.16957760137, 9197156.783152558], [202785.43831013888, 9197157.04773642], [202779.08829743695, 9197157.709196076], [202769.56327838916, 9197159.693575043], [202757.78929650597, 9197160.751910495], [202751.83615959994, 9197161.942537878], [202741.69786188751, 9197162.33108309], [202740.35405811016, 9197162.341105122], [202737.1561086299, 9197183.97107856], [202737.16319500562, 9197184.761000047], [202737.27740637865, 9197197.500199923], [202737.48877730034, 9197206.191573594], [202737.649859217, 9197206.447218323], [202742.0124719357, 9197213.37082766], [202747.8177860845, 9197222.58404841], [202756.23153524473, 9197235.936939636], [202757.80826037284, 9197238.43925326], [202767.70819388423, 9197254.034877473], [202770.68285794184, 9197258.94065729], [202771.9692511931, 9197261.062161408], [202773.9580722209, 9197264.342100875], [202776.26615717262, 9197267.619009264], [202777.20572958235, 9197268.952983702], [202780.47717200126, 9197273.59758319], [202783.1798913842, 9197275.880410206], [202786.7567271497, 9197278.901585892], [202790.45461348072, 9197282.446450021], [202790.54665460438, 9197282.534686994], [202796.4312693635, 9197288.17578596], [202808.72590841632, 9197299.045530349], [202810.6715080915, 9197300.73572669], [202814.2197807692, 9197303.818205051], [202816.55820471048, 9197308.572127368], [202824.90702128224, 9197319.68181187], [202831.02442172542, 9197329.213080987], [202832.20249328203, 9197331.04858451], [202833.3296264978, 9197332.688781792], [202838.19881209265, 9197339.774273781], [202845.49583049398, 9197350.877692271], [202853.5801807018, 9197362.249114579], [202859.31511210278, 9197370.709908713], [202860.59707775153, 9197376.247587673], [202863.95342126023, 9197386.38917894], [202866.79699325655, 9197394.981221871], [202869.31471256446, 9197404.109696535], [202869.87451799773, 9197406.139383009], [202870.14349816926, 9197407.114583667], [202872.68709518295, 9197421.613176193], [202872.7262834739, 9197421.843548419], [202874.97399285063, 9197435.056885941], [202875.18359827064, 9197436.624037266], [202875.3619382996, 9197437.957394883], [202876.73651874904, 9197448.234118719], [202876.74795244727, 9197448.272514155], [202878.54128247406, 9197454.3015852], [202878.50721852016, 9197460.04371758], [202878.47567307856, 9197465.361306679], [202878.16428534687, 9197473.522890437], [202879.7138831271, 9197478.272120519], [202880.2073149141, 9197485.236688266], [202880.68446823675, 9197491.9713814], [202880.78319902625, 9197503.535209006], [202880.83961135894, 9197510.142494349], [202880.8311554566, 9197511.568194367], [202880.81759726815, 9197513.854005096], [202880.8143196702, 9197514.406709775], [202880.80741985328, 9197515.569100125], [202880.80587273557, 9197515.832399841], [202880.73497776967, 9197527.785398504], [202880.55170717277, 9197532.58905285], [202880.33922889084, 9197538.158092668], [202880.11220023595, 9197544.108523987], [202880.31737876125, 9197553.853202395], [202881.59150518198, 9197560.707502207], [202881.54852555133, 9197561.644192364], [202881.31837280467, 9197566.660098754], [202880.9875016138, 9197573.870715965], [202881.43372418825, 9197587.303512732], [202881.43306988664, 9197587.418402504], [202881.395299335, 9197593.783499999], [202881.3228247529, 9197605.999719065], [202881.23692184687, 9197620.482709855], [202881.25231658574, 9197620.736564113], [202881.8969502831, 9197631.371082162], [202881.95550945774, 9197632.337105434], [202882.92610807996, 9197646.036375009], [202883.6540826941, 9197656.31078958], [202883.5914257234, 9197658.577200714], [202883.39378525037, 9197665.72729959], [202883.31928408053, 9197668.422279146], [202882.29011556692, 9197676.099339696], [202881.94359461777, 9197678.684205318], [202880.56321259588, 9197689.736121945], [202883.33445074316, 9197699.190264145], [202883.65620067157, 9197700.287917793], [202886.48152025603, 9197711.628123915], [202889.30531011056, 9197723.231693154], [202889.60629656352, 9197726.37556523], [202889.96977686975, 9197730.172340518], [202903.63870089315, 9197731.043405013], [202908.0948830843, 9197733.439880446], [202913.3289811937, 9197737.684288578], [202914.90980480146, 9197737.166989608], [202915.27892346773, 9197719.262305917], [202921.5945129115, 9197718.509777348], [202923.71062457282, 9197716.415607106], [202930.076197166, 9197707.236598719], [202936.97231474984, 9197697.270709354], [202941.48312068637, 9197690.450714303], [202944.6573117338, 9197687.309508847], [202948.4264099542, 9197685.042571316], [202954.0368102491, 9197681.519615863], [202961.55039204564, 9197676.612902604], [202966.78570704814, 9197671.863907767], [202971.62637616973, 9197666.755178323], [202977.4243979724, 9197660.380198902], [202980.4208186213, 9197655.596591834], [202983.26821072586, 9197650.48709291], [202985.15288564935, 9197644.259095818]]]}, "properties": {"Id": 0, "Nama_RW": "RW 002", "Luas": 23.7154957431}}]}