{"type":"FeatureCollection","features":[{"type":"Feature","properties":{"Id":0.0,"Nama_Dusun":"Dusun Desa","Luas":76.8005247054},"geometry":{"type":"Polygon","coordinates":[[[108.3110292,-7.26560296],[108.31102097,-7.26555714],[108.31101383,-7.26548813],[108.31102335,-7.26540723],[108.31103763,-7.26533109],[108.31104001,-7.26524781],[108.31100431,-7.26516691],[108.31096148,-7.26509552],[108.31092579,-7.26496227],[108.31088058,-7.26481475],[108.31086155,-7.26472909],[108.31084489,-7.26461725],[108.31084727,-7.26450542],[108.31086155,-7.2642984],[108.31085441,-7.26403428],[108.31083061,-7.26396766],[108.31075685,-7.26385345],[108.31067357,-7.26372495],[108.3106117,-7.2636274],[108.31058553,-7.26360598],[108.31052128,-7.26356315],[108.31048321,-7.26353936],[108.31044276,-7.26351556],[108.31044038,-7.26337755],[108.31041183,-7.26333472],[108.31028096,-7.26315388],[108.31026668,-7.26310867],[108.31025478,-7.26302539],[108.31004301,-7.26279458],[108.30985979,-7.26258281],[108.3098479,-7.26255426],[108.30988121,-7.26220924],[108.30984314,-7.26203792],[108.30979793,-7.26180235],[108.3097432,-7.26153823],[108.30968371,-7.26130028],[108.3096742,-7.26126697],[108.30953381,-7.26127173],[108.30951001,-7.26123366],[108.30946956,-7.26108137],[108.30945053,-7.26097668],[108.30936011,-7.26074111],[108.3092911,-7.26069114],[108.30921496,-7.2606269],[108.3091174,-7.26054837],[108.30906981,-7.26050554],[108.30898891,-7.26043892],[108.30894132,-7.26039609],[108.30887946,-7.26035088],[108.30872003,-7.26025808],[108.30864151,-7.26020573],[108.30861058,-7.26018432],[108.30854633,-7.26006772],[108.30845829,-7.25989164],[108.3084107,-7.25971556],[108.30829887,-7.25943003],[108.30822034,-7.25922539],[108.30814896,-7.25900886],[108.30795384,-7.25856152],[108.30783963,-7.25829502],[108.30782059,-7.25819271],[108.30777063,-7.25794286],[108.30774207,-7.25781199],[108.30774445,-7.2574979],[108.30775159,-7.25730993],[108.3077849,-7.25722189],[108.30782773,-7.25710529],[108.30788484,-7.25695301],[108.30793957,-7.256815],[108.30799905,-7.25666033],[108.3080514,-7.25652233],[108.30810137,-7.25638194],[108.30814182,-7.25626772],[108.30816086,-7.25611306],[108.30817276,-7.25594888],[108.30817751,-7.25581087],[108.30818941,-7.25576328],[108.30818941,-7.25569665],[108.30819655,-7.2555872],[108.30817513,-7.25549916],[108.30815134,-7.25539684],[108.30814182,-7.25530642],[108.30812755,-7.25521124],[108.30812279,-7.25499471],[108.30812517,-7.25483529],[108.30812755,-7.25475677],[108.30831314,-7.25446647],[108.30840356,-7.25432608],[108.30846067,-7.25423328],[108.30852016,-7.25415],[108.30857726,-7.25410241],[108.3086653,-7.25401913],[108.30877714,-7.25392157],[108.30882711,-7.25387874],[108.30884852,-7.25383591],[108.30892466,-7.25373598],[108.30899129,-7.25363366],[108.30904602,-7.25355514],[108.30911264,-7.2534552],[108.30918641,-7.25335288],[108.30923875,-7.25327674],[108.30925065,-7.25322677],[108.30930776,-7.25305783],[108.30933869,-7.25294838],[108.30936249,-7.2528175],[108.3093839,-7.25269615],[108.30940056,-7.25257718],[108.30941721,-7.25252245],[108.30941721,-7.25242251],[108.30941483,-7.25234875],[108.30942911,-7.25230592],[108.30943863,-7.25218219],[108.30944101,-7.25201801],[108.30944101,-7.25185858],[108.30943625,-7.25171106],[108.30943863,-7.25162302],[108.30945053,-7.25156115],[108.30944577,-7.25144218],[108.30945053,-7.25132082],[108.30945053,-7.25115188],[108.30945053,-7.25102101],[108.30945766,-7.25091394],[108.30946718,-7.2507902],[108.30947432,-7.25069741],[108.30947194,-7.25058795],[108.30946004,-7.25049515],[108.30944815,-7.25039521],[108.3094767,-7.25030004],[108.30950287,-7.25019772],[108.30952905,-7.25009302],[108.30953543,-7.25003034],[108.30965916,-7.2500232],[108.30969962,-7.25000179],[108.3097472,-7.24996372],[108.30976148,-7.24996848],[108.30976386,-7.25013028],[108.30982097,-7.25013742],[108.30984,-7.25015645],[108.30989711,-7.25023974],[108.30995898,-7.25033016],[108.30999943,-7.25039202],[108.31002798,-7.25042057],[108.31008271,-7.25045389],[108.31014457,-7.25049434],[108.31018027,-7.25051813],[108.31023737,-7.25057048],[108.31032303,-7.25066566],[108.31035397,-7.25071563],[108.31037538,-7.25075536],[108.31039109,-7.25080819],[108.31040822,-7.25086815],[108.31049674,-7.25083674],[108.31057954,-7.25080105],[108.31065521,-7.25075965],[108.31068233,-7.25075965],[108.31070518,-7.25075965],[108.3107837,-7.25074965],[108.3109022,-7.25073395],[108.31096501,-7.25072538],[108.31106209,-7.25070968],[108.31119219,-7.25068957],[108.31128737,-7.25064674],[108.31135162,-7.25061581],[108.31153483,-7.25091086],[108.31158004,-7.25098938],[108.31162525,-7.25102508],[108.31178468,-7.25102508],[108.31184178,-7.25109646],[108.31187034,-7.25113929],[108.31190841,-7.25117022],[108.31194648,-7.25119878],[108.31199883,-7.25119402],[108.31209163,-7.25117022],[108.31220822,-7.25114405],[108.31227961,-7.25113215],[108.31237478,-7.25112026],[108.31240334,-7.25112026],[108.312489,-7.25112263],[108.31251517,-7.25111312],[108.31256514,-7.25107505],[108.31269601,-7.25099652],[108.31282212,-7.25092514],[108.31296251,-7.25084186],[108.31312193,-7.25082996],[108.31331467,-7.25082282],[108.31334085,-7.25080855],[108.31344078,-7.25077761],[108.3135193,-7.2507562],[108.31361924,-7.25071813],[108.31370966,-7.25068006],[108.31376439,-7.25064912],[108.31386909,-7.25057774],[108.31396188,-7.25051825],[108.31398092,-7.25051587],[108.31402851,-7.25059915],[108.31404992,-7.25061581],[108.31408324,-7.25062295],[108.31415938,-7.25063009],[108.31427597,-7.25063722],[108.3143545,-7.25063722],[108.31430929,-7.2507443],[108.31443302,-7.25088707],[108.31439971,-7.25095131],[108.31438305,-7.25100128],[108.31433784,-7.25106553],[108.31432356,-7.25110598],[108.31431167,-7.25114643],[108.31429977,-7.25128682],[108.31429025,-7.25134868],[108.31432832,-7.25142483],[108.31435688,-7.25150573],[108.31437829,-7.25160567],[108.31439733,-7.25169608],[108.31445443,-7.25174129],[108.3144925,-7.25178175],[108.31448299,-7.25191262],[108.31448299,-7.25209583],[108.31447347,-7.25220767],[108.31443778,-7.25228381],[108.31440446,-7.25236709],[108.31436877,-7.25236709],[108.31432118,-7.25237423],[108.31422125,-7.25240516],[108.31415462,-7.25241944],[108.31415224,-7.2526098],[108.31415462,-7.2527026],[108.31412845,-7.25280253],[108.31409989,-7.25288819],[108.31408086,-7.25299289],[108.31406896,-7.2531309],[108.31405706,-7.25318563],[108.31393095,-7.25316421],[108.3139143,-7.25320466],[108.31388574,-7.25324273],[108.31385957,-7.25334267],[108.31383339,-7.25336647],[108.31378343,-7.25339026],[108.31376677,-7.25341168],[108.31377629,-7.25363059],[108.31377629,-7.25370435],[108.31378343,-7.2539066],[108.31380722,-7.25396609],[108.31385005,-7.25406365],[108.31390954,-7.25417786],[108.31394285,-7.25424687],[108.31398092,-7.25430873],[108.3139833,-7.25439677],[108.3139952,-7.25444198],[108.31403327,-7.25447292],[108.31411655,-7.25456809],[108.31417366,-7.25462758],[108.31421887,-7.25469659],[108.3142498,-7.25475369],[108.31427359,-7.25480366],[108.3143307,-7.25492025],[108.31430929,-7.25495833],[108.31425456,-7.25500116],[108.31419031,-7.25503923],[108.31411893,-7.25511299],[108.31408324,-7.25517962],[108.31406658,-7.25527004],[108.31406658,-7.25538425],[108.3140642,-7.25555319],[108.31407134,-7.25580066],[108.31407372,-7.25595532],[108.3140761,-7.25607191],[108.31405706,-7.25628607],[108.31404755,-7.25631938],[108.31401661,-7.25633365],[108.31398806,-7.25634793],[108.31395475,-7.25635507],[108.31394285,-7.25642169],[108.31393571,-7.25648356],[108.31392143,-7.25656922],[108.3139024,-7.25667868],[108.31387147,-7.25678813],[108.31384053,-7.25694518],[108.31381198,-7.25710698],[108.31379294,-7.2572093],[108.31374059,-7.25728068],[108.31357641,-7.257452],[108.31352882,-7.25750197],[108.31342889,-7.25785413],[108.31339795,-7.25802545],[108.31332895,-7.2580897],[108.31320522,-7.25819439],[108.31312669,-7.25827054],[108.31312431,-7.2583562],[108.31311004,-7.25838237],[108.31301486,-7.2585061],[108.31292206,-7.25863935],[108.31277929,-7.25865363],[108.31269601,-7.25866553],[108.31263415,-7.25866315],[108.31254848,-7.25884161],[108.3125009,-7.25895582],[108.31234861,-7.2588535],[108.3123153,-7.25890585],[108.31230578,-7.25894154],[108.31231054,-7.25899151],[108.31233433,-7.25906052],[108.31236289,-7.2591319],[108.31237954,-7.25920328],[108.31239858,-7.25926277],[108.31242475,-7.25930798],[108.31246044,-7.25934605],[108.31252231,-7.25942695],[108.31257466,-7.25948644],[108.31257228,-7.25950786],[108.31256038,-7.25954831],[108.31251755,-7.25961731],[108.31257942,-7.25979577],[108.31260321,-7.25985764],[108.3126508,-7.2599314],[108.31279595,-7.25993854],[108.3129411,-7.25994092],[108.31307673,-7.25993616],[108.31309576,-7.26000754],[108.31311004,-7.26008131],[108.31312669,-7.26017172],[108.31315049,-7.26023835],[108.31316477,-7.26030973],[108.31316477,-7.26040253],[108.31315763,-7.26057385],[108.31315287,-7.26072376],[108.31314335,-7.26094267],[108.31314097,-7.2610093],[108.31311718,-7.26105926],[108.31303152,-7.26122345],[108.31296727,-7.26135432],[108.31290064,-7.26145425],[108.3130791,-7.26157561],[108.31308148,-7.2615994],[108.31305055,-7.26163747],[108.31298869,-7.26171837],[108.31288399,-7.26186352],[108.31280785,-7.26197536],[108.3127436,-7.26204912],[108.31263652,-7.26220378],[108.31256276,-7.26230848],[108.31254135,-7.26232514],[108.31251993,-7.26233228],[108.31248662,-7.26233703],[108.31237478,-7.26253453],[108.31226057,-7.2627463],[108.31216777,-7.26291048],[108.31216301,-7.26298187],[108.3121465,-7.26304719],[108.31218895,-7.26317113],[108.31224368,-7.26333769],[108.31228889,-7.26345905],[108.3123341,-7.2635685],[108.31236741,-7.26365654],[108.3123912,-7.2637303],[108.31241976,-7.26381596],[108.31246259,-7.26394921],[108.31250066,-7.26405391],[108.31254587,-7.26419906],[108.31258394,-7.26438799],[108.31260059,-7.26449982],[108.31262915,-7.26464735],[108.31265294,-7.26479725],[108.3126815,-7.26494002],[108.31269808,-7.26506032],[108.31272282,-7.26517644],[108.31272899,-7.265207],[108.31260202,-7.26529363],[108.31252112,-7.26536026],[108.31245688,-7.26540785],[108.31238073,-7.26545544],[108.31232363,-7.26546733],[108.31225462,-7.26547923],[108.31221179,-7.26548399],[108.31214993,-7.26549351],[108.31205713,-7.26550541],[108.31200002,-7.26551016],[108.31193577,-7.26552444],[108.3118287,-7.26553634],[108.31172876,-7.26555062],[108.31164072,-7.26555775],[108.31154792,-7.26556965],[108.31144085,-7.26557679],[108.31132187,-7.26558869],[108.31121004,-7.26560296],[108.311122,-7.2656101],[108.31103872,-7.265622],[108.3110292,-7.26560296]]]}},{"type":"Feature","properties":{"Id":0.0,"Nama_Dusun":"Dusun Cikatomas","Luas":132.065599756},"geometry":{"type":"Polygon","coordinates":[[[108.30953543,-7.25003034],[108.30952905,-7.25009302],[108.30950287,-7.25019772],[108.3094767,-7.25030004],[108.30944815,-7.25039521],[108.30946004,-7.25049515],[108.30947194,-7.25058795],[108.30947432,-7.25069741],[108.30946718,-7.2507902],[108.30945766,-7.25091394],[108.30945053,-7.25102101],[108.30945053,-7.25115188],[108.30945053,-7.25131979],[108.30945053,-7.25132082],[108.30944577,-7.25144218],[108.30945053,-7.25156115],[108.30943863,-7.25162302],[108.30943625,-7.25171106],[108.30944101,-7.25185858],[108.30944101,-7.25201801],[108.30943863,-7.25218219],[108.30943395,-7.25224302],[108.30942911,-7.25230592],[108.30941483,-7.25234875],[108.30941721,-7.25242251],[108.30941721,-7.25252245],[108.30940056,-7.25257718],[108.3093839,-7.25269615],[108.30936249,-7.2528175],[108.30933869,-7.25294838],[108.3093362,-7.25295717],[108.30930776,-7.25305783],[108.30928157,-7.25313531],[108.30925065,-7.25322677],[108.30923875,-7.25327674],[108.30918641,-7.25335288],[108.30911264,-7.2534552],[108.30904602,-7.25355514],[108.30899129,-7.25363366],[108.30892466,-7.25373598],[108.30884852,-7.25383591],[108.30882711,-7.25387874],[108.30879483,-7.25390641],[108.30877714,-7.25392157],[108.3086653,-7.25401913],[108.30857726,-7.25410241],[108.30852016,-7.25415],[108.3084903,-7.2541918],[108.30846067,-7.25423328],[108.30840356,-7.25432608],[108.30831314,-7.25446647],[108.30812755,-7.25475677],[108.30812517,-7.25483529],[108.30812279,-7.25499471],[108.30812755,-7.25521124],[108.30814182,-7.25530642],[108.30814689,-7.25535459],[108.30815134,-7.25539684],[108.30816051,-7.25543625],[108.30817513,-7.25549916],[108.30819655,-7.2555872],[108.30818941,-7.25569665],[108.30818941,-7.25576328],[108.30817751,-7.25581087],[108.30817276,-7.25594888],[108.30816086,-7.25611306],[108.30814182,-7.25626772],[108.3081018,-7.25638072],[108.30810137,-7.25638194],[108.3080514,-7.25652233],[108.30803645,-7.25656174],[108.30799905,-7.25666033],[108.30793957,-7.256815],[108.30788484,-7.25695301],[108.30782773,-7.25710529],[108.3077849,-7.25722189],[108.30775159,-7.25730993],[108.30774629,-7.25744949],[108.30774445,-7.2574979],[108.30774224,-7.25778954],[108.30774207,-7.25781199],[108.30777063,-7.25794286],[108.30782059,-7.25819271],[108.30783963,-7.25829502],[108.30794698,-7.25854551],[108.30795384,-7.25856152],[108.30805821,-7.25880081],[108.30814896,-7.25900886],[108.30822034,-7.25922539],[108.30791839,-7.25925053],[108.3077542,-7.25925529],[108.30767568,-7.25925053],[108.30758764,-7.25920056],[108.30752102,-7.25914821],[108.30736397,-7.25915773],[108.30719741,-7.25915773],[108.30705464,-7.25903876],[108.30684287,-7.25905065],[108.30668107,-7.25895072],[108.30653354,-7.25905541],[108.30649547,-7.25906255],[108.30630273,-7.25897927],[108.30616948,-7.25889361],[108.30586253,-7.25887695],[108.30577211,-7.25884602],[108.30526767,-7.25860332],[108.30522722,-7.25854145],[108.30518677,-7.25842486],[108.30515821,-7.25834633],[108.30457524,-7.25809649],[108.30428971,-7.25826543],[108.30427543,-7.25829399],[108.30428971,-7.2583154],[108.30430399,-7.25834633],[108.30430874,-7.25839392],[108.30429447,-7.25844151],[108.30417312,-7.25852241],[108.30414456,-7.25851766],[108.3041398,-7.25854383],[108.30415408,-7.25857238],[108.30414694,-7.25860094],[108.3040589,-7.2586628],[108.30404224,-7.25862949],[108.30399704,-7.25842962],[108.30396372,-7.25840582],[108.30386854,-7.25837727],[108.30373054,-7.25838203],[108.3033403,-7.25819881],[108.30333317,-7.2581655],[108.30333317,-7.25808459],[108.30342834,-7.25792755],[108.30345928,-7.25778002],[108.30344976,-7.25774671],[108.30338789,-7.25765629],[108.30329271,-7.25751352],[108.30318564,-7.25740407],[108.30317374,-7.25730413],[108.30315946,-7.25723275],[108.30306905,-7.25703287],[108.30293342,-7.25681634],[108.30278827,-7.25666643],[108.30293104,-7.25653794],[108.30269785,-7.25645228],[108.3026693,-7.256369],[108.30263598,-7.25630952],[108.30250511,-7.25620482],[108.30260505,-7.25599781],[108.30244087,-7.25579793],[108.30245276,-7.25542674],[108.30260029,-7.25529587],[108.30252891,-7.25505078],[108.30248608,-7.25497464],[108.30237186,-7.25491991],[108.30137011,-7.25491991],[108.30087756,-7.25511265],[108.29984012,-7.25502699],[108.2996569,-7.25505078],[108.29960693,-7.25504602],[108.29957124,-7.25501985],[108.29923573,-7.25473431],[108.29884312,-7.25381584],[108.29866704,-7.2532995],[108.29846717,-7.25347082],[108.29858138,-7.25292116],[108.29861945,-7.25286882],[108.29897637,-7.25261897],[108.29968545,-7.25206456],[108.300178,-7.2517814],[108.300247,-7.25156249],[108.29982108,-7.25075347],[108.29964262,-7.25057739],[108.29939754,-7.25031089],[108.29929522,-7.24994922],[108.29891927,-7.24955661],[108.29881933,-7.24919255],[108.29878839,-7.2489665],[108.29879315,-7.24872855],[108.29881695,-7.24857865],[108.29882885,-7.24855723],[108.29936422,-7.24821697],[108.29929284,-7.24732467],[108.29924525,-7.24711766],[108.29916911,-7.24648472],[108.29917625,-7.24563525],[108.29924763,-7.24527596],[108.29924287,-7.24520933],[108.29918814,-7.24497138],[108.29914293,-7.24398629],[108.29918576,-7.24345091],[108.29929998,-7.24322724],[108.29932139,-7.243232],[108.30142484,-7.24414095],[108.30144149,-7.24416237],[108.30157712,-7.24463588],[108.30198877,-7.24493569],[108.30459428,-7.24679881],[108.30546754,-7.24684878],[108.3054723,-7.24687495],[108.30572452,-7.24781722],[108.30627418,-7.24758879],[108.30665251,-7.24795761],[108.30736873,-7.24746506],[108.30788032,-7.24828359],[108.30772694,-7.24852211],[108.30772789,-7.24852545],[108.3083487,-7.24868852],[108.30834953,-7.24865453],[108.30835088,-7.24859931],[108.30834553,-7.24858097],[108.3085537,-7.24858103],[108.30858702,-7.24857151],[108.30861081,-7.24855009],[108.30863936,-7.24850964],[108.30884876,-7.24818604],[108.30956021,-7.247101],[108.30966491,-7.24643475],[108.31019553,-7.2450856],[108.31021933,-7.24508322],[108.31044537,-7.24520933],[108.31074638,-7.24513854],[108.3107321,-7.24531938],[108.31065358,-7.24556922],[108.31060361,-7.24572151],[108.31047512,-7.24600704],[108.31042277,-7.24608795],[108.31034663,-7.24618075],[108.31001588,-7.24652577],[108.30973511,-7.246916],[108.30968752,-7.24716346],[108.30969227,-7.24736572],[108.30968038,-7.24772977],[108.30965658,-7.24784875],[108.30963755,-7.24796058],[108.30954713,-7.24810573],[108.30950192,-7.24817949],[108.30927349,-7.24841982],[108.30908789,-7.2487696],[108.30906886,-7.24923835],[108.30913548,-7.24930022],[108.30920924,-7.2493716],[108.30929728,-7.24949533],[108.30944719,-7.24973328],[108.30946861,-7.24978087],[108.30949954,-7.24989984],[108.30953543,-7.25003034]]]}},{"type":"Feature","properties":{"Id":0.0,"Nama_Dusun":"Dusun Cilopadang","Luas":139.794048646},"geometry":{"type":"Polygon","coordinates":[[[108.31074638,-7.24513854],[108.31044537,-7.24520933],[108.31021933,-7.24508322],[108.31019553,-7.2450856],[108.31002745,-7.24551297],[108.30986181,-7.24593411],[108.30975341,-7.24620972],[108.30966491,-7.24643475],[108.30961944,-7.24672409],[108.30956021,-7.247101],[108.3095113,-7.2471756],[108.30921291,-7.24763067],[108.30909095,-7.24781667],[108.30884876,-7.24818604],[108.30866923,-7.24846348],[108.30863936,-7.24850964],[108.30861081,-7.24855009],[108.30858702,-7.24857151],[108.3085537,-7.24858103],[108.30834553,-7.24858097],[108.30835088,-7.24859931],[108.3083487,-7.24868852],[108.30772789,-7.24852545],[108.30772694,-7.24852211],[108.30788032,-7.24828359],[108.30780917,-7.24816976],[108.30749157,-7.2476616],[108.30736873,-7.24746506],[108.30708294,-7.2476616],[108.3067377,-7.24789903],[108.30665251,-7.24795761],[108.30647109,-7.24778075],[108.30627418,-7.24758879],[108.30572452,-7.24781722],[108.30551663,-7.24704056],[108.3054723,-7.24687495],[108.30546754,-7.24684878],[108.30486758,-7.24681445],[108.30459428,-7.24679881],[108.30412029,-7.24645988],[108.30354048,-7.24604527],[108.3027661,-7.24549153],[108.3023291,-7.24517905],[108.30198877,-7.24493569],[108.30171303,-7.24473487],[108.30157712,-7.24463588],[108.3014737,-7.24427482],[108.30144149,-7.24416237],[108.30142484,-7.24414095],[108.30120238,-7.24404482],[108.30042985,-7.24371099],[108.29932139,-7.243232],[108.29929998,-7.24322724],[108.29918576,-7.24345091],[108.29902111,-7.24225071],[108.29901635,-7.24217457],[108.29908059,-7.24062078],[108.29854283,-7.23978321],[108.29791466,-7.2389266],[108.29780996,-7.23876718],[108.29775761,-7.23861965],[108.29753156,-7.23828653],[108.29746494,-7.2382318],[108.29677489,-7.23807],[108.29616813,-7.2375941],[108.29449537,-7.23623543],[108.2948856,-7.23570957],[108.29537101,-7.23602604],[108.29619669,-7.23631157],[108.29733407,-7.23645672],[108.29840007,-7.23619498],[108.29855711,-7.23616881],[108.29863563,-7.23616881],[108.30040357,-7.23690406],[108.30049875,-7.23693975],[108.30097464,-7.2368065],[108.30100082,-7.23678271],[108.30121021,-7.23658283],[108.30131491,-7.23640199],[108.30157427,-7.23599748],[108.30155047,-7.23595703],[108.30096988,-7.23449129],[108.30146481,-7.23370844],[108.30146243,-7.23366085],[108.30146243,-7.23353236],[108.30211203,-7.23326348],[108.30237377,-7.23303981],[108.3017908,-7.23201427],[108.30199067,-7.23218797],[108.30207395,-7.23228553],[108.30227145,-7.23242353],[108.30230952,-7.23246636],[108.30234521,-7.23252585],[108.30242374,-7.2325782],[108.3026712,-7.23270907],[108.30291866,-7.23294464],[108.30307095,-7.23309454],[108.30309236,-7.23315879],[108.30314471,-7.23325159],[108.30320658,-7.23333487],[108.30331841,-7.23341339],[108.30336838,-7.23341339],[108.30352067,-7.23343481],[108.30369913,-7.23361326],[108.3039109,-7.23378459],[108.3040846,-7.23407964],[108.30434872,-7.23456505],[108.30480796,-7.23528365],[108.30483175,-7.23532172],[108.30501735,-7.23546686],[108.3051268,-7.23552397],[108.30526957,-7.2355787],[108.30551228,-7.23562153],[108.30555511,-7.23563343],[108.3059144,-7.23584996],[108.30613094,-7.23608077],[108.30630702,-7.23621877],[108.30644502,-7.23632585],[108.30670201,-7.23676605],[108.30682098,-7.23683268],[108.30699468,-7.23694927],[108.30713745,-7.237073],[108.3072588,-7.23719673],[108.30732067,-7.23730381],[108.30741347,-7.23747513],[108.3074563,-7.2375941],[108.3076062,-7.23826273],[108.30765855,-7.23841978],[108.30795598,-7.23867438],[108.30811065,-7.23881953],[108.30827245,-7.23907413],[108.30828435,-7.23919072],[108.30827721,-7.23927876],[108.30825104,-7.23937632],[108.30815824,-7.23961427],[108.30812017,-7.23969517],[108.30804402,-7.23980224],[108.30798692,-7.23986173],[108.3078037,-7.24027814],[108.30774659,-7.24041852],[108.30774421,-7.24051132],[108.30780132,-7.24062554],[108.30784415,-7.24068502],[108.30798216,-7.24081351],[108.30812254,-7.24088966],[108.3083248,-7.24100863],[108.30850326,-7.24113474],[108.30867458,-7.24129654],[108.30879117,-7.24146073],[108.30887207,-7.24168678],[108.30888397,-7.24198183],[108.30890301,-7.24210794],[108.30893632,-7.24216267],[108.30899581,-7.24221978],[108.3092861,-7.24240775],[108.30956688,-7.24253624],[108.30975723,-7.24263856],[108.30986193,-7.2427266],[108.30995711,-7.24284081],[108.30997852,-7.24289554],[108.31000946,-7.24297882],[108.31003325,-7.24309304],[108.31006181,-7.24343092],[108.31014033,-7.24387588],[108.310364,-7.24419473],[108.31049011,-7.24432322],[108.31055197,-7.24470393],[108.31066381,-7.24483242],[108.31074638,-7.24513854]]]}}]}