{"type":"FeatureCollection","features":[{"type":"Feature","properties":{"Id":0.0,"Nama_RW":"RW 003","Luas":63.1473668764},"geometry":{"type":"Polygon","coordinates":[[[108.30822034,-7.25922539],[108.30791838,-7.25925053],[108.3077542,-7.25925529],[108.30767568,-7.25925053],[108.30758764,-7.25920056],[108.30752101,-7.25914821],[108.30736397,-7.25915773],[108.30719741,-7.25915773],[108.30705464,-7.25903876],[108.30684287,-7.25905065],[108.30668107,-7.25895072],[108.30653354,-7.25905541],[108.30649547,-7.25906255],[108.30641397,-7.25902734],[108.30630273,-7.25897927],[108.30616948,-7.25889361],[108.30586253,-7.25887695],[108.30577211,-7.25884602],[108.30552009,-7.25872477],[108.30551994,-7.25872469],[108.30550855,-7.25871921],[108.30549495,-7.25871267],[108.30526767,-7.25860332],[108.30522721,-7.25854145],[108.30518676,-7.25842486],[108.30515821,-7.25834633],[108.30469904,-7.25814955],[108.30457524,-7.25809649],[108.30428971,-7.25826543],[108.30427543,-7.25829399],[108.30428971,-7.2583154],[108.30430398,-7.25834633],[108.30430874,-7.25839392],[108.30429447,-7.25844151],[108.30417311,-7.25852241],[108.30414456,-7.25851766],[108.3041398,-7.25854383],[108.30415408,-7.25857238],[108.30414694,-7.25860094],[108.3040589,-7.2586628],[108.30404224,-7.25862949],[108.30399703,-7.25842962],[108.30396372,-7.25840582],[108.30386854,-7.25837727],[108.30373053,-7.25838203],[108.3033403,-7.25819881],[108.30333316,-7.2581655],[108.30333316,-7.25808459],[108.30342834,-7.25792755],[108.30345927,-7.25778002],[108.30344976,-7.25774671],[108.30338789,-7.25765629],[108.30329271,-7.25751352],[108.30318564,-7.25740407],[108.30317374,-7.25730413],[108.30315946,-7.25723275],[108.30306904,-7.25703287],[108.30305285,-7.25700702],[108.30293341,-7.25681634],[108.30278827,-7.25666643],[108.30293103,-7.25653794],[108.30269785,-7.25645228],[108.30266929,-7.256369],[108.30263598,-7.25630952],[108.30250511,-7.25620482],[108.30260505,-7.25599781],[108.30244087,-7.25579793],[108.30245276,-7.25542674],[108.30260029,-7.25529587],[108.30252891,-7.25505078],[108.30248608,-7.25497464],[108.30237186,-7.25491991],[108.30202056,-7.25491991],[108.30137011,-7.25491991],[108.30087756,-7.25511265],[108.30032577,-7.25506709],[108.29984011,-7.25502699],[108.2996569,-7.25505078],[108.29960693,-7.25504602],[108.29957124,-7.25501985],[108.29923573,-7.25473431],[108.29884312,-7.25381584],[108.29866704,-7.2532995],[108.29846717,-7.25347082],[108.29858138,-7.25292116],[108.29861945,-7.25286882],[108.29897637,-7.25261897],[108.29968545,-7.25206456],[108.300178,-7.2517814],[108.300247,-7.25156249],[108.3003377,-7.25155784],[108.30417503,-7.25136111],[108.30417514,-7.2513611],[108.30493702,-7.25132204],[108.30513107,-7.25131209],[108.30513821,-7.25130895],[108.30519822,-7.25128263],[108.30525007,-7.25125988],[108.30555001,-7.25112829],[108.30556256,-7.25112278],[108.30569414,-7.25112823],[108.30606821,-7.25114371],[108.30614603,-7.25114179],[108.30621012,-7.25115436],[108.30625058,-7.25119524],[108.3062815,-7.25123009],[108.30631602,-7.25126257],[108.30635526,-7.25130704],[108.3063898,-7.25133713],[108.30641127,-7.2513504],[108.30651496,-7.25142752],[108.3065793,-7.25147811],[108.30669851,-7.2515613],[108.30672232,-7.25157808],[108.30677719,-7.25161676],[108.30684028,-7.2516781],[108.30687306,-7.25172133],[108.30690716,-7.25178465],[108.30692124,-7.25183207],[108.30692807,-7.25189236],[108.30692786,-7.25192726],[108.30690548,-7.25198642],[108.30688228,-7.25202262],[108.3068674,-7.25203951],[108.306863,-7.2520445],[108.30682173,-7.2520586],[108.3068033,-7.25209866],[108.30680216,-7.2521283],[108.30680483,-7.25216274],[108.30681709,-7.25219438],[108.30682657,-7.25221165],[108.30684858,-7.25225409],[108.30686489,-7.25229005],[108.30687333,-7.25232023],[108.30686819,-7.25233884],[108.30686957,-7.25234746],[108.3068759,-7.25235723],[108.30694954,-7.25236802],[108.30697086,-7.25237899],[108.30699802,-7.25231381],[108.30700363,-7.25230033],[108.30700819,-7.25228939],[108.30703333,-7.25229667],[108.30703767,-7.2522846],[108.30704346,-7.25227651],[108.30733627,-7.25237475],[108.30750845,-7.25243252],[108.30751433,-7.25240888],[108.30753002,-7.25233108],[108.30753162,-7.25230384],[108.307531,-7.25228805],[108.30751887,-7.25227435],[108.30748158,-7.25226481],[108.30740841,-7.25224859],[108.30742546,-7.25215976],[108.30743322,-7.25210338],[108.30761488,-7.25216273],[108.30762567,-7.25216065],[108.30763503,-7.2521564],[108.30765444,-7.25215436],[108.30767249,-7.25213869],[108.30767904,-7.25212438],[108.3076892,-7.25210651],[108.30769503,-7.2520922],[108.30786064,-7.25214482],[108.30792441,-7.25217031],[108.30793443,-7.2521761],[108.3079387,-7.25218258],[108.30795661,-7.25219058],[108.30797311,-7.25219355],[108.30797812,-7.25219644],[108.3079903,-7.25220225],[108.30799738,-7.25220488],[108.30812217,-7.25225109],[108.30813368,-7.25224901],[108.30814515,-7.25225195],[108.30817308,-7.25226574],[108.3083386,-7.25231818],[108.30837764,-7.25233055],[108.30838257,-7.25233521],[108.30839288,-7.25234498],[108.30841198,-7.2523537],[108.30871392,-7.25246929],[108.30875022,-7.25248577],[108.30875784,-7.25249155],[108.30877127,-7.2524878],[108.30893846,-7.25255669],[108.30894609,-7.25256152],[108.30894797,-7.25256727],[108.30903798,-7.25259619],[108.30921179,-7.25265203],[108.3093839,-7.25269615],[108.30936285,-7.25281543],[108.30936248,-7.2528175],[108.30933869,-7.25294838],[108.3093362,-7.25295717],[108.30933103,-7.25297548],[108.30930776,-7.25305783],[108.30928156,-7.25313531],[108.30925065,-7.25322677],[108.30923875,-7.25327674],[108.3091864,-7.25335288],[108.30911264,-7.2534552],[108.30904602,-7.25355514],[108.30900157,-7.2536189],[108.30899129,-7.25363366],[108.30898053,-7.25365018],[108.30892466,-7.25373598],[108.30884852,-7.25383591],[108.3088271,-7.25387874],[108.30879483,-7.25390641],[108.30877714,-7.25392158],[108.3086653,-7.25401913],[108.30861175,-7.25406979],[108.30861091,-7.25407058],[108.30857726,-7.25410241],[108.30854473,-7.25412952],[108.30852015,-7.25415],[108.3084903,-7.2541918],[108.30846067,-7.25423328],[108.3084425,-7.25426281],[108.30829874,-7.254489],[108.30816886,-7.25469214],[108.30812754,-7.25475677],[108.30812516,-7.25483529],[108.30812345,-7.25495039],[108.30812334,-7.25495753],[108.30815111,-7.25515314],[108.30818055,-7.25536046],[108.30819655,-7.2555872],[108.30819565,-7.25560097],[108.30819378,-7.25562969],[108.30818941,-7.25569665],[108.30818941,-7.25576328],[108.30817751,-7.25581087],[108.30817648,-7.25584067],[108.30817275,-7.25594888],[108.30817248,-7.25595258],[108.30816479,-7.25605879],[108.30816086,-7.25611306],[108.30815107,-7.25619258],[108.30814182,-7.25626772],[108.30813465,-7.25628798],[108.308113,-7.25634908],[108.3081018,-7.25638072],[108.30810137,-7.25638194],[108.30807647,-7.2564519],[108.3080514,-7.25652233],[108.30803645,-7.25656174],[108.30799905,-7.25666033],[108.30794104,-7.25681117],[108.30793957,-7.256815],[108.30793265,-7.25683244],[108.30792509,-7.25685151],[108.3078936,-7.2569309],[108.30788484,-7.25695301],[108.30782773,-7.25710529],[108.3077849,-7.25722189],[108.30775159,-7.25730993],[108.30771169,-7.2574775],[108.30769811,-7.25753453],[108.30767194,-7.25781531],[108.30767639,-7.25786577],[108.30768355,-7.25794694],[108.30770035,-7.25807958],[108.3077338,-7.25826264],[108.30780067,-7.25835137],[108.30794698,-7.25854551],[108.30795384,-7.25856152],[108.3079849,-7.25863274],[108.30805821,-7.25880081],[108.30814896,-7.25900886],[108.30822034,-7.25922539]]]}},{"type":"Feature","properties":{"Id":0.0,"Nama_RW":"RW 004","Luas":68.8774468319},"geometry":{"type":"Polygon","coordinates":[[[108.3093839,-7.25269615],[108.30921179,-7.25265203],[108.30903798,-7.25259619],[108.30894797,-7.25256727],[108.30894609,-7.25256152],[108.30893846,-7.25255669],[108.30877127,-7.2524878],[108.30875784,-7.25249155],[108.30875022,-7.25248577],[108.30871392,-7.25246929],[108.30841198,-7.2523537],[108.30839288,-7.25234498],[108.30838257,-7.25233521],[108.30837764,-7.25233055],[108.3083386,-7.25231818],[108.30817308,-7.25226574],[108.30814515,-7.25225195],[108.30813368,-7.25224901],[108.30812217,-7.25225109],[108.30799738,-7.25220488],[108.3079903,-7.25220225],[108.30797812,-7.25219644],[108.30797311,-7.25219355],[108.30795661,-7.25219058],[108.3079387,-7.25218258],[108.30793443,-7.2521761],[108.30792441,-7.25217031],[108.30786064,-7.25214482],[108.30769503,-7.2520922],[108.3076892,-7.25210651],[108.30767904,-7.25212438],[108.30767249,-7.25213869],[108.30765444,-7.25215436],[108.30763503,-7.2521564],[108.30762567,-7.25216065],[108.30761488,-7.25216273],[108.30743322,-7.25210338],[108.30742546,-7.25215976],[108.30740841,-7.25224859],[108.30748158,-7.25226481],[108.30751887,-7.25227435],[108.307531,-7.25228805],[108.30753162,-7.25230384],[108.30753002,-7.25233108],[108.30751433,-7.25240888],[108.30750845,-7.25243252],[108.30733627,-7.25237475],[108.30704346,-7.25227651],[108.30703767,-7.2522846],[108.30703333,-7.25229667],[108.30700819,-7.25228939],[108.30700363,-7.25230033],[108.30699802,-7.25231381],[108.30697086,-7.25237899],[108.30694954,-7.25236802],[108.3068759,-7.25235723],[108.30686957,-7.25234746],[108.30686819,-7.25233884],[108.30687333,-7.25232023],[108.30686489,-7.25229005],[108.30684858,-7.25225409],[108.30682657,-7.25221165],[108.30681709,-7.25219438],[108.30680483,-7.25216274],[108.30680216,-7.2521283],[108.3068033,-7.25209866],[108.30682173,-7.2520586],[108.306863,-7.2520445],[108.3068674,-7.25203951],[108.30688228,-7.25202262],[108.30690548,-7.25198642],[108.30692786,-7.25192726],[108.30692807,-7.25189236],[108.30692124,-7.25183207],[108.30690716,-7.25178465],[108.30687306,-7.25172133],[108.30684028,-7.2516781],[108.30677719,-7.25161676],[108.30672232,-7.25157808],[108.30669851,-7.2515613],[108.3065793,-7.25147811],[108.30651496,-7.25142752],[108.30641127,-7.2513504],[108.3063898,-7.25133713],[108.30635526,-7.25130704],[108.30631602,-7.25126257],[108.3062815,-7.25123009],[108.30625058,-7.25119524],[108.30621012,-7.25115436],[108.30614603,-7.25114179],[108.30606821,-7.25114371],[108.30569414,-7.25112823],[108.30556256,-7.25112278],[108.30555001,-7.25112829],[108.30525007,-7.25125988],[108.30519822,-7.25128263],[108.30513821,-7.25130895],[108.30513107,-7.25131209],[108.30493702,-7.25132204],[108.30417514,-7.2513611],[108.30417503,-7.25136111],[108.3003377,-7.25155784],[108.300247,-7.25156249],[108.30024426,-7.25155729],[108.29982108,-7.25075347],[108.29964262,-7.25057739],[108.29939753,-7.25031089],[108.29929522,-7.24994922],[108.29891926,-7.24955661],[108.29881933,-7.24919255],[108.29878839,-7.2489665],[108.29879315,-7.24872855],[108.29881695,-7.24857865],[108.29882884,-7.24855723],[108.29936422,-7.24821697],[108.29929284,-7.24732467],[108.29924525,-7.24711766],[108.29920526,-7.24678529],[108.29916911,-7.24648472],[108.29917624,-7.24563525],[108.29924763,-7.24527596],[108.29924287,-7.24520933],[108.29918814,-7.24497138],[108.29914535,-7.24403891],[108.29914293,-7.24398629],[108.29918576,-7.24345091],[108.29929998,-7.24322724],[108.29932139,-7.243232],[108.30042985,-7.24371099],[108.30098114,-7.24394922],[108.30120238,-7.24404482],[108.30142484,-7.24414095],[108.30144149,-7.24416237],[108.3014737,-7.24427482],[108.30147861,-7.24429197],[108.3014825,-7.24430555],[108.30157712,-7.24463588],[108.30171303,-7.24473487],[108.30198877,-7.24493569],[108.3023291,-7.24517905],[108.30276609,-7.24549154],[108.3032992,-7.24587275],[108.30335408,-7.24591199],[108.30354048,-7.24604527],[108.30380472,-7.24623423],[108.30384985,-7.2462665],[108.30412029,-7.24645988],[108.30459428,-7.24679881],[108.30481552,-7.24681147],[108.30481734,-7.24681157],[108.30486757,-7.24681445],[108.30500365,-7.24682224],[108.30537021,-7.24684321],[108.30546754,-7.24684878],[108.3054723,-7.24687495],[108.30551663,-7.24704056],[108.3055319,-7.24709761],[108.3055729,-7.2472508],[108.30566776,-7.24760518],[108.30572452,-7.24781722],[108.30593129,-7.24773129],[108.30627418,-7.24758879],[108.30647109,-7.24778075],[108.30665251,-7.24795761],[108.3067377,-7.24789903],[108.306897,-7.24778947],[108.30708293,-7.2476616],[108.30716967,-7.24760196],[108.30719137,-7.24758703],[108.30736873,-7.24746506],[108.3074459,-7.24758854],[108.30749157,-7.2476616],[108.30768737,-7.24797489],[108.30780917,-7.24816976],[108.30784185,-7.24822206],[108.30788031,-7.24828359],[108.30779276,-7.24841976],[108.30772694,-7.24852211],[108.30772789,-7.24852545],[108.30811995,-7.24865584],[108.30827385,-7.24871076],[108.3083487,-7.24868852],[108.30834953,-7.24865453],[108.30835088,-7.24859931],[108.30834784,-7.24858097],[108.30851504,-7.24856642],[108.30854902,-7.24856347],[108.30856488,-7.24855352],[108.30854645,-7.24851181],[108.30857264,-7.24845602],[108.30863367,-7.24834084],[108.308641,-7.24831578],[108.30865798,-7.24827882],[108.30866527,-7.24825974],[108.30868076,-7.24827298],[108.30867724,-7.24826101],[108.30868569,-7.2482491],[108.30869882,-7.24825396],[108.30871933,-7.24822778],[108.30873265,-7.24820156],[108.30876643,-7.24815753],[108.30881437,-7.24814945],[108.30886125,-7.24811626],[108.30890819,-7.2480735],[108.30893358,-7.24803181],[108.30893962,-7.24801901],[108.30897702,-7.24790404],[108.30902709,-7.24775011],[108.30903414,-7.24772832],[108.30906592,-7.24765311],[108.30911629,-7.24755777],[108.30914864,-7.24749769],[108.3091363,-7.24745757],[108.30913221,-7.24744201],[108.30912932,-7.24742466],[108.3091265,-7.24739595],[108.30912966,-7.24736788],[108.30913484,-7.24735122],[108.30913701,-7.24733923],[108.30914247,-7.24732611],[108.30914734,-7.24731299],[108.3091522,-7.24730047],[108.30915765,-7.24729034],[108.30916911,-7.24727547],[108.30918233,-7.24726598],[108.30919675,-7.2472577],[108.30920935,-7.24725299],[108.30922674,-7.24724712],[108.30924811,-7.24723589],[108.30927032,-7.24722586],[108.30929492,-7.24721644],[108.30932435,-7.24719808],[108.3093575,-7.24716063],[108.30938822,-7.24712674],[108.30940761,-7.2470874],[108.30942881,-7.2470445],[108.30948451,-7.24693784],[108.3095263,-7.2468562],[108.3095684,-7.24682178],[108.30957391,-7.24680089],[108.30956627,-7.24677694],[108.30957177,-7.24675785],[108.30958447,-7.2467364],[108.30961944,-7.2467241],[108.30961031,-7.24658054],[108.30965132,-7.24644666],[108.30977143,-7.2462989],[108.30981398,-7.24614853],[108.30983056,-7.2461393],[108.3098393,-7.24611927],[108.30983809,-7.24607982],[108.30986063,-7.24594138],[108.309882,-7.24587704],[108.30991621,-7.24578031],[108.30994537,-7.24569788],[108.30998248,-7.24559294],[108.31003671,-7.24553158],[108.31004194,-7.24549718],[108.31006217,-7.24547866],[108.31008596,-7.24546302],[108.31011264,-7.24544596],[108.31013001,-7.24542383],[108.31013878,-7.24539806],[108.31014824,-7.2453766],[108.31016892,-7.24536154],[108.31017626,-7.24533588],[108.3101753,-7.24529583],[108.31019553,-7.2450856],[108.31021932,-7.24508322],[108.31023661,-7.24509287],[108.31023626,-7.24510887],[108.31024873,-7.24512687],[108.31026191,-7.24512456],[108.31027207,-7.24512642],[108.31028103,-7.24512946],[108.31028997,-7.24513608],[108.31029651,-7.2451433],[108.31030603,-7.24515232],[108.31031737,-7.24515896],[108.31032756,-7.24515663],[108.31033831,-7.24516028],[108.31034665,-7.2451669],[108.3103532,-7.24517292],[108.31036827,-7.24516631],[108.31038616,-7.24516594],[108.31040468,-7.24517083],[108.31041657,-7.24518465],[108.31047909,-7.24524061],[108.31051673,-7.24525218],[108.31056702,-7.24525009],[108.31063354,-7.24523674],[108.31069764,-7.24522696],[108.31074637,-7.24513854],[108.3107329,-7.24530922],[108.3107321,-7.24531938],[108.31065357,-7.24556922],[108.31060361,-7.24572151],[108.31057408,-7.24578713],[108.31047512,-7.24600704],[108.31042277,-7.24608795],[108.31034662,-7.24618075],[108.31001588,-7.24652577],[108.30995042,-7.24661674],[108.3097351,-7.246916],[108.30971977,-7.24699575],[108.30970647,-7.2470649],[108.30968751,-7.24716346],[108.30969227,-7.24736572],[108.30969128,-7.24739612],[108.30968038,-7.24772977],[108.30965658,-7.24784875],[108.30963755,-7.24796058],[108.30960888,-7.24800659],[108.30957888,-7.24805476],[108.30954713,-7.24810573],[108.30950192,-7.24817949],[108.30927349,-7.24841982],[108.30925525,-7.2484542],[108.30908842,-7.2487686],[108.30908789,-7.2487696],[108.30908157,-7.24892513],[108.30907495,-7.24908828],[108.30906885,-7.24923835],[108.30913548,-7.24930022],[108.30920924,-7.2493716],[108.30929728,-7.24949533],[108.30944719,-7.24973328],[108.3094686,-7.24978087],[108.30948801,-7.24985551],[108.30949061,-7.24986553],[108.30949954,-7.24989984],[108.30953543,-7.25003034],[108.30953194,-7.25006463],[108.30952905,-7.25009302],[108.30950287,-7.25019772],[108.3094767,-7.25030004],[108.30947373,-7.25030994],[108.30944814,-7.25039521],[108.30946004,-7.25049515],[108.30946304,-7.25051853],[108.30947194,-7.25058795],[108.30947247,-7.25061231],[108.30947387,-7.25067692],[108.30947432,-7.25069741],[108.30946718,-7.2507902],[108.30945766,-7.25091394],[108.30945708,-7.25092266],[108.30945068,-7.25101872],[108.30945052,-7.25102101],[108.30945052,-7.25115188],[108.30945052,-7.25126227],[108.30945052,-7.25131979],[108.30945052,-7.25132082],[108.30944576,-7.25144218],[108.30944837,-7.25150735],[108.30945052,-7.25156115],[108.30943863,-7.25162302],[108.30943625,-7.25171106],[108.30943798,-7.25176484],[108.30943961,-7.25181517],[108.30944101,-7.25185858],[108.30944101,-7.25196659],[108.30944101,-7.25196897],[108.30943958,-7.25197961],[108.3093911,-7.25234255],[108.30940066,-7.25257683],[108.30940055,-7.25257718],[108.30938756,-7.25266996],[108.30938588,-7.252682],[108.3093839,-7.25269615]]]}},{"type":"Feature","properties":{"Id":0.0,"Nama_RW":"RW 005","Luas":19.883361027},"geometry":{"type":"Polygon","coordinates":[[[108.31074637,-7.24513854],[108.31044537,-7.24520933],[108.31021932,-7.24508322],[108.31019553,-7.2450856],[108.31010903,-7.24530553],[108.31002745,-7.24551297],[108.30993257,-7.24575419],[108.3099009,-7.24583473],[108.30986181,-7.24593411],[108.30979765,-7.24609725],[108.30975341,-7.24620972],[108.30966491,-7.24643475],[108.30961944,-7.2467241],[108.30958336,-7.24695368],[108.30956021,-7.247101],[108.3095113,-7.2471756],[108.3093403,-7.24743639],[108.30921291,-7.24763067],[108.30916566,-7.24770272],[108.30912696,-7.24776175],[108.30912687,-7.24776189],[108.30909095,-7.24781667],[108.3089689,-7.2480028],[108.3089652,-7.24800845],[108.30896278,-7.24801213],[108.30884875,-7.24818604],[108.30866923,-7.24846348],[108.30863936,-7.24850964],[108.30861081,-7.24855009],[108.30858701,-7.24857151],[108.3085537,-7.24858103],[108.30834784,-7.24858097],[108.30835088,-7.24859931],[108.30834953,-7.24865453],[108.3083487,-7.24868852],[108.30827385,-7.24871076],[108.30812765,-7.2486584],[108.30772789,-7.24852545],[108.30772694,-7.24852211],[108.30779276,-7.24841976],[108.30788031,-7.24828359],[108.30784185,-7.24822206],[108.30780917,-7.24816976],[108.30768737,-7.24797489],[108.30749157,-7.2476616],[108.3074459,-7.24758854],[108.30736873,-7.24746506],[108.30719137,-7.24758703],[108.30716967,-7.24760196],[108.30708293,-7.2476616],[108.306897,-7.24778947],[108.3067377,-7.24789903],[108.30665251,-7.24795761],[108.30647109,-7.24778075],[108.30627418,-7.24758879],[108.30593129,-7.24773129],[108.30572452,-7.24781722],[108.30566776,-7.24760518],[108.3055729,-7.2472508],[108.3055319,-7.24709761],[108.30551663,-7.24704056],[108.3054723,-7.24687495],[108.30546754,-7.24684878],[108.30537021,-7.24684321],[108.30500365,-7.24682224],[108.30486757,-7.24681445],[108.30481734,-7.24681157],[108.30481552,-7.24681147],[108.3052843,-7.24623081],[108.30601463,-7.24587201],[108.30758404,-7.24510099],[108.30760788,-7.24491751],[108.30767825,-7.24492008],[108.30766111,-7.24502398],[108.30773004,-7.24502917],[108.30775559,-7.24491839],[108.30779157,-7.24468334],[108.30763948,-7.24467393],[108.30762195,-7.2446733],[108.30762171,-7.24467329],[108.3076291,-7.24452746],[108.30765901,-7.24453003],[108.30766582,-7.24443176],[108.30765725,-7.2443026],[108.3075998,-7.24430154],[108.30759505,-7.24425454],[108.30758391,-7.24419494],[108.30757617,-7.24416764],[108.3075634,-7.24414031],[108.30777022,-7.24405822],[108.30829103,-7.2438515],[108.30846684,-7.24375834],[108.308539,-7.24370259],[108.30858848,-7.24363474],[108.3086067,-7.24359062],[108.3086107,-7.24352131],[108.30861326,-7.24349383],[108.30863249,-7.24348079],[108.30866724,-7.24347502],[108.30868234,-7.24347117],[108.30869823,-7.24345692],[108.30871019,-7.24344797],[108.30871566,-7.24343366],[108.30872831,-7.24342118],[108.30875052,-7.24340996],[108.30876434,-7.24339988],[108.30877467,-7.24337424],[108.30878736,-7.2433534],[108.30880067,-7.24332957],[108.308804,-7.24331369],[108.30879693,-7.24329452],[108.30878752,-7.24326697],[108.30878049,-7.24324063],[108.30877466,-7.24321549],[108.30876647,-7.24318316],[108.30876424,-7.24315566],[108.30878158,-7.24313878],[108.30879595,-7.24313791],[108.30880935,-7.24313799],[108.30881943,-7.24313375],[108.30882668,-7.24312375],[108.30883435,-7.24312141],[108.30884823,-7.24312197],[108.30885162,-7.24311673],[108.30885166,-7.24311003],[108.30885028,-7.2430995],[108.3088441,-7.24309182],[108.30883744,-7.24308508],[108.30883602,-7.24308131],[108.30883367,-7.24307502],[108.30883277,-7.24306545],[108.30883571,-7.24305447],[108.30884483,-7.24304926],[108.30885587,-7.2430455],[108.30886596,-7.24303935],[108.30887177,-7.24302934],[108.30887182,-7.24301978],[108.3088719,-7.24300687],[108.30887438,-7.24299206],[108.30887637,-7.2429806],[108.30888076,-7.2429658],[108.30889296,-7.24292714],[108.30889886,-7.24290231],[108.30892106,-7.24287184],[108.30896165,-7.24282224],[108.30899735,-7.24276614],[108.30900248,-7.24275355],[108.30900901,-7.24273752],[108.30901584,-7.24271652],[108.30901878,-7.2427041],[108.30902042,-7.24269625],[108.3090352,-7.24267751],[108.30903731,-7.24267483],[108.30904091,-7.24267276],[108.30904599,-7.24267428],[108.30904927,-7.24267669],[108.30905348,-7.24267313],[108.3090571,-7.24266777],[108.30906072,-7.24266361],[108.30906675,-7.24265618],[108.30907068,-7.24264933],[108.30907519,-7.24264517],[108.30908876,-7.24262893],[108.30909742,-7.24262181],[108.30910965,-7.2426183],[108.30912119,-7.24260976],[108.30912699,-7.24260047],[108.30913565,-7.24259478],[108.30916148,-7.2425978],[108.30930625,-7.24241697],[108.30956688,-7.24253624],[108.30975723,-7.24263856],[108.30986193,-7.2427266],[108.3099356,-7.24281501],[108.30995711,-7.24284081],[108.30997852,-7.24289554],[108.31000946,-7.24297882],[108.31001413,-7.24300124],[108.31003325,-7.24309304],[108.3100618,-7.24343092],[108.31007216,-7.24348959],[108.31009717,-7.24363134],[108.31014033,-7.24387588],[108.3102492,-7.24403109],[108.31036399,-7.24419473],[108.31045929,-7.24429182],[108.31049011,-7.24432322],[108.31054162,-7.24464023],[108.31055197,-7.24470393],[108.31066381,-7.24483242],[108.31072129,-7.24504554],[108.31072249,-7.24504998],[108.31074637,-7.24513854]]]}},{"type":"Feature","properties":{"Id":0.0,"Nama_RW":"RW 006","Luas":119.771813792},"geometry":{"type":"Polygon","coordinates":[[[108.30930625,-7.24241697],[108.30916148,-7.2425978],[108.30913565,-7.24259478],[108.30912699,-7.24260047],[108.30912119,-7.24260976],[108.30910965,-7.2426183],[108.30909742,-7.24262181],[108.30908876,-7.24262893],[108.30907519,-7.24264517],[108.30907068,-7.24264933],[108.30906675,-7.24265618],[108.30906072,-7.24266361],[108.3090571,-7.24266777],[108.30905348,-7.24267313],[108.30904927,-7.24267669],[108.30904599,-7.24267428],[108.30904091,-7.24267276],[108.30903731,-7.24267483],[108.3090352,-7.24267751],[108.30902042,-7.24269625],[108.30901878,-7.2427041],[108.30901584,-7.24271652],[108.30900901,-7.24273752],[108.30900248,-7.24275355],[108.30899735,-7.24276614],[108.30896165,-7.24282224],[108.30892106,-7.24287184],[108.30889886,-7.24290231],[108.30889296,-7.24292714],[108.30888076,-7.2429658],[108.30887637,-7.2429806],[108.30887438,-7.24299206],[108.3088719,-7.24300687],[108.30887182,-7.24301978],[108.30887177,-7.24302934],[108.30886596,-7.24303935],[108.30885587,-7.2430455],[108.30884483,-7.24304926],[108.30883571,-7.24305447],[108.30883277,-7.24306545],[108.30883367,-7.24307502],[108.30883602,-7.24308131],[108.30883744,-7.24308508],[108.3088441,-7.24309182],[108.30885028,-7.2430995],[108.30885166,-7.24311003],[108.30885162,-7.24311673],[108.30884823,-7.24312197],[108.30883435,-7.24312141],[108.30882668,-7.24312375],[108.30881943,-7.24313375],[108.30880935,-7.24313799],[108.30879595,-7.24313791],[108.30878158,-7.24313878],[108.30876424,-7.24315566],[108.30876647,-7.24318316],[108.30877466,-7.24321549],[108.30878049,-7.24324063],[108.30878752,-7.24326697],[108.30879693,-7.24329452],[108.308804,-7.24331369],[108.30880067,-7.24332957],[108.30878736,-7.2433534],[108.30877467,-7.24337424],[108.30876434,-7.24339988],[108.30875052,-7.24340996],[108.30872831,-7.24342118],[108.30871566,-7.24343366],[108.30871019,-7.24344797],[108.30869823,-7.24345692],[108.30868234,-7.24347117],[108.30866724,-7.24347502],[108.30863249,-7.24348079],[108.30861326,-7.24349383],[108.3086107,-7.24352131],[108.3086067,-7.24359062],[108.30858848,-7.24363474],[108.308539,-7.24370259],[108.30846684,-7.24375834],[108.30829103,-7.2438515],[108.30777022,-7.24405822],[108.3075634,-7.24414031],[108.30757617,-7.24416764],[108.30758391,-7.24419494],[108.30759505,-7.24425454],[108.3075998,-7.24430154],[108.30765725,-7.2443026],[108.30766582,-7.24443176],[108.30765901,-7.24453003],[108.3076291,-7.24452746],[108.30762171,-7.24467329],[108.30762195,-7.2446733],[108.30763948,-7.24467393],[108.30779157,-7.24468334],[108.30775559,-7.24491839],[108.30773004,-7.24502917],[108.30766111,-7.24502398],[108.30767825,-7.24492008],[108.30760788,-7.24491751],[108.30758404,-7.24510099],[108.30601463,-7.24587201],[108.3052843,-7.24623081],[108.30481552,-7.24681147],[108.30459428,-7.24679881],[108.30412029,-7.24645988],[108.30384985,-7.2462665],[108.30380472,-7.24623423],[108.30354048,-7.24604527],[108.30335408,-7.24591199],[108.3032992,-7.24587275],[108.30276609,-7.24549154],[108.3023291,-7.24517905],[108.30198877,-7.24493569],[108.30171303,-7.24473487],[108.30157712,-7.24463588],[108.3014825,-7.24430555],[108.30147861,-7.24429197],[108.3014737,-7.24427482],[108.30144149,-7.24416237],[108.30142484,-7.24414095],[108.30120238,-7.24404482],[108.30098114,-7.24394922],[108.30042985,-7.24371099],[108.29932139,-7.243232],[108.29929998,-7.24322724],[108.29918576,-7.24345091],[108.2990211,-7.24225071],[108.29901635,-7.24217457],[108.29908059,-7.24062078],[108.29854283,-7.23978321],[108.29791465,-7.2389266],[108.29780996,-7.23876718],[108.29775761,-7.23861965],[108.29753156,-7.23828653],[108.29746494,-7.2382318],[108.29677489,-7.23807],[108.29616813,-7.2375941],[108.29449537,-7.23623543],[108.2948856,-7.23570957],[108.29537101,-7.23602604],[108.29619668,-7.23631157],[108.29733407,-7.23645672],[108.29840006,-7.23619498],[108.29855711,-7.23616881],[108.29863563,-7.23616881],[108.30040357,-7.23690406],[108.30049875,-7.23693975],[108.30097464,-7.2368065],[108.30100082,-7.23678271],[108.30121021,-7.23658283],[108.3013149,-7.23640199],[108.30157427,-7.23599748],[108.30155047,-7.23595703],[108.30096988,-7.23449129],[108.30146481,-7.23370844],[108.30146243,-7.23366085],[108.30146243,-7.23353236],[108.30211202,-7.23326348],[108.30237376,-7.23303981],[108.3017908,-7.23201427],[108.30199067,-7.23218797],[108.30207395,-7.23228553],[108.30227145,-7.23242353],[108.30230952,-7.23246636],[108.30234521,-7.23252585],[108.30242373,-7.2325782],[108.3026712,-7.23270907],[108.30291866,-7.23294464],[108.30307095,-7.23309454],[108.30309236,-7.23315879],[108.30314471,-7.23325159],[108.30320658,-7.23333487],[108.30331841,-7.23341339],[108.30336838,-7.23341339],[108.30352066,-7.23343481],[108.30369912,-7.23361326],[108.3039109,-7.23378459],[108.3040846,-7.23407964],[108.30434872,-7.23456505],[108.30480795,-7.23528365],[108.30483175,-7.23532172],[108.30501735,-7.23546686],[108.3051268,-7.23552397],[108.30526957,-7.2355787],[108.30551227,-7.23562153],[108.3055551,-7.23563343],[108.3059144,-7.23584996],[108.30613093,-7.23608077],[108.30630701,-7.23621877],[108.30644502,-7.23632585],[108.306702,-7.23676605],[108.30682098,-7.23683268],[108.30699468,-7.23694927],[108.30713745,-7.237073],[108.3072588,-7.23719673],[108.30732066,-7.23730381],[108.30741346,-7.23747513],[108.30745629,-7.2375941],[108.3076062,-7.23826273],[108.30765855,-7.23841978],[108.30795598,-7.23867438],[108.30811065,-7.23881953],[108.3081749,-7.23892063],[108.30827245,-7.23907413],[108.30828435,-7.23919072],[108.30827721,-7.23927876],[108.30825103,-7.23937632],[108.30815823,-7.23961427],[108.30812016,-7.23969517],[108.30804402,-7.23980224],[108.30798691,-7.23986173],[108.30780369,-7.24027814],[108.30774659,-7.24041852],[108.30774421,-7.24051132],[108.30776102,-7.24054495],[108.30780132,-7.24062554],[108.30784415,-7.24068502],[108.30798215,-7.24081351],[108.3080121,-7.24082976],[108.30812254,-7.24088966],[108.30814911,-7.24090528],[108.3083248,-7.24100863],[108.30850326,-7.24113474],[108.30867458,-7.24129654],[108.30879117,-7.24146073],[108.30887207,-7.24168678],[108.30888397,-7.24198183],[108.30889255,-7.24203865],[108.30890301,-7.24210794],[108.30893632,-7.24216267],[108.3089958,-7.24221978],[108.30919644,-7.2423497],[108.3092861,-7.24240775],[108.30930625,-7.24241697]]]}},{"type":"Feature","properties":{"Id":0.0,"Nama_RW":"RW 001","Luas":52.9595832766},"geometry":{"type":"Polygon","coordinates":[[[108.31103871,-7.265622],[108.3110292,-7.26560296],[108.31102097,-7.26555714],[108.31101383,-7.26548813],[108.31102335,-7.26540723],[108.31103762,-7.26533109],[108.31104,-7.26524781],[108.31100431,-7.26516691],[108.31096148,-7.26509552],[108.31092579,-7.26496227],[108.31088058,-7.26481475],[108.31086154,-7.26472909],[108.31084489,-7.26461725],[108.31084727,-7.26450542],[108.31086154,-7.2642984],[108.31085441,-7.26403428],[108.31083061,-7.26396766],[108.31075685,-7.26385345],[108.31067357,-7.26372495],[108.3106117,-7.2636274],[108.31058553,-7.26360598],[108.31052128,-7.26356315],[108.31048321,-7.26353936],[108.31047603,-7.26353513],[108.31044276,-7.26351556],[108.31044038,-7.26337755],[108.31041183,-7.26333472],[108.31028096,-7.26315388],[108.31026668,-7.26310867],[108.31025478,-7.26302539],[108.31004301,-7.26279459],[108.30985979,-7.26258281],[108.30984789,-7.26255426],[108.30985784,-7.26245129],[108.30988121,-7.26220924],[108.30984313,-7.26203792],[108.30979792,-7.26180235],[108.3097432,-7.26153823],[108.30968371,-7.26130028],[108.30967419,-7.26126697],[108.30963519,-7.26120759],[108.30961324,-7.26117417],[108.30960062,-7.26088002],[108.3095414,-7.26069319],[108.30945304,-7.26057504],[108.30934413,-7.26052849],[108.30926529,-7.26050077],[108.30916475,-7.2604973],[108.30906981,-7.26050554],[108.30898891,-7.26043892],[108.30894132,-7.26039609],[108.30887945,-7.26035088],[108.30872003,-7.26025808],[108.30864151,-7.26020573],[108.30861057,-7.26018432],[108.30859207,-7.26015074],[108.30854633,-7.26006772],[108.30853469,-7.26004445],[108.30845829,-7.25989164],[108.3084107,-7.25971556],[108.30836778,-7.25960597],[108.30829886,-7.25943003],[108.30822034,-7.25922539],[108.30814896,-7.25900886],[108.30805821,-7.25880081],[108.3079849,-7.25863274],[108.30795384,-7.25856152],[108.30794698,-7.25854551],[108.3077338,-7.25826264],[108.30770376,-7.25809826],[108.30768355,-7.25794694],[108.30767293,-7.25782652],[108.30767194,-7.25781531],[108.30767457,-7.25778703],[108.30768975,-7.25762423],[108.30769811,-7.25753453],[108.30771721,-7.2574543],[108.30775159,-7.25730993],[108.3077849,-7.25722189],[108.30782773,-7.25710529],[108.30788484,-7.25695301],[108.3078936,-7.2569309],[108.30792509,-7.25685151],[108.30793265,-7.25683244],[108.30793957,-7.256815],[108.30794104,-7.25681117],[108.30799905,-7.25666033],[108.30803645,-7.25656174],[108.3080514,-7.25652233],[108.30807647,-7.2564519],[108.30810137,-7.25638194],[108.3081018,-7.25638072],[108.308113,-7.25634908],[108.30813465,-7.25628798],[108.30814182,-7.25626772],[108.30815107,-7.25619258],[108.30816086,-7.25611306],[108.30816479,-7.25605879],[108.30817248,-7.25595258],[108.30817275,-7.25594888],[108.30817648,-7.25584067],[108.30817751,-7.25581087],[108.30818941,-7.25576328],[108.30818941,-7.25569665],[108.30819378,-7.25562969],[108.30819565,-7.25560097],[108.30819655,-7.2555872],[108.30819564,-7.25557435],[108.30818506,-7.2554244],[108.30818055,-7.25536046],[108.30815803,-7.25520184],[108.30815329,-7.25516846],[108.30815111,-7.25515314],[108.30816327,-7.25515331],[108.30825499,-7.25515736],[108.3083088,-7.25516844],[108.30841528,-7.25517863],[108.30850136,-7.25519708],[108.30855879,-7.25520339],[108.30863778,-7.25520625],[108.3086892,-7.25521492],[108.3087131,-7.25522224],[108.30873823,-7.25522478],[108.30876455,-7.25522613],[108.30880523,-7.25522996],[108.30885069,-7.25523501],[108.30887818,-7.25524234],[108.30892605,-7.25524621],[108.30899429,-7.25524542],[108.30900379,-7.25525863],[108.30901815,-7.25525871],[108.30902409,-7.25526592],[108.30917308,-7.25528224],[108.30922029,-7.25528741],[108.30926815,-7.25529128],[108.30928487,-7.25529855],[108.3092932,-7.25530697],[108.30936262,-7.25530857],[108.3097038,-7.2553082],[108.30993595,-7.25535796],[108.30995783,-7.25536166],[108.30997843,-7.25524039],[108.31000503,-7.2551187],[108.31000509,-7.25511841],[108.31024208,-7.255179],[108.31025522,-7.25514322],[108.31032546,-7.25516802],[108.31037274,-7.25518982],[108.31037409,-7.25520417],[108.31038689,-7.25522576],[108.31044004,-7.25522608],[108.31060075,-7.25525715],[108.31082747,-7.25529636],[108.31089667,-7.25530833],[108.31100349,-7.25509937],[108.31103645,-7.25499198],[108.31111833,-7.255],[108.31121667,-7.254385],[108.31151667,-7.25438],[108.31147392,-7.25434225],[108.31154504,-7.25428456],[108.31196493,-7.25394398],[108.3119828,-7.25392948],[108.31207945,-7.25385109],[108.31233862,-7.25364086],[108.31252667,-7.25348833],[108.31262621,-7.25363301],[108.31276199,-7.25374858],[108.31301716,-7.25391983],[108.31321284,-7.25402858],[108.31345398,-7.25414238],[108.31365703,-7.25422008],[108.31382182,-7.25429039],[108.31398029,-7.25430771],[108.31398092,-7.25430873],[108.3139833,-7.25439677],[108.3139952,-7.25444198],[108.31403327,-7.25447292],[108.31411655,-7.25456809],[108.31417365,-7.25462758],[108.31421886,-7.25469659],[108.3142498,-7.25475369],[108.31427359,-7.25480366],[108.3143307,-7.25492025],[108.31430928,-7.25495833],[108.31425456,-7.25500116],[108.31419031,-7.25503923],[108.31411893,-7.25511299],[108.31408324,-7.25517962],[108.31406658,-7.25527004],[108.31406658,-7.25538425],[108.31406467,-7.25551997],[108.3140642,-7.25555319],[108.31407134,-7.25580066],[108.31407372,-7.25595532],[108.31407478,-7.25600716],[108.3140761,-7.25607191],[108.31405706,-7.25628607],[108.31404754,-7.25631938],[108.31401661,-7.25633365],[108.31398806,-7.25634793],[108.31398284,-7.25635247],[108.31396636,-7.25647896],[108.31396555,-7.25671183],[108.31396532,-7.25677813],[108.31391462,-7.25684599],[108.31384053,-7.25694518],[108.31383228,-7.25699194],[108.31381198,-7.25710698],[108.31379294,-7.2572093],[108.31374059,-7.25728068],[108.31366491,-7.25735965],[108.31357641,-7.257452],[108.31352882,-7.25750197],[108.31350456,-7.25758745],[108.31342888,-7.25785413],[108.31342311,-7.25788608],[108.31339795,-7.25802545],[108.31332895,-7.2580897],[108.31331457,-7.25810186],[108.31320521,-7.25819439],[108.31312669,-7.25827054],[108.31312431,-7.2583562],[108.31311004,-7.25838237],[108.31301486,-7.2585061],[108.31292206,-7.25863935],[108.31277929,-7.25865363],[108.31269601,-7.25866553],[108.31263414,-7.25866315],[108.31254848,-7.25884161],[108.31250089,-7.25895582],[108.31234861,-7.2588535],[108.3123153,-7.25890585],[108.31230578,-7.25894154],[108.31231054,-7.25899151],[108.31233433,-7.25906052],[108.31236288,-7.2591319],[108.31237954,-7.25920328],[108.31239858,-7.25926277],[108.31242475,-7.25930798],[108.31246044,-7.25934605],[108.31252231,-7.25942695],[108.31257466,-7.25948644],[108.31257228,-7.25950786],[108.31256038,-7.25954831],[108.31251755,-7.25961731],[108.31257942,-7.25979577],[108.31260321,-7.25985764],[108.3126508,-7.2599314],[108.31279595,-7.25993854],[108.31294109,-7.25994092],[108.31307672,-7.25993616],[108.31309576,-7.26000754],[108.31310815,-7.26007156],[108.31311004,-7.26008131],[108.31312669,-7.26017172],[108.31315049,-7.26023835],[108.31315065,-7.26023917],[108.31315612,-7.26026651],[108.31316476,-7.26030973],[108.31316476,-7.26040253],[108.31315762,-7.26057385],[108.31315287,-7.26072376],[108.31314335,-7.26094267],[108.31314097,-7.2610093],[108.31311717,-7.26105926],[108.31303151,-7.26122345],[108.31296727,-7.26135432],[108.31290064,-7.26145425],[108.31310365,-7.26160257],[108.31306,-7.26166808],[108.3129214,-7.26187607],[108.3126625,-7.26220532],[108.31256276,-7.26230848],[108.31254134,-7.26232514],[108.31251993,-7.26233228],[108.31248662,-7.26233703],[108.31241334,-7.26246644],[108.31237478,-7.26253453],[108.31226057,-7.2627463],[108.31216777,-7.26291048],[108.31216301,-7.26298187],[108.3121465,-7.26304719],[108.31218895,-7.26317113],[108.31224367,-7.26333769],[108.31228888,-7.26345905],[108.31232484,-7.26354609],[108.31233409,-7.2635685],[108.31236741,-7.26365654],[108.3123912,-7.2637303],[108.31241975,-7.26381596],[108.31246258,-7.26394921],[108.31250066,-7.26405391],[108.31254587,-7.26419906],[108.31258394,-7.26438799],[108.31260059,-7.26449982],[108.31262915,-7.26464735],[108.31265294,-7.26479725],[108.31268149,-7.26494002],[108.31269807,-7.26506032],[108.31272282,-7.26517644],[108.31272899,-7.265207],[108.31260202,-7.26529363],[108.31252112,-7.26536026],[108.31245687,-7.26540785],[108.31238073,-7.26545544],[108.31232362,-7.26546733],[108.31225462,-7.26547923],[108.31221179,-7.26548399],[108.31214992,-7.26549351],[108.31205712,-7.26550541],[108.31200002,-7.26551016],[108.31193577,-7.26552444],[108.3118287,-7.26553634],[108.31172876,-7.26555062],[108.31164072,-7.26555775],[108.31154792,-7.26556965],[108.31144498,-7.26557651],[108.31144084,-7.26557679],[108.31132187,-7.26558869],[108.31121004,-7.26560296],[108.311122,-7.2656101],[108.31103871,-7.265622]]]}},{"type":"Feature","properties":{"Id":0.0,"Nama_RW":"RW 002","Luas":23.7154957431},"geometry":{"type":"Polygon","coordinates":[[[108.3103921,-7.25081174],[108.31040822,-7.25086815],[108.31049673,-7.25083674],[108.31057954,-7.25080105],[108.31065521,-7.25075965],[108.31068233,-7.25075965],[108.31070517,-7.25075965],[108.3107837,-7.25074965],[108.31090219,-7.25073395],[108.31096501,-7.25072538],[108.31106209,-7.25070968],[108.31119219,-7.25068957],[108.31128737,-7.25064674],[108.31131686,-7.25063254],[108.31135161,-7.25061581],[108.31153483,-7.25091086],[108.31155711,-7.25094956],[108.31158004,-7.25098938],[108.31162525,-7.25102508],[108.31168444,-7.25102508],[108.31178468,-7.25102508],[108.31184178,-7.25109646],[108.31187034,-7.25113929],[108.31190841,-7.25117022],[108.31194648,-7.25119878],[108.31199883,-7.25119402],[108.31209163,-7.25117022],[108.31220822,-7.25114405],[108.3122796,-7.25113215],[108.31237478,-7.25112026],[108.31240334,-7.25112026],[108.312489,-7.25112263],[108.31251517,-7.25111312],[108.31256514,-7.25107505],[108.31269601,-7.25099652],[108.312723,-7.25098125],[108.31282212,-7.25092514],[108.31296251,-7.25084186],[108.31312193,-7.25082996],[108.31319677,-7.25082719],[108.31331467,-7.25082282],[108.31334084,-7.25080855],[108.31344078,-7.25077761],[108.3135193,-7.2507562],[108.31361924,-7.25071813],[108.31370966,-7.25068006],[108.31376439,-7.25064912],[108.31386908,-7.25057774],[108.31396188,-7.25051825],[108.31398092,-7.25051587],[108.31402851,-7.25059915],[108.31404992,-7.25061581],[108.31408323,-7.25062295],[108.31415938,-7.25063009],[108.31427597,-7.25063722],[108.31435449,-7.25063722],[108.31430928,-7.2507443],[108.31443302,-7.25088707],[108.3143997,-7.25095131],[108.31438305,-7.25100128],[108.31433784,-7.25106553],[108.31432356,-7.25110598],[108.31431166,-7.25114643],[108.31429977,-7.25128682],[108.31429537,-7.25131542],[108.31429025,-7.25134868],[108.31432832,-7.25142483],[108.31435687,-7.25150573],[108.31437829,-7.25160567],[108.31439732,-7.25169608],[108.31445443,-7.25174129],[108.3144925,-7.25178175],[108.31448298,-7.25191262],[108.31448298,-7.25209583],[108.31447347,-7.25220767],[108.31443777,-7.25228381],[108.31440446,-7.25236709],[108.31436877,-7.25236709],[108.31432118,-7.25237423],[108.31422124,-7.25240516],[108.31415462,-7.25241944],[108.31415453,-7.25242632],[108.31415224,-7.2526098],[108.31415462,-7.2527026],[108.31414187,-7.25275127],[108.31412844,-7.25280253],[108.31409989,-7.25288819],[108.31408086,-7.25299289],[108.31406896,-7.2531309],[108.31405706,-7.25318563],[108.31393095,-7.25316421],[108.31391429,-7.25320466],[108.31388574,-7.25324273],[108.31385957,-7.25334267],[108.31383339,-7.25336647],[108.31378342,-7.25339026],[108.31376677,-7.25341168],[108.31377628,-7.25363059],[108.31377628,-7.25370435],[108.31378342,-7.2539066],[108.31380722,-7.25396609],[108.31385005,-7.25406365],[108.31390953,-7.25417786],[108.31394285,-7.25424687],[108.31398029,-7.25430771],[108.31382182,-7.25429039],[108.31365703,-7.25422008],[108.31345398,-7.25414238],[108.31321284,-7.25402858],[108.31301716,-7.25391983],[108.31276199,-7.25374858],[108.31262621,-7.25363301],[108.31252667,-7.25348833],[108.31233862,-7.25364086],[108.31207945,-7.25385109],[108.3119828,-7.25392948],[108.31196493,-7.25394398],[108.31154504,-7.25428456],[108.31147392,-7.25434225],[108.31151667,-7.25438],[108.31121667,-7.254385],[108.31111833,-7.255],[108.31103645,-7.25499198],[108.31100349,-7.25509937],[108.31089667,-7.25530833],[108.31082747,-7.25529636],[108.31060075,-7.25525715],[108.31044004,-7.25522608],[108.31038689,-7.25522576],[108.31037409,-7.25520417],[108.31037274,-7.25518982],[108.31032546,-7.25516802],[108.31025522,-7.25514322],[108.31024208,-7.255179],[108.31000509,-7.25511841],[108.31000503,-7.2551187],[108.30997843,-7.25524039],[108.30995783,-7.25536166],[108.30993595,-7.25535796],[108.3097038,-7.2553082],[108.30936262,-7.25530857],[108.3092932,-7.25530697],[108.30928487,-7.25529855],[108.30926815,-7.25529128],[108.30922029,-7.25528741],[108.30917308,-7.25528224],[108.30902409,-7.25526592],[108.30901815,-7.25525871],[108.30900379,-7.25525863],[108.30899429,-7.25524542],[108.30892605,-7.25524621],[108.30887818,-7.25524234],[108.30885069,-7.25523501],[108.30880523,-7.25522996],[108.30876455,-7.25522613],[108.30873823,-7.25522478],[108.3087131,-7.25522224],[108.3086892,-7.25521492],[108.30863778,-7.25520625],[108.30855879,-7.25520339],[108.30850136,-7.25519708],[108.30841528,-7.25517863],[108.3083088,-7.25516844],[108.30825499,-7.25515736],[108.30816327,-7.25515331],[108.30815111,-7.25515314],[108.30812334,-7.25495753],[108.30812345,-7.25495039],[108.30812516,-7.25483529],[108.30812754,-7.25475677],[108.30812901,-7.25475446],[108.30816886,-7.25469214],[108.30822189,-7.2546092],[108.30829874,-7.254489],[108.30831314,-7.25446647],[108.30840356,-7.25432608],[108.30843074,-7.25428192],[108.3084425,-7.25426281],[108.30846067,-7.25423328],[108.30848173,-7.2542038],[108.3084903,-7.2541918],[108.30852015,-7.25415],[108.30854473,-7.25412952],[108.30857726,-7.25410241],[108.30861091,-7.25407058],[108.30861175,-7.25406979],[108.3086653,-7.25401913],[108.30877714,-7.25392158],[108.30879483,-7.25390641],[108.3088271,-7.25387874],[108.30884852,-7.25383591],[108.30892466,-7.25373598],[108.30898053,-7.25365018],[108.30899129,-7.25363366],[108.30900157,-7.2536189],[108.30904602,-7.25355514],[108.30911264,-7.2534552],[108.3091864,-7.25335288],[108.30923875,-7.25327674],[108.30925065,-7.25322677],[108.30928156,-7.25313531],[108.30930776,-7.25305783],[108.30933103,-7.25297548],[108.3093362,-7.25295717],[108.30933869,-7.25294838],[108.30936248,-7.2528175],[108.30936285,-7.25281543],[108.3093839,-7.25269615],[108.30938588,-7.252682],[108.30938756,-7.25266996],[108.30940055,-7.25257718],[108.30940066,-7.25257683],[108.30941721,-7.25252245],[108.30941721,-7.25247057],[108.30941721,-7.25242251],[108.30941483,-7.25234875],[108.30942911,-7.25230592],[108.30943395,-7.25224302],[108.30943863,-7.25218219],[108.30944014,-7.25207771],[108.30944101,-7.25201801],[108.30944101,-7.25200512],[108.30944101,-7.25198447],[108.30944101,-7.25197947],[108.30944101,-7.25196897],[108.30944101,-7.25196659],[108.30944101,-7.25185858],[108.30943961,-7.25181517],[108.30943798,-7.25176484],[108.30943625,-7.25171106],[108.30943863,-7.25162302],[108.30945052,-7.25156115],[108.30945018,-7.25155268],[108.30944837,-7.25150735],[108.30944576,-7.25144218],[108.30945052,-7.25132082],[108.30945052,-7.25131979],[108.30945052,-7.25126227],[108.30945052,-7.25115188],[108.30945052,-7.25102101],[108.30945068,-7.25101872],[108.30945708,-7.25092266],[108.30945766,-7.25091394],[108.30946718,-7.2507902],[108.30947432,-7.25069741],[108.30947387,-7.25067692],[108.30947247,-7.25061231],[108.30947194,-7.25058795],[108.30946304,-7.25051853],[108.30946004,-7.25049515],[108.30944814,-7.25039521],[108.30947373,-7.25030994],[108.3094767,-7.25030004],[108.30950287,-7.25019772],[108.30952905,-7.25009302],[108.30953194,-7.25006463],[108.30953543,-7.25003034],[108.30965916,-7.2500232],[108.30969961,-7.25000179],[108.3097472,-7.24996372],[108.30976148,-7.24996848],[108.30976386,-7.25013028],[108.30982097,-7.25013742],[108.30984,-7.25015645],[108.30989711,-7.25023974],[108.30995897,-7.25033016],[108.30999943,-7.25039202],[108.31002798,-7.25042057],[108.31006196,-7.25044126],[108.31011254,-7.25047339],[108.31018026,-7.25051813],[108.31022738,-7.25056132],[108.31027091,-7.25060775],[108.31032303,-7.25066566],[108.31034989,-7.25070904],[108.31037538,-7.25075536],[108.3103921,-7.25081174]]]}}]}