{"type":"FeatureCollection","features":[{"type":"Feature","properties":{"Id":0.0},"geometry":{"type":"Polygon","coordinates":[[[108.29449537,-7.23623543],[108.2948856,-7.23570957],[108.29537101,-7.23602604],[108.29619668,-7.23631157],[108.29733407,-7.23645672],[108.29840007,-7.23619498],[108.29855711,-7.23616881],[108.29863563,-7.23616881],[108.30040357,-7.23690406],[108.30049875,-7.23693975],[108.30097464,-7.2368065],[108.30100082,-7.23678271],[108.30121021,-7.23658283],[108.30131491,-7.23640199],[108.30157427,-7.23599748],[108.30155047,-7.23595703],[108.30096988,-7.23449129],[108.30146481,-7.23370844],[108.30146243,-7.23366085],[108.30146243,-7.23353236],[108.30211202,-7.23326348],[108.30237376,-7.23303981],[108.3017908,-7.23201427],[108.30199067,-7.23218797],[108.30207395,-7.23228552],[108.30227145,-7.23242353],[108.30230952,-7.23246636],[108.30234521,-7.23252585],[108.30242373,-7.2325782],[108.3026712,-7.23270907],[108.30291866,-7.23294464],[108.30307095,-7.23309454],[108.30309236,-7.23315879],[108.30314471,-7.23325159],[108.30320658,-7.23333487],[108.30331841,-7.23341339],[108.30336838,-7.23341339],[108.30352067,-7.2334348],[108.30369912,-7.23361326],[108.3039109,-7.23378459],[108.3040846,-7.23407964],[108.30434872,-7.23456505],[108.30480795,-7.23528365],[108.30483175,-7.23532172],[108.30501735,-7.23546686],[108.3051268,-7.23552397],[108.30526957,-7.2355787],[108.30551227,-7.23562153],[108.30555511,-7.23563343],[108.3059144,-7.23584996],[108.30613093,-7.23608077],[108.30630701,-7.23621877],[108.30644502,-7.23632585],[108.306702,-7.23676605],[108.30682098,-7.23683268],[108.30699468,-7.23694927],[108.30713745,-7.237073],[108.3072588,-7.23719673],[108.30732066,-7.23730381],[108.30741346,-7.23747513],[108.30745629,-7.2375941],[108.3076062,-7.23826273],[108.30765855,-7.23841978],[108.30795598,-7.23867438],[108.30811065,-7.23881952],[108.30827245,-7.23907413],[108.30833161,-7.23915902],[108.30835401,-7.23921653],[108.30834138,-7.23932763],[108.30828052,-7.23949701],[108.30817888,-7.23968051],[108.30809798,-7.23979718],[108.30803639,-7.23988886],[108.30790759,-7.24021086],[108.3078588,-7.24036358],[108.30783895,-7.24048061],[108.30784918,-7.24057272],[108.30788222,-7.24065301],[108.30799988,-7.24079596],[108.30812254,-7.24088966],[108.3083248,-7.24100863],[108.30850326,-7.24113474],[108.30867458,-7.24129654],[108.30879117,-7.24146073],[108.30887207,-7.24168678],[108.30888397,-7.24198183],[108.30890301,-7.24210794],[108.30893632,-7.24216267],[108.30899581,-7.24221977],[108.3092861,-7.24240775],[108.30956688,-7.24253624],[108.30975723,-7.24263856],[108.30986193,-7.2427266],[108.30995711,-7.24284081],[108.30997852,-7.24289554],[108.31000946,-7.24297882],[108.31003325,-7.24309304],[108.3100618,-7.24343092],[108.31014033,-7.24387588],[108.31036399,-7.24419473],[108.31049011,-7.24432322],[108.31055197,-7.24470393],[108.31066381,-7.24483242],[108.31074637,-7.24513854],[108.3107321,-7.24531938],[108.31065358,-7.24556922],[108.31060361,-7.24572151],[108.31047512,-7.24600704],[108.31042277,-7.24608795],[108.31034663,-7.24618075],[108.31001588,-7.24652577],[108.3097351,-7.246916],[108.30968751,-7.24716346],[108.30969227,-7.24736572],[108.30968038,-7.24772977],[108.30965658,-7.24784875],[108.30963755,-7.24796058],[108.30954713,-7.24810573],[108.30950192,-7.24817949],[108.30927349,-7.24841982],[108.30908789,-7.2487696],[108.30906885,-7.24923835],[108.30913548,-7.24930022],[108.30920924,-7.2493716],[108.30929728,-7.24949533],[108.30944719,-7.24973328],[108.3094686,-7.24978087],[108.30949954,-7.24989984],[108.30953543,-7.25003034],[108.30965916,-7.2500232],[108.30969961,-7.25000179],[108.3097472,-7.24996372],[108.30976148,-7.24996848],[108.30976386,-7.25013028],[108.30982097,-7.25013742],[108.30984,-7.25015645],[108.30989711,-7.25023973],[108.30995898,-7.25033015],[108.30999943,-7.25039202],[108.31002798,-7.25042057],[108.31008271,-7.25045389],[108.31014457,-7.25049434],[108.31018026,-7.25051813],[108.31023737,-7.25057048],[108.31032303,-7.25066566],[108.31035397,-7.25071563],[108.31037538,-7.25075536],[108.31039109,-7.25080819],[108.31040822,-7.25086815],[108.31049673,-7.25083674],[108.31057954,-7.25080105],[108.31065521,-7.25075965],[108.31068233,-7.25075965],[108.31070517,-7.25075965],[108.3107837,-7.25074965],[108.31090219,-7.25073395],[108.31096501,-7.25072538],[108.31106209,-7.25070968],[108.31119219,-7.25068957],[108.31128737,-7.25064674],[108.31135161,-7.25061581],[108.31153483,-7.25091086],[108.31158004,-7.25098938],[108.31162525,-7.25102508],[108.31178468,-7.25102508],[108.31184178,-7.25109646],[108.31187034,-7.25113929],[108.31190841,-7.25117022],[108.31194648,-7.25119878],[108.31199883,-7.25119402],[108.31209163,-7.25117022],[108.31220822,-7.25114405],[108.3122796,-7.25113215],[108.31237478,-7.25112026],[108.31240334,-7.25112026],[108.312489,-7.25112263],[108.31251517,-7.25111312],[108.31256514,-7.25107504],[108.31269601,-7.25099652],[108.31282212,-7.25092514],[108.31296251,-7.25084186],[108.31312193,-7.25082996],[108.31331467,-7.25082282],[108.31334084,-7.25080855],[108.31344078,-7.25077761],[108.3135193,-7.2507562],[108.31361924,-7.25071813],[108.31370966,-7.25068006],[108.31376439,-7.25064912],[108.31386908,-7.25057774],[108.31396188,-7.25051825],[108.31398092,-7.25051587],[108.31402851,-7.25059915],[108.31404992,-7.25061581],[108.31408324,-7.25062295],[108.31415938,-7.25063009],[108.31427597,-7.25063722],[108.31435449,-7.25063722],[108.31430928,-7.2507443],[108.31443302,-7.25088707],[108.3143997,-7.25095131],[108.31438305,-7.25100128],[108.31433784,-7.25106553],[108.31432356,-7.25110598],[108.31431166,-7.25114643],[108.31429977,-7.25128682],[108.31429025,-7.25134868],[108.31432832,-7.25142483],[108.31435687,-7.25150573],[108.31437829,-7.25160566],[108.31439732,-7.25169609],[108.31445443,-7.25174129],[108.3144925,-7.25178174],[108.31448298,-7.25191262],[108.31448299,-7.25209583],[108.31447347,-7.25220767],[108.31443778,-7.25228381],[108.31440446,-7.25236709],[108.31436877,-7.25236709],[108.31432118,-7.25237423],[108.31422124,-7.25240516],[108.31415462,-7.25241944],[108.31415224,-7.2526098],[108.31415462,-7.2527026],[108.31412844,-7.25280253],[108.31409989,-7.25288819],[108.31408086,-7.25299289],[108.31406896,-7.2531309],[108.31405706,-7.25318563],[108.31393095,-7.25316421],[108.31391429,-7.25320466],[108.31388574,-7.25324273],[108.31385957,-7.25334267],[108.31383339,-7.25336647],[108.31378342,-7.25339026],[108.31376677,-7.25341168],[108.31377628,-7.25363059],[108.31377628,-7.25370435],[108.31378342,-7.2539066],[108.31380722,-7.25396609],[108.31385005,-7.25406365],[108.31390953,-7.25417786],[108.31394285,-7.25424687],[108.31398092,-7.25430873],[108.3139833,-7.25439677],[108.3139952,-7.25444198],[108.31403327,-7.25447292],[108.31411655,-7.25456809],[108.31417365,-7.25462758],[108.31421886,-7.25469658],[108.3142498,-7.25475369],[108.31427359,-7.25480366],[108.3143307,-7.25492025],[108.31430928,-7.25495833],[108.31425456,-7.25500116],[108.31419031,-7.25503923],[108.31411893,-7.25511299],[108.31408324,-7.25517962],[108.31406658,-7.25527003],[108.31406658,-7.25538425],[108.3140642,-7.25555319],[108.31407134,-7.25580065],[108.31407372,-7.25595532],[108.3140761,-7.25607191],[108.31405706,-7.25628607],[108.31404754,-7.25631938],[108.31401661,-7.25633365],[108.31398806,-7.25634793],[108.31398284,-7.25635247],[108.31396636,-7.25647896],[108.31396532,-7.25677813],[108.31384053,-7.25694517],[108.31381198,-7.25710698],[108.31379294,-7.2572093],[108.31374059,-7.25728068],[108.31357641,-7.257452],[108.31352882,-7.25750197],[108.31342888,-7.25785413],[108.31339795,-7.25802545],[108.31332895,-7.2580897],[108.31320521,-7.25819439],[108.31312669,-7.25827054],[108.31312431,-7.2583562],[108.31311004,-7.25838237],[108.31301486,-7.2585061],[108.31292206,-7.25863935],[108.31277929,-7.25865363],[108.31269601,-7.25866553],[108.31263414,-7.25866315],[108.31254848,-7.25884161],[108.31250089,-7.25895582],[108.31234861,-7.2588535],[108.3123153,-7.25890585],[108.31230578,-7.25894154],[108.31231054,-7.25899151],[108.31233433,-7.25906052],[108.31236289,-7.2591319],[108.31237954,-7.25920328],[108.31239858,-7.25926277],[108.31242475,-7.25930798],[108.31246044,-7.25934605],[108.31252231,-7.25942695],[108.31257466,-7.25948644],[108.31257228,-7.25950786],[108.31256038,-7.25954831],[108.31251755,-7.25961731],[108.31257942,-7.25979577],[108.31260321,-7.25985764],[108.3126508,-7.2599314],[108.31279595,-7.25993854],[108.31294109,-7.25994092],[108.31307672,-7.25993616],[108.31309576,-7.26000754],[108.31311004,-7.2600813],[108.31312669,-7.26017172],[108.31315049,-7.26023835],[108.31316476,-7.26030973],[108.31316476,-7.26040253],[108.31315763,-7.26057385],[108.31315287,-7.26072376],[108.31314335,-7.26094267],[108.31314097,-7.26100929],[108.31311717,-7.26105926],[108.31303151,-7.26122345],[108.31296727,-7.26135432],[108.31290064,-7.26145425],[108.31310365,-7.26160257],[108.31306,-7.26166808],[108.3129214,-7.26187606],[108.3126625,-7.26220532],[108.31256276,-7.26230848],[108.31254134,-7.26232514],[108.31251993,-7.26233228],[108.31248662,-7.26233703],[108.31237478,-7.26253453],[108.31226057,-7.2627463],[108.31216777,-7.26291048],[108.31216301,-7.26298187],[108.3121465,-7.26304719],[108.31218895,-7.26317113],[108.31224367,-7.26333769],[108.31228888,-7.26345905],[108.31233409,-7.2635685],[108.31236741,-7.26365654],[108.3123912,-7.2637303],[108.31241975,-7.26381597],[108.31246258,-7.26394921],[108.31250066,-7.26405391],[108.31254587,-7.26419906],[108.31258394,-7.26438799],[108.31260059,-7.26449982],[108.31262915,-7.26464735],[108.31265294,-7.26479725],[108.31268149,-7.26494002],[108.31269807,-7.26506032],[108.31272282,-7.26517644],[108.31272899,-7.265207],[108.31260202,-7.26529363],[108.31252112,-7.26536026],[108.31245687,-7.26540785],[108.31238073,-7.26545544],[108.31232362,-7.26546733],[108.31225462,-7.26547923],[108.31221179,-7.26548399],[108.31214992,-7.26549351],[108.31205712,-7.26550541],[108.31200002,-7.26551016],[108.31193577,-7.26552444],[108.3118287,-7.26553634],[108.31172876,-7.26555062],[108.31164072,-7.26555775],[108.31154792,-7.26556965],[108.31144084,-7.26557679],[108.31132187,-7.26558869],[108.31121004,-7.26560296],[108.311122,-7.2656101],[108.31103871,-7.265622],[108.3110292,-7.26560296],[108.31102097,-7.26555714],[108.31101383,-7.26548813],[108.31102335,-7.26540723],[108.31103762,-7.26533109],[108.31104,-7.26524781],[108.31100431,-7.26516691],[108.31096148,-7.26509552],[108.31092579,-7.26496227],[108.31088058,-7.26481475],[108.31086154,-7.26472909],[108.31084489,-7.26461725],[108.31084727,-7.26450542],[108.31086154,-7.2642984],[108.31085441,-7.26403428],[108.31083061,-7.26396766],[108.31075685,-7.26385345],[108.31067357,-7.26372495],[108.3106117,-7.2636274],[108.31058553,-7.26360598],[108.31052128,-7.26356315],[108.31048321,-7.26353936],[108.31044276,-7.26351556],[108.31044038,-7.26337755],[108.31041183,-7.26333472],[108.31028096,-7.26315388],[108.31026668,-7.26310867],[108.31025478,-7.26302539],[108.31004301,-7.26279458],[108.30985979,-7.26258281],[108.30984789,-7.26255426],[108.30988121,-7.26220924],[108.30984314,-7.26203792],[108.30979793,-7.26180235],[108.3097432,-7.26153823],[108.30968371,-7.26130028],[108.30967419,-7.26126697],[108.30961324,-7.26117417],[108.30960688,-7.26103642],[108.30960062,-7.26088002],[108.3095414,-7.26069319],[108.30945304,-7.26057504],[108.30934413,-7.26052849],[108.30926529,-7.26050077],[108.30916475,-7.2604973],[108.30906981,-7.26050554],[108.30898891,-7.26043892],[108.30894132,-7.26039609],[108.30887945,-7.26035088],[108.30872003,-7.26025808],[108.30864151,-7.26020573],[108.30861057,-7.26018432],[108.30854633,-7.26006772],[108.30845829,-7.25989164],[108.3084107,-7.25971556],[108.30829887,-7.25943003],[108.30822034,-7.25922539],[108.30791839,-7.25925053],[108.3077542,-7.25925529],[108.30767568,-7.25925053],[108.30758764,-7.25920056],[108.30752101,-7.25914821],[108.30736397,-7.25915773],[108.30719741,-7.25915773],[108.30705464,-7.25903876],[108.30684287,-7.25905065],[108.30668107,-7.25895072],[108.30653354,-7.25905541],[108.30649547,-7.25906255],[108.30630273,-7.25897927],[108.30616948,-7.25889361],[108.30586253,-7.25887695],[108.30577211,-7.25884602],[108.30526767,-7.25860332],[108.30522722,-7.25854145],[108.30518676,-7.25842486],[108.30515821,-7.25834633],[108.30457524,-7.25809649],[108.30428971,-7.25826543],[108.30427543,-7.25829399],[108.30428971,-7.2583154],[108.30430398,-7.25834633],[108.30430874,-7.25839392],[108.30429447,-7.25844151],[108.30417311,-7.25852241],[108.30414456,-7.25851765],[108.3041398,-7.25854383],[108.30415408,-7.25857238],[108.30414694,-7.25860094],[108.3040589,-7.2586628],[108.30404224,-7.25862949],[108.30399703,-7.25842961],[108.30396372,-7.25840582],[108.30386854,-7.25837727],[108.30373053,-7.25838203],[108.3033403,-7.25819881],[108.30333316,-7.25816549],[108.30333316,-7.25808459],[108.30342834,-7.25792755],[108.30345928,-7.25778002],[108.30344976,-7.25774671],[108.30338789,-7.25765629],[108.30329271,-7.25751352],[108.30318564,-7.25740407],[108.30317374,-7.25730413],[108.30315946,-7.25723275],[108.30306904,-7.25703287],[108.30293341,-7.25681634],[108.30278827,-7.25666643],[108.30293103,-7.25653794],[108.30269785,-7.25645228],[108.30266929,-7.256369],[108.30263598,-7.25630951],[108.30250511,-7.25620482],[108.30260505,-7.25599781],[108.30244087,-7.25579793],[108.30245276,-7.25542674],[108.30260029,-7.25529586],[108.30252891,-7.25505078],[108.30248608,-7.25497464],[108.30237186,-7.25491991],[108.30137011,-7.25491991],[108.30087756,-7.25511265],[108.29984012,-7.25502699],[108.2996569,-7.25505078],[108.29960693,-7.25504602],[108.29957124,-7.25501985],[108.29923573,-7.25473431],[108.29884312,-7.25381584],[108.29866704,-7.2532995],[108.29846717,-7.25347082],[108.29858138,-7.25292116],[108.29861945,-7.25286881],[108.29897637,-7.25261897],[108.29968545,-7.25206456],[108.300178,-7.2517814],[108.300247,-7.25156249],[108.29982108,-7.25075347],[108.29964262,-7.25057739],[108.29939753,-7.25031089],[108.29929522,-7.24994922],[108.29891926,-7.24955661],[108.29881933,-7.24919255],[108.29878839,-7.2489665],[108.29879315,-7.24872855],[108.29881695,-7.24857865],[108.29882884,-7.24855723],[108.29936422,-7.24821697],[108.29929284,-7.24732467],[108.29924525,-7.24711766],[108.29916911,-7.24648472],[108.29917625,-7.24563525],[108.29924763,-7.24527596],[108.29924287,-7.24520933],[108.29918814,-7.24497138],[108.29914293,-7.24398629],[108.29918576,-7.24345091],[108.2990211,-7.24225071],[108.29901635,-7.24217457],[108.29908059,-7.24062078],[108.29854283,-7.23978321],[108.29791466,-7.2389266],[108.29780996,-7.23876718],[108.29775761,-7.23861965],[108.29753156,-7.23828653],[108.29746494,-7.2382318],[108.29677489,-7.23807],[108.29616813,-7.2375941],[108.29449537,-7.23623543]]]}}]}