{"type":"FeatureCollection","features":[{"type":"Feature","properties":{"Id":0.0,"Nama_RT":"RT 006","Luas":15.6483683002},"geometry":{"type":"Polygon","coordinates":[[[108.31398029,-7.25430771],[108.31382182,-7.25429039],[108.31365703,-7.25422008],[108.31345398,-7.25414238],[108.31321284,-7.25402858],[108.31301716,-7.25391983],[108.31276199,-7.25374858],[108.31262621,-7.25363301],[108.31252667,-7.25348833],[108.31231333,-7.25256833],[108.31205738,-7.25212371],[108.31185348,-7.25250688],[108.31182304,-7.25256554],[108.31169715,-7.25280812],[108.31160007,-7.25294518],[108.31153797,-7.25301656],[108.31149228,-7.2530651],[108.31141447,-7.25313649],[108.31135023,-7.25318717],[108.31131454,-7.25321215],[108.31127028,-7.25323143],[108.31122245,-7.25324856],[108.31115178,-7.25326712],[108.3109155,-7.25330638],[108.31078223,-7.25332785],[108.31059642,-7.25335778],[108.31046721,-7.25338847],[108.31038012,-7.25342059],[108.31024663,-7.25348841],[108.310121,-7.25355337],[108.31007733,-7.25357288],[108.31005838,-7.2534617],[108.30989458,-7.2534579],[108.30973698,-7.25344812],[108.30944533,-7.25337288],[108.30923875,-7.25327674],[108.30925065,-7.25322677],[108.30928156,-7.25313531],[108.30930776,-7.25305783],[108.3093362,-7.25295717],[108.30933869,-7.25294838],[108.30936248,-7.2528175],[108.30936285,-7.25281543],[108.3093839,-7.25269615],[108.30938588,-7.252682],[108.30940055,-7.25257718],[108.30941721,-7.25252245],[108.30941721,-7.25242251],[108.30941483,-7.25234875],[108.30942911,-7.25230592],[108.30943395,-7.25224302],[108.30943863,-7.25218219],[108.30944101,-7.25201801],[108.30944101,-7.25200512],[108.30944101,-7.25185858],[108.30943798,-7.25176484],[108.30943625,-7.25171106],[108.30943863,-7.25162302],[108.30945052,-7.25156115],[108.30944576,-7.25144218],[108.30945052,-7.25132082],[108.30945052,-7.25131979],[108.30945052,-7.25115188],[108.30945052,-7.25102101],[108.30945708,-7.25092266],[108.30945766,-7.25091394],[108.30946718,-7.2507902],[108.30947432,-7.25069741],[108.30947194,-7.25058795],[108.30946004,-7.25049515],[108.30944814,-7.25039521],[108.30947373,-7.25030994],[108.3094767,-7.25030004],[108.30950287,-7.25019772],[108.30952905,-7.25009302],[108.30953543,-7.25003034],[108.30965916,-7.2500232],[108.30969961,-7.25000179],[108.3097472,-7.24996372],[108.30976148,-7.24996848],[108.30976386,-7.25013028],[108.30982097,-7.25013742],[108.30984,-7.25015645],[108.30989711,-7.25023974],[108.30995897,-7.25033016],[108.30999943,-7.25039202],[108.31002798,-7.25042057],[108.31006196,-7.25044126],[108.31008271,-7.25045389],[108.31011254,-7.25047339],[108.31018026,-7.25051813],[108.31022738,-7.25056132],[108.31027091,-7.25060775],[108.31032303,-7.25066566],[108.31034989,-7.25070904],[108.31037538,-7.25075536],[108.3103921,-7.25081174],[108.31040822,-7.25086815],[108.31049673,-7.25083674],[108.31057954,-7.25080105],[108.31065521,-7.25075965],[108.31068233,-7.25075965],[108.31070517,-7.25075965],[108.3107837,-7.25074965],[108.31090219,-7.25073395],[108.31096501,-7.25072538],[108.31106209,-7.25070968],[108.31119219,-7.25068957],[108.31128737,-7.25064674],[108.31131686,-7.25063254],[108.31135161,-7.25061581],[108.31153483,-7.25091086],[108.31155711,-7.25094956],[108.31158004,-7.25098938],[108.31162525,-7.25102508],[108.31168444,-7.25102508],[108.31178468,-7.25102508],[108.31184178,-7.25109646],[108.31187034,-7.25113929],[108.31190841,-7.25117022],[108.31194648,-7.25119878],[108.31199883,-7.25119402],[108.31209163,-7.25117022],[108.31220822,-7.25114405],[108.3122796,-7.25113215],[108.31237478,-7.25112026],[108.31240334,-7.25112026],[108.312489,-7.25112264],[108.31251517,-7.25111312],[108.31256514,-7.25107505],[108.31269601,-7.25099652],[108.312723,-7.25098125],[108.31282212,-7.25092514],[108.31296251,-7.25084186],[108.31312193,-7.25082996],[108.31319677,-7.25082719],[108.31331467,-7.25082282],[108.31334084,-7.25080855],[108.31344078,-7.25077761],[108.3135193,-7.2507562],[108.31361924,-7.25071813],[108.31370966,-7.25068006],[108.31376439,-7.25064912],[108.31386908,-7.25057774],[108.31396188,-7.25051825],[108.31398092,-7.25051587],[108.31402851,-7.25059915],[108.31404992,-7.25061581],[108.31408323,-7.25062295],[108.31415938,-7.25063009],[108.31427597,-7.25063723],[108.31435449,-7.25063722],[108.31430928,-7.2507443],[108.31443302,-7.25088707],[108.3143997,-7.25095131],[108.31438305,-7.25100128],[108.31433784,-7.25106553],[108.31432356,-7.25110598],[108.31431166,-7.25114643],[108.31429977,-7.25128682],[108.31429537,-7.25131542],[108.31429025,-7.25134868],[108.31432832,-7.25142483],[108.31435687,-7.25150573],[108.31437829,-7.25160567],[108.31439732,-7.25169609],[108.31445443,-7.25174129],[108.3144925,-7.25178175],[108.31448298,-7.25191262],[108.31448298,-7.25209583],[108.31447347,-7.25220767],[108.31443777,-7.25228381],[108.31440446,-7.25236709],[108.31436877,-7.25236709],[108.31432118,-7.25237423],[108.31422124,-7.25240516],[108.31415462,-7.25241944],[108.31415453,-7.25242632],[108.31415224,-7.2526098],[108.31415462,-7.2527026],[108.31414187,-7.25275127],[108.31412844,-7.25280253],[108.31409989,-7.25288819],[108.31408086,-7.25299289],[108.31406896,-7.2531309],[108.31405706,-7.25318563],[108.31393095,-7.25316421],[108.31391429,-7.25320466],[108.31388574,-7.25324273],[108.31385957,-7.25334267],[108.31383339,-7.25336647],[108.31378342,-7.25339026],[108.31376677,-7.25341168],[108.31377628,-7.25363059],[108.31377628,-7.25370435],[108.31378342,-7.2539066],[108.31380722,-7.25396609],[108.31385005,-7.25406365],[108.31390953,-7.25417786],[108.31394285,-7.25424687],[108.31398029,-7.25430771]]]}},{"type":"Feature","properties":{"Id":0.0,"Nama_RT":"RT 017","Luas":11.3119723053},"geometry":{"type":"Polygon","coordinates":[[[108.31007216,-7.24348959],[108.31009717,-7.24363134],[108.31014033,-7.24387588],[108.3102492,-7.24403109],[108.31036399,-7.24419473],[108.31045929,-7.24429182],[108.31049011,-7.24432322],[108.31054162,-7.24464023],[108.31055197,-7.24470393],[108.31066381,-7.24483242],[108.31072129,-7.24504554],[108.31072249,-7.24504998],[108.31074637,-7.24513854],[108.31069764,-7.24522696],[108.31063354,-7.24523674],[108.31056702,-7.24525009],[108.31051673,-7.24525218],[108.31047909,-7.24524061],[108.31044537,-7.24520933],[108.31041657,-7.24518465],[108.31040468,-7.24517083],[108.31038616,-7.24516594],[108.31036827,-7.24516631],[108.3103532,-7.24517292],[108.31034665,-7.2451669],[108.31033831,-7.24516028],[108.31032756,-7.24515663],[108.31031737,-7.24515896],[108.31030603,-7.24515232],[108.31029651,-7.2451433],[108.31028997,-7.24513608],[108.31028103,-7.24512946],[108.31027207,-7.24512642],[108.31026191,-7.24512456],[108.31024873,-7.24512687],[108.31023626,-7.24510887],[108.31023661,-7.24509287],[108.31021932,-7.24508322],[108.31019553,-7.2450856],[108.3101753,-7.24529583],[108.31017626,-7.24533588],[108.31016892,-7.24536154],[108.31014824,-7.2453766],[108.31013878,-7.24539806],[108.31013001,-7.24542383],[108.31011264,-7.24544596],[108.31006217,-7.24547866],[108.31004194,-7.24549718],[108.31003671,-7.24553158],[108.30998248,-7.24559294],[108.30996344,-7.24564677],[108.30993943,-7.24571466],[108.30989822,-7.24583118],[108.30986181,-7.24593411],[108.30983809,-7.24607982],[108.3098393,-7.24611927],[108.30983056,-7.2461393],[108.30981398,-7.24614853],[108.30979422,-7.24621081],[108.30977143,-7.2462989],[108.30965132,-7.24644666],[108.30961031,-7.24658054],[108.30961944,-7.2467241],[108.30958447,-7.2467364],[108.30957177,-7.24675785],[108.30956627,-7.24677694],[108.30957391,-7.24680089],[108.3095684,-7.24682178],[108.3095263,-7.2468562],[108.30943079,-7.24704099],[108.30938822,-7.24712674],[108.30932435,-7.24719808],[108.30929492,-7.24721644],[108.30927032,-7.24722586],[108.30924811,-7.24723589],[108.30922674,-7.24724712],[108.30920935,-7.24725299],[108.30919675,-7.2472577],[108.30918233,-7.24726598],[108.30916911,-7.24727547],[108.30916695,-7.24727826],[108.30915765,-7.24729034],[108.3091522,-7.24730047],[108.30913701,-7.24733923],[108.30913484,-7.24735122],[108.30912966,-7.24736788],[108.3091265,-7.24739595],[108.30913221,-7.24744201],[108.30914864,-7.24749769],[108.30909803,-7.24759233],[108.30907197,-7.24764165],[108.30906386,-7.24765797],[108.30903414,-7.24772832],[108.30899406,-7.24785164],[108.3089619,-7.24795054],[108.30893962,-7.24801901],[108.30893358,-7.24803181],[108.30890819,-7.2480735],[108.30886125,-7.24811626],[108.30881437,-7.24814945],[108.30876643,-7.24815753],[108.30873265,-7.24820156],[108.30871933,-7.24822778],[108.30869882,-7.24825396],[108.30868569,-7.2482491],[108.30867724,-7.24826101],[108.30868076,-7.24827298],[108.30866527,-7.24825974],[108.30865798,-7.24827882],[108.308641,-7.24831578],[108.30863367,-7.24834084],[108.30857264,-7.24845602],[108.30856593,-7.24847032],[108.30854645,-7.24851181],[108.30856536,-7.24855363],[108.30854902,-7.24856347],[108.30834784,-7.24858097],[108.30835088,-7.24859931],[108.30834953,-7.24865453],[108.3083487,-7.24868852],[108.30827385,-7.24871076],[108.30823186,-7.2486957],[108.30821549,-7.24868983],[108.30820062,-7.2486845],[108.30813439,-7.24866074],[108.30813221,-7.24865996],[108.3081305,-7.24865935],[108.30811995,-7.24865584],[108.30806827,-7.24863865],[108.30781207,-7.24855344],[108.30772789,-7.24852545],[108.30772694,-7.24852211],[108.30788031,-7.24828359],[108.30780917,-7.24816976],[108.30749157,-7.2476616],[108.30736873,-7.24746506],[108.30716967,-7.24760196],[108.30708293,-7.2476616],[108.3067377,-7.24789903],[108.30665251,-7.24795761],[108.30647109,-7.24778075],[108.30627418,-7.24758879],[108.30572452,-7.24781722],[108.30566776,-7.24760518],[108.3055729,-7.2472508],[108.3055319,-7.24709761],[108.3060038,-7.2468707],[108.30703153,-7.24666461],[108.30759993,-7.24670085],[108.30851763,-7.24557184],[108.30873237,-7.24525117],[108.30881683,-7.24494852],[108.30878257,-7.24490997],[108.3087326,-7.24486],[108.30869334,-7.2448286],[108.30865789,-7.24479766],[108.3086141,-7.24476911],[108.30857413,-7.24474817],[108.30855899,-7.24474373],[108.30857347,-7.24471158],[108.3085956,-7.24469354],[108.30863103,-7.24469375],[108.30865497,-7.2446939],[108.30867987,-7.24469404],[108.30869331,-7.24468934],[108.30869154,-7.24466351],[108.30869164,-7.24464725],[108.30867179,-7.2446041],[108.30903311,-7.24439489],[108.30905148,-7.24436631],[108.30904302,-7.24433853],[108.30903261,-7.24431743],[108.30901933,-7.24429631],[108.3090053,-7.24428021],[108.30898959,-7.24426577],[108.30897386,-7.24425348],[108.30896101,-7.24423906],[108.30894313,-7.24422748],[108.30893025,-7.24421951],[108.30891958,-7.24420152],[108.30891536,-7.24418572],[108.3089119,-7.24416418],[108.30893565,-7.24415643],[108.30896155,-7.24414869],[108.30900756,-7.24414179],[108.30903993,-7.24413409],[108.30906509,-7.24413066],[108.30910247,-7.24412442],[108.30911468,-7.24412521],[108.30912327,-7.24413028],[108.3091441,-7.24412969],[108.309175,-7.244127],[108.30919872,-7.24412427],[108.30920661,-7.24412647],[108.30921088,-7.24413224],[108.30922671,-7.24412731],[108.30927413,-7.24412472],[108.30936537,-7.24412167],[108.30936761,-7.24410806],[108.30936483,-7.24409226],[108.30936205,-7.24407647],[108.30936147,-7.2440528],[108.30935617,-7.2440181],[108.30934858,-7.24400658],[108.30939182,-7.24398063],[108.30940485,-7.24396493],[108.30944232,-7.24394363],[108.30953416,-7.24392725],[108.30952323,-7.24383346],[108.30952817,-7.24380767],[108.30953495,-7.24379432],[108.30955902,-7.24377247],[108.30959558,-7.24374495],[108.30962437,-7.2437346],[108.30965981,-7.24373386],[108.30970864,-7.24373606],[108.30973543,-7.24373909],[108.30978139,-7.24374127],[108.30980446,-7.24372706],[108.30981418,-7.24370225],[108.30982867,-7.2436813],[108.30984596,-7.24367184],[108.3098766,-7.24367298],[108.30991298,-7.24367511],[108.30994554,-7.24367625],[108.30994661,-7.24365713],[108.30992582,-7.24361015],[108.30993081,-7.24357575],[108.30994639,-7.24353281],[108.30997038,-7.24352339],[108.30999432,-7.24352449],[108.31002398,-7.24352944],[108.31007216,-7.24348959]]]}},{"type":"Feature","properties":{"Id":0.0,"Nama_RT":"RT 018","Luas":5.14414639155},"geometry":{"type":"Polygon","coordinates":[[[108.30779157,-7.24468334],[108.30782412,-7.24468535],[108.30790883,-7.24468821],[108.30841233,-7.24471866],[108.30847324,-7.24472437],[108.30851893,-7.24473199],[108.30855899,-7.24474373],[108.30857413,-7.24474817],[108.3086141,-7.24476911],[108.30865789,-7.24479766],[108.30869334,-7.2448286],[108.3087326,-7.24486],[108.30878257,-7.24490997],[108.30881683,-7.24494852],[108.30873237,-7.24525117],[108.30856206,-7.24550549],[108.30851763,-7.24557184],[108.30836601,-7.24575838],[108.30784113,-7.24640411],[108.30759993,-7.24670085],[108.30703153,-7.24666461],[108.30634497,-7.24680229],[108.3060038,-7.2468707],[108.30571398,-7.24701006],[108.3055319,-7.24709761],[108.30551663,-7.24704056],[108.3054723,-7.24687495],[108.30546754,-7.24684878],[108.30537021,-7.24684321],[108.30486757,-7.24681445],[108.30481734,-7.24681157],[108.30481552,-7.24681147],[108.3052843,-7.24623081],[108.30758404,-7.24510099],[108.30760788,-7.24491751],[108.30767825,-7.24492008],[108.30766111,-7.24502398],[108.30773004,-7.24502917],[108.30775559,-7.24491839],[108.30779157,-7.24468334]]]}},{"type":"Feature","properties":{"Id":0.0,"Nama_RT":"RT 019","Luas":3.21631148845},"geometry":{"type":"Polygon","coordinates":[[[108.30762171,-7.24467329],[108.3076291,-7.24452746],[108.30765901,-7.24453003],[108.30766582,-7.24443176],[108.30765725,-7.2443026],[108.3075998,-7.24430154],[108.30759505,-7.24425454],[108.30758391,-7.24419494],[108.30757617,-7.24416764],[108.3075634,-7.24414031],[108.30829103,-7.2438515],[108.30846684,-7.24375834],[108.308539,-7.24370259],[108.30858848,-7.24363474],[108.3086067,-7.24359062],[108.3086107,-7.24352131],[108.30861326,-7.24349383],[108.30863249,-7.24348079],[108.30866724,-7.24347502],[108.30868234,-7.24347117],[108.30869823,-7.24345692],[108.30871019,-7.24344797],[108.30871566,-7.24343366],[108.30872831,-7.24342118],[108.30875052,-7.24340996],[108.30876434,-7.24339988],[108.30877467,-7.24337424],[108.30878736,-7.2433534],[108.30880067,-7.24332957],[108.308804,-7.24331369],[108.30879693,-7.24329452],[108.30878752,-7.24326697],[108.30878049,-7.24324063],[108.30877466,-7.24321549],[108.30876647,-7.24318316],[108.30876424,-7.24315566],[108.30878158,-7.24313878],[108.30879595,-7.24313791],[108.30880935,-7.24313799],[108.30881943,-7.24313375],[108.30882668,-7.24312375],[108.30883435,-7.24312141],[108.30884823,-7.24312197],[108.30885162,-7.24311673],[108.30885166,-7.24311003],[108.30885028,-7.2430995],[108.3088441,-7.24309182],[108.30883744,-7.24308508],[108.30883367,-7.24307502],[108.30883277,-7.24306545],[108.30883571,-7.24305447],[108.30884483,-7.24304926],[108.30885587,-7.2430455],[108.30886596,-7.24303935],[108.30887177,-7.24302934],[108.30887182,-7.24301978],[108.3088719,-7.24300687],[108.30887438,-7.24299206],[108.30887637,-7.2429806],[108.30888076,-7.2429658],[108.30889296,-7.24292714],[108.30889886,-7.24290231],[108.30892106,-7.24287184],[108.30896165,-7.24282224],[108.30899735,-7.24276614],[108.30900901,-7.24273752],[108.30901584,-7.24271652],[108.30901878,-7.2427041],[108.30902042,-7.24269625],[108.3090352,-7.24267751],[108.30903731,-7.24267483],[108.30904091,-7.24267276],[108.30904599,-7.24267428],[108.30904927,-7.24267669],[108.30905348,-7.24267313],[108.3090571,-7.24266777],[108.30906072,-7.24266361],[108.30906675,-7.24265618],[108.30907068,-7.24264933],[108.30907519,-7.24264517],[108.30908876,-7.24262893],[108.30909742,-7.24262181],[108.30910965,-7.2426183],[108.30912119,-7.24260976],[108.30912699,-7.24260047],[108.30913565,-7.24259478],[108.30916148,-7.2425978],[108.30930625,-7.24241697],[108.30956688,-7.24253624],[108.30975723,-7.24263856],[108.30986193,-7.2427266],[108.3099356,-7.24281501],[108.30995711,-7.24284081],[108.30997852,-7.24289554],[108.31000946,-7.24297882],[108.31001413,-7.24300124],[108.31003325,-7.24309304],[108.3100618,-7.24343092],[108.31007216,-7.24348959],[108.31002398,-7.24352944],[108.30999432,-7.24352449],[108.30997038,-7.24352339],[108.30994639,-7.24353281],[108.3099438,-7.24353995],[108.30993081,-7.24357575],[108.30992582,-7.24361015],[108.30994661,-7.24365713],[108.30994554,-7.24367625],[108.30991298,-7.24367511],[108.3098766,-7.24367298],[108.30984596,-7.24367184],[108.30982867,-7.2436813],[108.30981418,-7.24370225],[108.30980446,-7.24372706],[108.30978139,-7.24374127],[108.30973543,-7.24373909],[108.30970864,-7.24373606],[108.30965981,-7.24373386],[108.30962437,-7.2437346],[108.30959558,-7.24374495],[108.30955902,-7.24377247],[108.30953495,-7.24379432],[108.30952817,-7.24380767],[108.30952323,-7.24383346],[108.30953333,-7.24392005],[108.30953416,-7.24392725],[108.30944232,-7.24394363],[108.30940485,-7.24396493],[108.30939182,-7.24398063],[108.30934858,-7.24400658],[108.30935617,-7.2440181],[108.30936147,-7.2440528],[108.30936205,-7.24407647],[108.30936483,-7.24409226],[108.30936761,-7.24410806],[108.30936537,-7.24412167],[108.30927413,-7.24412472],[108.30922671,-7.24412731],[108.30921088,-7.24413224],[108.30920661,-7.24412647],[108.30919872,-7.24412427],[108.309175,-7.244127],[108.3091441,-7.24412969],[108.30912327,-7.24413028],[108.30911468,-7.24412521],[108.30910247,-7.24412442],[108.30906509,-7.24413066],[108.30903993,-7.24413409],[108.30900756,-7.24414179],[108.30896155,-7.24414869],[108.30893565,-7.24415643],[108.3089119,-7.24416418],[108.30891536,-7.24418572],[108.30891958,-7.24420152],[108.30893025,-7.24421951],[108.30894313,-7.24422748],[108.30896101,-7.24423906],[108.30897386,-7.24425348],[108.30898959,-7.24426577],[108.3090053,-7.24428021],[108.30901933,-7.24429631],[108.30903261,-7.24431743],[108.30904302,-7.24433853],[108.30905148,-7.24436631],[108.30903311,-7.24439489],[108.30867179,-7.2446041],[108.30869164,-7.24464725],[108.30869154,-7.24466351],[108.30869331,-7.24468934],[108.30867987,-7.24469404],[108.30865497,-7.2446939],[108.30863103,-7.24469375],[108.3085956,-7.24469354],[108.30857347,-7.24471158],[108.30855899,-7.24474373],[108.30851893,-7.24473199],[108.30847324,-7.24472437],[108.30841233,-7.24471866],[108.30827352,-7.24471027],[108.30790883,-7.24468821],[108.30782412,-7.24468535],[108.30779157,-7.24468334],[108.30763948,-7.24467393],[108.30762195,-7.2446733],[108.30762171,-7.24467329]]]}},{"type":"Feature","properties":{"Id":0.0,"Nama_RT":"RT 020","Luas":7.70919733775},"geometry":{"type":"Polygon","coordinates":[[[108.30709685,-7.24347815],[108.30714884,-7.24343256],[108.30720852,-7.24338127],[108.30735678,-7.24325017],[108.30739302,-7.24327525],[108.30742939,-7.24327929],[108.30745624,-7.24327371],[108.30749459,-7.24326629],[108.30752336,-7.24325881],[108.30755014,-7.24326471],[108.30757165,-7.24319024],[108.30767756,-7.24309524],[108.30769094,-7.24309914],[108.30772756,-7.2430611],[108.30775848,-7.24301538],[108.3078122,-7.2430004],[108.30779511,-7.24297543],[108.30778769,-7.24293331],[108.30777635,-7.24290838],[108.30777459,-7.24288159],[108.30777288,-7.24284716],[108.30777303,-7.24282229],[108.30777322,-7.24278978],[108.30777528,-7.24276684],[108.30777887,-7.24275113],[108.30778314,-7.24273246],[108.30779609,-7.24269345],[108.30780849,-7.2426561],[108.30781856,-7.24257392],[108.30783198,-7.24257208],[108.30785494,-7.24257604],[108.30787053,-7.24253023],[108.30785167,-7.24248039],[108.30786048,-7.24242225],[108.30786962,-7.24236191],[108.30786209,-7.24233892],[108.30784899,-7.2422872],[108.30788532,-7.24229698],[108.30792567,-7.24227618],[108.30795248,-7.24227634],[108.3080029,-7.24217144],[108.30802395,-7.24217539],[108.30804024,-7.24217368],[108.3080412,-7.24217358],[108.30806229,-7.24216988],[108.30808527,-7.24217001],[108.30810822,-7.24217589],[108.30813309,-7.24218177],[108.30812558,-7.24215495],[108.30810652,-7.24213954],[108.30808936,-7.24212605],[108.30808794,-7.24210772],[108.30808758,-7.24210308],[108.3080916,-7.2420725],[108.30806662,-7.24208575],[108.30805132,-7.24208183],[108.30801113,-7.24207585],[108.30802936,-7.24203354],[108.3080325,-7.24202625],[108.30803456,-7.2420014],[108.30803855,-7.24197465],[108.30809026,-7.24197495],[108.30810001,-7.24194632],[108.30811171,-7.24191005],[108.30811379,-7.24188328],[108.30811012,-7.24185648],[108.30809118,-7.24182003],[108.30817739,-7.24181672],[108.30830721,-7.24180453],[108.30831148,-7.24179863],[108.3083103,-7.24168936],[108.30833765,-7.24159962],[108.30846015,-7.24159305],[108.30846499,-7.24158635],[108.30846232,-7.24156976],[108.30849579,-7.24149728],[108.30852764,-7.24137553],[108.30855151,-7.24138763],[108.30867458,-7.24129654],[108.30879117,-7.24146073],[108.30887207,-7.24168678],[108.30888397,-7.24198183],[108.30889255,-7.24203865],[108.30890301,-7.24210794],[108.30893632,-7.24216267],[108.3089958,-7.24221978],[108.30919644,-7.2423497],[108.3092861,-7.24240775],[108.30930625,-7.24241697],[108.30916148,-7.2425978],[108.30913565,-7.24259478],[108.30912699,-7.24260047],[108.30912119,-7.24260976],[108.30910965,-7.2426183],[108.30909742,-7.24262181],[108.30908876,-7.24262893],[108.30907519,-7.24264517],[108.30907068,-7.24264933],[108.30906675,-7.24265618],[108.30906072,-7.24266361],[108.3090571,-7.24266777],[108.30905348,-7.24267313],[108.30904927,-7.24267669],[108.30904599,-7.24267428],[108.30904091,-7.24267276],[108.30903731,-7.24267483],[108.3090352,-7.24267751],[108.30902042,-7.24269625],[108.30901878,-7.2427041],[108.30901584,-7.24271652],[108.30900901,-7.24273752],[108.30900248,-7.24275355],[108.30899735,-7.24276614],[108.30896165,-7.24282224],[108.30892106,-7.24287184],[108.30889886,-7.24290231],[108.30889296,-7.24292714],[108.30888076,-7.2429658],[108.30887637,-7.2429806],[108.30887438,-7.24299206],[108.3088719,-7.24300687],[108.30887182,-7.24301978],[108.30887177,-7.24302934],[108.30886596,-7.24303935],[108.30885587,-7.2430455],[108.30884483,-7.24304926],[108.30883571,-7.24305447],[108.30883277,-7.24306545],[108.30883367,-7.24307502],[108.30883602,-7.24308131],[108.30883744,-7.24308508],[108.3088441,-7.24309182],[108.30885028,-7.2430995],[108.30885166,-7.24311003],[108.30885162,-7.24311673],[108.30884823,-7.24312197],[108.30883435,-7.24312141],[108.30882668,-7.24312375],[108.30881943,-7.24313375],[108.30880935,-7.24313799],[108.30879595,-7.24313791],[108.30878158,-7.24313878],[108.30876424,-7.24315566],[108.30876647,-7.24318316],[108.30877466,-7.24321549],[108.30878049,-7.24324063],[108.30878752,-7.24326697],[108.30879693,-7.24329452],[108.308804,-7.24331369],[108.30880067,-7.24332957],[108.30878736,-7.2433534],[108.30877467,-7.24337424],[108.30876434,-7.24339988],[108.30875052,-7.24340996],[108.30872831,-7.24342118],[108.30871566,-7.24343366],[108.30871019,-7.24344797],[108.30869823,-7.24345692],[108.30868234,-7.24347117],[108.30866724,-7.24347502],[108.30863249,-7.24348079],[108.30861326,-7.24349383],[108.3086107,-7.24352131],[108.3086067,-7.24359062],[108.30858848,-7.24363474],[108.308539,-7.24370259],[108.30846684,-7.24375834],[108.30829103,-7.2438515],[108.30777022,-7.24405822],[108.3075634,-7.24414031],[108.30757617,-7.24416764],[108.30758391,-7.24419494],[108.30759505,-7.24425454],[108.3075998,-7.24430154],[108.30765725,-7.2443026],[108.30766582,-7.24443176],[108.30765901,-7.24453003],[108.3076291,-7.24452746],[108.30762171,-7.24467329],[108.30762195,-7.2446733],[108.30763948,-7.24467393],[108.30779157,-7.24468334],[108.30775559,-7.24491839],[108.30773004,-7.24502917],[108.30766111,-7.24502398],[108.30767825,-7.24492008],[108.30760788,-7.24491751],[108.30758404,-7.24510099],[108.30601463,-7.24587201],[108.3052843,-7.24623081],[108.30481552,-7.24681147],[108.30459428,-7.24679881],[108.30412029,-7.24645988],[108.30380472,-7.24623423],[108.30684109,-7.2445753],[108.30686929,-7.24450279],[108.3068943,-7.24445385],[108.30690416,-7.24445667],[108.30692275,-7.24446596],[108.30693736,-7.24441803],[108.30697255,-7.24429774],[108.30697007,-7.24423031],[108.30696876,-7.24421022],[108.3069677,-7.24414709],[108.3069716,-7.24413506],[108.30694136,-7.24406603],[108.3068547,-7.24382261],[108.30699131,-7.24371822],[108.30697803,-7.24369758],[108.30694674,-7.24364432],[108.30709685,-7.24347815]]]}},{"type":"Feature","properties":{"Id":0.0,"Nama_RT":"RT 021","Luas":16.6571205868},"geometry":{"type":"Polygon","coordinates":[[[108.30622167,-7.24388],[108.306235,-7.24385833],[108.30630491,-7.24383617],[108.30634369,-7.24382387],[108.30644,-7.24379333],[108.30645167,-7.243775],[108.30646,-7.24376],[108.30646667,-7.243745],[108.30647561,-7.24373024],[108.3065,-7.24369],[108.30651,-7.24365667],[108.30665,-7.243545],[108.30655915,-7.24343408],[108.30663833,-7.24334],[108.30666203,-7.24328407],[108.30671175,-7.24322857],[108.30681628,-7.24311188],[108.30686206,-7.24296273],[108.30687736,-7.24290604],[108.30691364,-7.24284349],[108.30693183,-7.24280475],[108.30694704,-7.242763],[108.30695032,-7.24271521],[108.30693867,-7.24266134],[108.30693902,-7.24260157],[108.30696348,-7.24251505],[108.30699352,-7.24240518],[108.30701242,-7.24233603],[108.30705523,-7.24218387],[108.30706773,-7.24209429],[108.30709215,-7.24201374],[108.30713444,-7.24194825],[108.30719224,-7.2417902],[108.30717444,-7.24176319],[108.30724692,-7.24165305],[108.30727692,-7.24164127],[108.30728926,-7.24157859],[108.30729847,-7.24153979],[108.3073407,-7.24148326],[108.30736473,-7.24146846],[108.30738646,-7.24133709],[108.30734748,-7.24134882],[108.30735104,-7.2412532],[108.30736048,-7.24117556],[108.30742331,-7.24117892],[108.30742124,-7.2410235],[108.30740987,-7.24092183],[108.30752974,-7.24089564],[108.30753347,-7.24077014],[108.30756042,-7.24076731],[108.30776102,-7.24054495],[108.30784509,-7.2405359],[108.30784918,-7.24057272],[108.30788222,-7.24065301],[108.30799988,-7.24079596],[108.30803557,-7.24082322],[108.30812254,-7.24088966],[108.30814911,-7.24090528],[108.3083248,-7.24100863],[108.30850326,-7.24113474],[108.30867458,-7.24129654],[108.30865087,-7.24131409],[108.30855151,-7.24138763],[108.30852764,-7.24137553],[108.30849579,-7.24149728],[108.30846232,-7.24156976],[108.30846499,-7.24158635],[108.30846015,-7.24159305],[108.30833765,-7.24159962],[108.3083103,-7.24168936],[108.30831148,-7.24179863],[108.30830721,-7.24180453],[108.30817739,-7.24181672],[108.30809118,-7.24182003],[108.30811012,-7.24185648],[108.30811379,-7.24188328],[108.30811171,-7.24191005],[108.30810001,-7.24194632],[108.30809026,-7.24197495],[108.30803855,-7.24197465],[108.30803456,-7.2420014],[108.3080325,-7.24202625],[108.30802936,-7.24203354],[108.30801113,-7.24207585],[108.30805132,-7.24208183],[108.30806662,-7.24208575],[108.3080916,-7.2420725],[108.30808758,-7.24210308],[108.30808794,-7.24210772],[108.30808936,-7.24212605],[108.30810652,-7.24213954],[108.30812558,-7.24215495],[108.30813309,-7.24218177],[108.30810822,-7.24217589],[108.30808527,-7.24217001],[108.30806229,-7.24216988],[108.3080412,-7.24217358],[108.30804024,-7.24217368],[108.30802395,-7.24217539],[108.3080029,-7.24217144],[108.30795248,-7.24227634],[108.30792567,-7.24227618],[108.30788532,-7.24229698],[108.30784899,-7.2422872],[108.30786209,-7.24233892],[108.30786962,-7.24236191],[108.30786499,-7.24239248],[108.30786048,-7.24242225],[108.30785167,-7.24248039],[108.30787053,-7.24253023],[108.30786676,-7.24254132],[108.30785494,-7.24257604],[108.30783198,-7.24257208],[108.30781856,-7.24257392],[108.3078157,-7.24259722],[108.30780849,-7.2426561],[108.30779609,-7.24269345],[108.30778314,-7.24273246],[108.30777887,-7.24275113],[108.30777528,-7.24276684],[108.30777322,-7.24278978],[108.30777303,-7.24282229],[108.30777288,-7.24284716],[108.30777459,-7.24288159],[108.30777635,-7.24290838],[108.30778769,-7.24293331],[108.30779511,-7.24297543],[108.3078122,-7.2430004],[108.30779879,-7.24300414],[108.30775848,-7.24301538],[108.30772756,-7.2430611],[108.30769094,-7.24309914],[108.30767756,-7.24309524],[108.30757165,-7.24319024],[108.30755014,-7.24326471],[108.30752336,-7.24325881],[108.30749459,-7.24326629],[108.30745624,-7.24327371],[108.30742939,-7.24327929],[108.30739302,-7.24327525],[108.30735678,-7.24325017],[108.30720852,-7.24338127],[108.30714884,-7.24343256],[108.30709685,-7.24347815],[108.30703301,-7.24354882],[108.30694674,-7.24364432],[108.30697803,-7.24369758],[108.30699131,-7.24371822],[108.3068547,-7.24382261],[108.30694136,-7.24406603],[108.3069716,-7.24413506],[108.3069677,-7.24414709],[108.30696876,-7.24421022],[108.30697007,-7.24423031],[108.30697255,-7.24429774],[108.30693736,-7.24441803],[108.30692275,-7.24446596],[108.30690416,-7.24445667],[108.3068943,-7.24445385],[108.30686929,-7.24450279],[108.30684109,-7.2445753],[108.30505596,-7.24555061],[108.30505355,-7.24555193],[108.30445382,-7.24587959],[108.30380472,-7.24623423],[108.30354048,-7.24604527],[108.3032992,-7.24587275],[108.30276609,-7.24549154],[108.3023291,-7.24517905],[108.30198877,-7.24493569],[108.30171303,-7.24473487],[108.30157712,-7.24463588],[108.3014825,-7.24430555],[108.3014737,-7.24427482],[108.30144149,-7.24416237],[108.30142484,-7.24414095],[108.30120238,-7.24404482],[108.30098114,-7.24394922],[108.30302445,-7.24292327],[108.30347478,-7.24316261],[108.30368349,-7.24349474],[108.30467303,-7.24295096],[108.30473924,-7.24316939],[108.30521485,-7.24339025],[108.30563,-7.2438],[108.30571297,-7.24371392],[108.305715,-7.24370833],[108.30572333,-7.243695],[108.30573167,-7.243685],[108.30573667,-7.24367833],[108.30575,-7.24367167],[108.30576333,-7.24366167],[108.30583495,-7.24370993],[108.30583592,-7.24371058],[108.30586667,-7.24373],[108.30587167,-7.24372833],[108.30588167,-7.24372167],[108.30589,-7.24371833],[108.30590167,-7.24372],[108.30594306,-7.24377796],[108.30596833,-7.24381333],[108.30600333,-7.24381667],[108.30603833,-7.24386401],[108.30605627,-7.24388827],[108.30606606,-7.24390189],[108.30611791,-7.24387602],[108.30614,-7.243865],[108.30615535,-7.24386907],[108.30618284,-7.24391405],[108.30619333,-7.24391167],[108.306205,-7.24390167],[108.30621667,-7.24389],[108.30622167,-7.24388]]]}},{"type":"Feature","properties":{"Id":0.0,"Nama_RT":"RT 022","Luas":95.5505854298},"geometry":{"type":"Polygon","coordinates":[[[108.30622167,-7.24388],[108.30621667,-7.24389],[108.306205,-7.24390167],[108.30619333,-7.24391167],[108.30618284,-7.24391405],[108.30615535,-7.24386907],[108.30614,-7.243865],[108.30606606,-7.24390189],[108.30605627,-7.24388827],[108.30603833,-7.24386401],[108.30600333,-7.24381667],[108.30596833,-7.24381333],[108.30594306,-7.24377796],[108.30590167,-7.24372],[108.30589,-7.24371833],[108.30588167,-7.24372167],[108.30587167,-7.24372833],[108.30586667,-7.24373],[108.30583592,-7.24371058],[108.30583495,-7.24370993],[108.30576333,-7.24366167],[108.30575,-7.24367167],[108.30573667,-7.24367833],[108.30573167,-7.243685],[108.30572333,-7.243695],[108.305715,-7.24370833],[108.30571297,-7.24371392],[108.30563,-7.2438],[108.30521485,-7.24339025],[108.30473924,-7.24316939],[108.30467303,-7.24295096],[108.30368349,-7.24349474],[108.30347478,-7.24316261],[108.30302445,-7.24292327],[108.30098114,-7.24394922],[108.30042985,-7.24371099],[108.29932139,-7.243232],[108.29929998,-7.24322724],[108.29918576,-7.24345091],[108.2990211,-7.24225071],[108.29901635,-7.24217457],[108.29908059,-7.24062078],[108.29854283,-7.23978321],[108.29791465,-7.2389266],[108.29780996,-7.23876718],[108.29775761,-7.23861965],[108.29753156,-7.23828653],[108.29746494,-7.2382318],[108.29677489,-7.23807],[108.29616813,-7.2375941],[108.29449537,-7.23623543],[108.2948856,-7.23570957],[108.29537101,-7.23602604],[108.29619668,-7.23631157],[108.29733407,-7.23645672],[108.29840006,-7.23619498],[108.29855711,-7.23616881],[108.29863563,-7.23616881],[108.30040357,-7.23690406],[108.30049875,-7.23693975],[108.30097464,-7.2368065],[108.30100082,-7.23678271],[108.30121021,-7.23658283],[108.3013149,-7.23640199],[108.30157427,-7.23599748],[108.30155047,-7.23595703],[108.30096988,-7.23449129],[108.30146481,-7.23370844],[108.30146243,-7.23366085],[108.30146243,-7.23353236],[108.30211202,-7.23326348],[108.30237376,-7.23303981],[108.3017908,-7.23201427],[108.30199067,-7.23218797],[108.30207395,-7.23228553],[108.30227145,-7.23242353],[108.30230952,-7.23246636],[108.30234521,-7.23252585],[108.30242373,-7.2325782],[108.3026712,-7.23270907],[108.30291866,-7.23294464],[108.30307095,-7.23309454],[108.30309236,-7.23315879],[108.30314471,-7.23325159],[108.30320658,-7.23333487],[108.30331841,-7.23341339],[108.30336838,-7.23341339],[108.30352066,-7.23343481],[108.30369912,-7.23361326],[108.3039109,-7.23378459],[108.3040846,-7.23407964],[108.30434872,-7.23456505],[108.30480795,-7.23528365],[108.30483175,-7.23532172],[108.30501735,-7.23546686],[108.3051268,-7.23552397],[108.30526957,-7.2355787],[108.30551227,-7.23562153],[108.3055551,-7.23563343],[108.3059144,-7.23584996],[108.30613093,-7.23608077],[108.30630701,-7.23621877],[108.30644502,-7.23632585],[108.306702,-7.23676605],[108.30682098,-7.23683268],[108.30699468,-7.23694927],[108.30713745,-7.237073],[108.3072588,-7.23719673],[108.30732066,-7.23730381],[108.30741346,-7.23747513],[108.30745629,-7.2375941],[108.3076062,-7.23826273],[108.30765855,-7.23841978],[108.30795598,-7.23867438],[108.30811065,-7.23881953],[108.3081749,-7.23892063],[108.30827245,-7.23907413],[108.30833161,-7.23915902],[108.30835401,-7.23921653],[108.30834138,-7.23932763],[108.30828052,-7.23949701],[108.30820257,-7.23963774],[108.30817888,-7.23968051],[108.30807533,-7.2398309],[108.30803639,-7.23988886],[108.30793123,-7.24015174],[108.30790947,-7.24020615],[108.30790273,-7.24022608],[108.3078588,-7.24036358],[108.30783895,-7.24048061],[108.30784509,-7.2405359],[108.30776102,-7.24054495],[108.30756042,-7.24076731],[108.30753347,-7.24077014],[108.30752974,-7.24089564],[108.30740987,-7.24092183],[108.30742124,-7.2410235],[108.30742331,-7.24117892],[108.30736048,-7.24117556],[108.30735104,-7.2412532],[108.30735036,-7.24127167],[108.30734748,-7.24134882],[108.30738646,-7.24133709],[108.30736473,-7.24146846],[108.3073407,-7.24148326],[108.30729847,-7.24153979],[108.30728926,-7.24157859],[108.30727692,-7.24164127],[108.30724692,-7.24165305],[108.30717444,-7.24176319],[108.30719224,-7.2417902],[108.30713444,-7.24194825],[108.30709215,-7.24201374],[108.30706773,-7.24209429],[108.30705523,-7.24218387],[108.30701242,-7.24233603],[108.30699352,-7.24240518],[108.30696348,-7.24251505],[108.30693902,-7.24260157],[108.30693867,-7.24266134],[108.30695032,-7.24271521],[108.30694704,-7.242763],[108.30693183,-7.24280475],[108.30691364,-7.24284349],[108.30687736,-7.24290604],[108.30686206,-7.24296273],[108.30681628,-7.24311188],[108.30671175,-7.24322857],[108.30666203,-7.24328407],[108.30663833,-7.24334],[108.30655915,-7.24343408],[108.30665,-7.243545],[108.30651,-7.24365667],[108.3065,-7.24369],[108.30647561,-7.24373024],[108.30646667,-7.243745],[108.30646,-7.24376],[108.30645167,-7.243775],[108.30644,-7.24379333],[108.30634369,-7.24382387],[108.30630491,-7.24383617],[108.306235,-7.24385833],[108.30622167,-7.24388]]]}},{"type":"Feature","properties":{"Id":0.0,"Nama_RT":"RT 007","Luas":17.1317478599},"geometry":{"type":"Polygon","coordinates":[[[108.30819137,-7.25551384],[108.30819655,-7.2555872],[108.30819378,-7.25562969],[108.30818941,-7.25569665],[108.30818941,-7.25576328],[108.30817751,-7.25581087],[108.30817275,-7.25594888],[108.30816479,-7.25605879],[108.30816086,-7.25611306],[108.30815107,-7.25619258],[108.30814182,-7.25626772],[108.308113,-7.25634908],[108.3081018,-7.25638072],[108.30810137,-7.25638194],[108.3080514,-7.25652233],[108.30803645,-7.25656174],[108.30799905,-7.25666033],[108.30794104,-7.25681117],[108.30793957,-7.256815],[108.30793265,-7.25683244],[108.30792509,-7.25685151],[108.3078936,-7.2569309],[108.30788484,-7.25695301],[108.30782773,-7.25710529],[108.3077849,-7.25722189],[108.30775159,-7.25730993],[108.30771721,-7.2574543],[108.30769811,-7.25753453],[108.30767194,-7.25781531],[108.30767217,-7.25781799],[108.30767229,-7.25781935],[108.30767268,-7.25782374],[108.30767293,-7.25782652],[108.30767319,-7.25782956],[108.30767352,-7.25783322],[108.30767389,-7.25783743],[108.30767421,-7.25784103],[108.30767449,-7.25784421],[108.3076748,-7.25784779],[108.30767514,-7.25785162],[108.30767576,-7.25785858],[108.30767596,-7.2578609],[108.30767614,-7.25786294],[108.30767634,-7.25786522],[108.30767653,-7.25786741],[108.30767671,-7.25786944],[108.30767691,-7.25787162],[108.30767712,-7.25787408],[108.30767726,-7.25787563],[108.30767735,-7.25787662],[108.30767747,-7.25787806],[108.3076776,-7.25787946],[108.30767775,-7.25788119],[108.30767796,-7.25788354],[108.30768355,-7.25794694],[108.30770035,-7.25807958],[108.3077338,-7.25826264],[108.30794698,-7.25854551],[108.30795384,-7.25856152],[108.3079849,-7.25863274],[108.30805821,-7.25880081],[108.30814896,-7.25900886],[108.30822034,-7.25922539],[108.30791838,-7.25925053],[108.3077542,-7.25925529],[108.30767568,-7.25925053],[108.30758764,-7.25920056],[108.30752101,-7.25914821],[108.30736397,-7.25915773],[108.30719741,-7.25915773],[108.30705464,-7.25903876],[108.30684287,-7.25905065],[108.30668107,-7.25895072],[108.30653354,-7.25905541],[108.30649547,-7.25906255],[108.30641397,-7.25902734],[108.30630273,-7.25897927],[108.30616948,-7.25889361],[108.30586253,-7.25887695],[108.30577211,-7.25884602],[108.30552009,-7.25872477],[108.30551994,-7.25872469],[108.30550855,-7.25871921],[108.30526767,-7.25860332],[108.30522721,-7.25854145],[108.30518676,-7.25842486],[108.30515821,-7.25834633],[108.30469904,-7.25814955],[108.30457524,-7.25809649],[108.30428971,-7.25826543],[108.30427543,-7.25829399],[108.30428971,-7.2583154],[108.30430398,-7.25834633],[108.30430874,-7.25839392],[108.30429447,-7.25844151],[108.30417311,-7.25852241],[108.30414456,-7.25851766],[108.3041398,-7.25854383],[108.30415408,-7.25857238],[108.30414694,-7.25860094],[108.3040589,-7.2586628],[108.30404224,-7.25862949],[108.30399703,-7.25842962],[108.30396372,-7.25840582],[108.30386854,-7.25837727],[108.30373053,-7.25838203],[108.3033403,-7.25819881],[108.30333316,-7.2581655],[108.30333316,-7.25808459],[108.30342834,-7.25792755],[108.30345927,-7.25778002],[108.30344976,-7.25774671],[108.30338789,-7.25765629],[108.30329271,-7.25751352],[108.30318564,-7.25740407],[108.30317374,-7.25730413],[108.30315946,-7.25723275],[108.30306904,-7.25703287],[108.30293341,-7.25681634],[108.30278827,-7.25666643],[108.30293103,-7.25653794],[108.30269785,-7.25645228],[108.30266929,-7.256369],[108.30263598,-7.25630952],[108.30250511,-7.25620482],[108.30260505,-7.25599781],[108.30487688,-7.25623814],[108.30502165,-7.25633188],[108.30528385,-7.25636595],[108.30565139,-7.25640256],[108.30575291,-7.25640125],[108.30581428,-7.25638823],[108.30591407,-7.2563563],[108.30601975,-7.25630146],[108.30613144,-7.25620076],[108.30621643,-7.25608076],[108.30628833,-7.25600833],[108.30634189,-7.25600312],[108.30634002,-7.25597923],[108.30634359,-7.25595139],[108.30635787,-7.25592141],[108.30636147,-7.2559154],[108.30637072,-7.25589999],[108.30641712,-7.2558386],[108.30646608,-7.25578385],[108.3064835,-7.25576436],[108.30658986,-7.25564301],[108.30664126,-7.25557163],[108.30668552,-7.2554931],[108.30668731,-7.25548842],[108.30670194,-7.25545027],[108.30672906,-7.25537675],[108.30673906,-7.25533606],[108.30675119,-7.25526753],[108.30675263,-7.25525882],[108.30676475,-7.25518544],[108.30678141,-7.25510121],[108.30679807,-7.25504291],[108.30682131,-7.25497821],[108.30702691,-7.25501437],[108.30704325,-7.2550015],[108.30706247,-7.25498966],[108.3070889,-7.25497404],[108.30711918,-7.25495605],[108.30714703,-7.2549433],[108.30717795,-7.25492804],[108.30720341,-7.2549148],[108.30722695,-7.25490203],[108.30725145,-7.25488926],[108.3072793,-7.25487562],[108.3072953,-7.25486281],[108.30731834,-7.25483371],[108.30733763,-7.25481135],[108.30737513,-7.25478576],[108.30744103,-7.25477581],[108.30751003,-7.25476761],[108.30758189,-7.2547623],[108.30764077,-7.25476552],[108.30770724,-7.25478103],[108.3077503,-7.25478702],[108.30776738,-7.25481295],[108.30777199,-7.25484358],[108.30779687,-7.25484659],[108.30784177,-7.25486455],[108.30790619,-7.25490366],[108.30796321,-7.25492858],[108.30800433,-7.25493934],[108.3080589,-7.25494158],[108.30812334,-7.25495753],[108.30815111,-7.25515314],[108.30816131,-7.25522496],[108.30818055,-7.25536046],[108.30819137,-7.25551384]]]}},{"type":"Feature","properties":{"Id":0.0,"Nama_RT":"RT 008","Luas":10.3204239672},"geometry":{"type":"Polygon","coordinates":[[[108.30809005,-7.25373001],[108.30847683,-7.25391209],[108.30851304,-7.25394386],[108.3085663,-7.25400538],[108.30861175,-7.25406979],[108.30861091,-7.25407058],[108.30857726,-7.25410241],[108.30854473,-7.25412952],[108.30852015,-7.25415],[108.3084903,-7.2541918],[108.30847927,-7.25420012],[108.30845722,-7.25421676],[108.30842147,-7.25424374],[108.30838455,-7.25429422],[108.30827817,-7.25443968],[108.30814783,-7.25467442],[108.3081283,-7.25475369],[108.30812754,-7.25475677],[108.30812516,-7.25483529],[108.30812345,-7.25495039],[108.30812334,-7.25495753],[108.3080589,-7.25494158],[108.30800433,-7.25493934],[108.30796321,-7.25492858],[108.30790619,-7.25490366],[108.30784177,-7.25486455],[108.30779687,-7.25484659],[108.30777199,-7.25484358],[108.30776738,-7.25481295],[108.3077503,-7.25478702],[108.30770724,-7.25478103],[108.30764077,-7.25476552],[108.30758189,-7.2547623],[108.30751003,-7.25476761],[108.30744103,-7.25477581],[108.30737513,-7.25478576],[108.30733763,-7.25481135],[108.30731902,-7.25483293],[108.30731078,-7.25484326],[108.3072953,-7.25486281],[108.3072793,-7.25487562],[108.30725145,-7.25488926],[108.30720341,-7.2549148],[108.30714703,-7.2549433],[108.30711918,-7.25495605],[108.3070889,-7.25497404],[108.30706247,-7.25498966],[108.30704325,-7.2550015],[108.30702691,-7.25501437],[108.30682168,-7.25497827],[108.30682131,-7.25497821],[108.30679807,-7.25504291],[108.30678141,-7.25510121],[108.30676475,-7.25518544],[108.30675263,-7.25525882],[108.30675119,-7.25526753],[108.30673906,-7.25533606],[108.30672906,-7.25537675],[108.30670194,-7.25545027],[108.30668731,-7.25548842],[108.30668552,-7.2554931],[108.30664126,-7.25557163],[108.30658986,-7.25564301],[108.30656259,-7.25567413],[108.30656055,-7.25567646],[108.3064835,-7.25576436],[108.30646608,-7.25578385],[108.30641712,-7.2558386],[108.30637072,-7.25589999],[108.30636147,-7.2559154],[108.30635787,-7.25592141],[108.30634359,-7.25595139],[108.30634002,-7.25597923],[108.30634189,-7.25600312],[108.30628833,-7.25600833],[108.30621643,-7.25608076],[108.30613144,-7.25620076],[108.30601975,-7.25630146],[108.30591407,-7.2563563],[108.30581428,-7.25638823],[108.30575291,-7.25640125],[108.30565139,-7.25640256],[108.30528385,-7.25636595],[108.30502165,-7.25633188],[108.30487688,-7.25623814],[108.30467061,-7.25621632],[108.30260505,-7.25599781],[108.30244087,-7.25579793],[108.30245276,-7.25542674],[108.30260029,-7.25529587],[108.30252891,-7.25505078],[108.30248608,-7.25497464],[108.30237186,-7.25491991],[108.30443636,-7.25423358],[108.30447521,-7.25422377],[108.30452245,-7.2542513],[108.30456067,-7.2543462],[108.30458306,-7.25444532],[108.3046041,-7.25453151],[108.3046254,-7.25457324],[108.3046697,-7.25461223],[108.3048352,-7.25459206],[108.30510834,-7.25455973],[108.30610195,-7.25447669],[108.30616714,-7.25446655],[108.30624189,-7.25445743],[108.30637897,-7.25443625],[108.30645179,-7.25442903],[108.30650456,-7.25441309],[108.30655829,-7.25439619],[108.30660339,-7.25438116],[108.30666671,-7.25436336],[108.30672418,-7.25436084],[108.30677589,-7.2543621],[108.30691,-7.25437333],[108.30694024,-7.25436476],[108.30695511,-7.25430528],[108.30696269,-7.25428091],[108.3069801,-7.25422497],[108.30701757,-7.25409826],[108.30703748,-7.25403272],[108.30706128,-7.25395895],[108.3070708,-7.25389709],[108.30707213,-7.25385832],[108.30727398,-7.25388229],[108.30729073,-7.25388359],[108.30729672,-7.25388243],[108.30729833,-7.25383333],[108.3073008,-7.25380116],[108.30751801,-7.25381142],[108.30751609,-7.25383292],[108.30751585,-7.25384631],[108.30755033,-7.25384508],[108.30756685,-7.25384518],[108.30759414,-7.25384534],[108.30760557,-7.25385617],[108.30776582,-7.25386761],[108.30779626,-7.25385354],[108.30780788,-7.25383257],[108.30781389,-7.25378862],[108.30783035,-7.25375811],[108.30802545,-7.25380326],[108.30803406,-7.25380427],[108.30805036,-7.25380245],[108.30805624,-7.25377858],[108.30806214,-7.25375375],[108.30807853,-7.25373472],[108.30809005,-7.25373001]]]}},{"type":"Feature","properties":{"Id":0.0,"Nama_RT":"RT 009","Luas":2.12761320534},"geometry":{"type":"Polygon","coordinates":[[[108.30712604,-7.25334327],[108.30714682,-7.253352],[108.30718063,-7.25334287],[108.30721596,-7.25332157],[108.30724625,-7.25330095],[108.30728799,-7.25328613],[108.30737221,-7.25325579],[108.30745928,-7.25322833],[108.30751678,-7.25322222],[108.30756917,-7.25323042],[108.30767865,-7.25329921],[108.30778351,-7.253422],[108.3078081,-7.25347283],[108.3078156,-7.25350087],[108.30782044,-7.25353318],[108.3078247,-7.25354037],[108.3078434,-7.25353618],[108.30785272,-7.25353982],[108.30786343,-7.25354993],[108.30787406,-7.25357438],[108.30788183,-7.25359594],[108.30790334,-7.25360324],[108.30794288,-7.25359702],[108.30798312,-7.25359367],[108.30802041,-7.25360465],[108.3080549,-7.25360199],[108.30810087,-7.25360154],[108.30814667,-7.25362979],[108.30816888,-7.25359908],[108.30818697,-7.25357767],[108.3081955,-7.25355142],[108.30820765,-7.2535216],[108.30822341,-7.25348823],[108.30824036,-7.25345605],[108.30825133,-7.25342384],[108.30826469,-7.25339164],[108.30828167,-7.25335469],[108.30829615,-7.25333445],[108.30831305,-7.25331184],[108.30833349,-7.25329642],[108.3083443,-7.25328931],[108.30835085,-7.25327543],[108.30836149,-7.25325828],[108.3083807,-7.25324788],[108.30841328,-7.25324616],[108.30846013,-7.25325791],[108.30867233,-7.25332611],[108.3088768,-7.2534067],[108.30890451,-7.25341834],[108.30890636,-7.25342791],[108.3089033,-7.25345945],[108.30888967,-7.25349667],[108.30887707,-7.25352337],[108.30886723,-7.25356635],[108.30888243,-7.25358748],[108.30898053,-7.25365018],[108.30892466,-7.25373598],[108.30884852,-7.25383591],[108.3088271,-7.25387874],[108.30879483,-7.25390641],[108.30877714,-7.25392158],[108.3086653,-7.25401913],[108.30861175,-7.25406979],[108.3085663,-7.25400538],[108.30851304,-7.25394386],[108.30847683,-7.25391209],[108.3082941,-7.25382607],[108.30809005,-7.25373001],[108.30807853,-7.25373472],[108.30806214,-7.25375375],[108.30805624,-7.25377858],[108.30805036,-7.25380245],[108.30803406,-7.25380427],[108.30802545,-7.25380326],[108.30783035,-7.25375811],[108.30781389,-7.25378862],[108.30780788,-7.25383257],[108.30779626,-7.25385354],[108.30776582,-7.25386761],[108.30772713,-7.25386485],[108.30772484,-7.25386469],[108.30760557,-7.25385617],[108.30759414,-7.25384534],[108.30756685,-7.25384518],[108.30755033,-7.25384508],[108.30751585,-7.25384631],[108.30751609,-7.25383292],[108.30751801,-7.25381142],[108.3073008,-7.25380116],[108.30729833,-7.25383333],[108.30729672,-7.25388243],[108.30729073,-7.25388359],[108.30727398,-7.25388229],[108.30707213,-7.25385832],[108.3070708,-7.25389709],[108.30706128,-7.25395895],[108.30703748,-7.25403272],[108.30701757,-7.25409826],[108.3069801,-7.25422497],[108.30696269,-7.25428091],[108.30695511,-7.25430528],[108.30694024,-7.25436476],[108.30691,-7.25437333],[108.30677589,-7.2543621],[108.30672418,-7.25436084],[108.30666671,-7.25436336],[108.30660339,-7.25438116],[108.30655829,-7.25439619],[108.30650456,-7.25441309],[108.30645179,-7.25442903],[108.30637897,-7.25443625],[108.30624189,-7.25445743],[108.30616714,-7.25446655],[108.30610195,-7.25447669],[108.30604425,-7.25448151],[108.30604249,-7.25448166],[108.30606358,-7.25425314],[108.30607963,-7.25417135],[108.30614186,-7.25417531],[108.3061455,-7.25416636],[108.30616694,-7.25408421],[108.30617775,-7.25403837],[108.30618088,-7.25399439],[108.30617443,-7.25395228],[108.30615843,-7.25390532],[108.30615193,-7.2538699],[108.30614541,-7.25383926],[108.30613511,-7.25379999],[108.30615734,-7.25376665],[108.30627375,-7.25367649],[108.3064894,-7.25364908],[108.30651908,-7.25364925],[108.30656125,-7.25364377],[108.30660161,-7.25362201],[108.30661129,-7.2536039],[108.30661622,-7.25358098],[108.30666036,-7.25340527],[108.30668067,-7.25337097],[108.30672005,-7.25335207],[108.30677686,-7.25330077],[108.30681272,-7.25323991],[108.30688,-7.25313833],[108.30705282,-7.25321516],[108.30708211,-7.25324259],[108.3070977,-7.25327855],[108.3071069,-7.25330084],[108.3071154,-7.25332169],[108.30712604,-7.25334327]]]}},{"type":"Feature","properties":{"Id":0.0,"Nama_RT":"RT 010","Luas":15.3000693103},"geometry":{"type":"Polygon","coordinates":[[[108.30688,-7.25313833],[108.306859,-7.25317004],[108.30681272,-7.25323991],[108.30677686,-7.25330077],[108.30672005,-7.25335207],[108.30668067,-7.25337097],[108.30666036,-7.25340527],[108.30664667,-7.25345974],[108.30661622,-7.25358098],[108.30661129,-7.2536039],[108.30660161,-7.25362201],[108.30656125,-7.25364377],[108.30651908,-7.25364925],[108.3064894,-7.25364908],[108.30627375,-7.25367649],[108.30615734,-7.25376665],[108.30613511,-7.25379999],[108.30614541,-7.25383926],[108.30615193,-7.2538699],[108.30615843,-7.25390532],[108.30617443,-7.25395228],[108.30618088,-7.25399439],[108.30617775,-7.25403837],[108.30616694,-7.25408421],[108.30615553,-7.25412793],[108.3061455,-7.25416636],[108.30614186,-7.25417531],[108.30607963,-7.25417135],[108.30606358,-7.25425314],[108.30604249,-7.25448166],[108.30510834,-7.25455973],[108.3048352,-7.25459206],[108.3046697,-7.25461223],[108.3046254,-7.25457324],[108.3046041,-7.25453151],[108.30458306,-7.25444532],[108.30456067,-7.2543462],[108.30452245,-7.2542513],[108.30447521,-7.25422377],[108.30443636,-7.25423358],[108.30237186,-7.25491991],[108.30202056,-7.25491991],[108.30137011,-7.25491991],[108.30087756,-7.25511265],[108.30032577,-7.25506709],[108.29984011,-7.25502699],[108.2996569,-7.25505078],[108.29960693,-7.25504602],[108.29957124,-7.25501985],[108.29923573,-7.25473431],[108.29884312,-7.25381584],[108.29866704,-7.2532995],[108.30629887,-7.25285591],[108.30643248,-7.25289328],[108.30644082,-7.25282005],[108.30647355,-7.25275092],[108.30653069,-7.25276393],[108.3066502,-7.25279906],[108.30664309,-7.25286596],[108.30664769,-7.25289851],[108.30665315,-7.25294635],[108.30665671,-7.25299132],[108.30664405,-7.25302759],[108.30663812,-7.25305815],[108.30663603,-7.25308779],[108.30664074,-7.25310025],[108.30664644,-7.25310793],[108.30667228,-7.25311191],[108.30688,-7.25313833]]]}},{"type":"Feature","properties":{"Id":0.0,"Nama_RT":"RT 011","Luas":18.2425548083},"geometry":{"type":"Polygon","coordinates":[[[108.30556256,-7.25112278],[108.30606821,-7.25114371],[108.30614603,-7.25114179],[108.30621012,-7.25115436],[108.30625058,-7.25119524],[108.3062815,-7.25123009],[108.30631602,-7.25126257],[108.30635526,-7.25130704],[108.3063898,-7.25133713],[108.30641127,-7.2513504],[108.30651496,-7.25142752],[108.3065793,-7.25147811],[108.30669851,-7.2515613],[108.30677719,-7.25161676],[108.30684028,-7.2516781],[108.30687306,-7.25172133],[108.30690716,-7.25178465],[108.30692124,-7.25183207],[108.30692807,-7.25189236],[108.30692786,-7.25192726],[108.30690548,-7.25198642],[108.30688228,-7.25202262],[108.306863,-7.2520445],[108.30682173,-7.2520586],[108.3068033,-7.25209866],[108.30680216,-7.2521283],[108.30680483,-7.25216274],[108.30681709,-7.25219438],[108.30682657,-7.25221165],[108.30684858,-7.25225409],[108.30686489,-7.25229005],[108.30687333,-7.25232023],[108.30686819,-7.25233884],[108.30686957,-7.25234746],[108.3068759,-7.25235723],[108.30694954,-7.25236802],[108.30697086,-7.25237899],[108.30700363,-7.25230033],[108.30700819,-7.25228939],[108.30703333,-7.25229667],[108.30703767,-7.2522846],[108.30704346,-7.25227651],[108.30750845,-7.25243252],[108.30751433,-7.25240888],[108.30753002,-7.25233108],[108.30753162,-7.25230384],[108.307531,-7.25228805],[108.30751887,-7.25227435],[108.30748158,-7.25226481],[108.30740841,-7.25224859],[108.30742546,-7.25215976],[108.30743322,-7.25210338],[108.30761488,-7.25216273],[108.30762567,-7.25216065],[108.30763503,-7.2521564],[108.30765444,-7.25215436],[108.30767249,-7.25213869],[108.30767904,-7.25212438],[108.3076892,-7.25210651],[108.30769503,-7.2520922],[108.30786064,-7.25214482],[108.30792441,-7.25217031],[108.30793443,-7.2521761],[108.3079387,-7.25218258],[108.30795661,-7.25219058],[108.30797311,-7.25219355],[108.30797812,-7.25219644],[108.3079903,-7.25220225],[108.30812217,-7.25225109],[108.30813368,-7.25224901],[108.30814515,-7.25225195],[108.30817308,-7.25226574],[108.30837764,-7.25233055],[108.30839288,-7.25234498],[108.30841198,-7.2523537],[108.30871392,-7.25246929],[108.30875022,-7.25248577],[108.30875784,-7.25249155],[108.30877127,-7.2524878],[108.30893846,-7.25255669],[108.30894609,-7.25256152],[108.30894797,-7.25256727],[108.30921179,-7.25265203],[108.3093839,-7.25269615],[108.30936285,-7.25281543],[108.30936248,-7.2528175],[108.30933869,-7.25294838],[108.3093362,-7.25295717],[108.30933103,-7.25297548],[108.30930776,-7.25305783],[108.30928156,-7.25313531],[108.30925065,-7.25322677],[108.30923875,-7.25327674],[108.3091864,-7.25335288],[108.30911264,-7.2534552],[108.30904602,-7.25355514],[108.30900157,-7.2536189],[108.30899129,-7.25363366],[108.30898053,-7.25365018],[108.30888243,-7.25358748],[108.30886723,-7.25356635],[108.30887707,-7.25352337],[108.30888967,-7.25349667],[108.3089033,-7.25345945],[108.30890636,-7.25342791],[108.30890451,-7.25341834],[108.3088768,-7.2534067],[108.30867233,-7.25332611],[108.30846013,-7.25325791],[108.30841328,-7.25324616],[108.3083807,-7.25324788],[108.30836149,-7.25325828],[108.30835085,-7.25327543],[108.3083443,-7.25328931],[108.30833349,-7.25329642],[108.30831305,-7.25331184],[108.30829615,-7.25333445],[108.30828167,-7.25335469],[108.30826469,-7.25339164],[108.30825133,-7.25342384],[108.30824036,-7.25345605],[108.30822341,-7.25348823],[108.30820765,-7.2535216],[108.3081955,-7.25355142],[108.30818697,-7.25357767],[108.30816888,-7.25359908],[108.30814667,-7.25362979],[108.30810087,-7.25360154],[108.3080549,-7.25360199],[108.30802041,-7.25360465],[108.30798312,-7.25359367],[108.30794288,-7.25359702],[108.30790334,-7.25360324],[108.30788183,-7.25359594],[108.30787406,-7.25357438],[108.30786343,-7.25354993],[108.30785272,-7.25353982],[108.3078434,-7.25353618],[108.3078247,-7.25354037],[108.30782044,-7.25353318],[108.3078156,-7.25350087],[108.3078081,-7.25347283],[108.30778351,-7.253422],[108.30767865,-7.25329921],[108.30756917,-7.25323042],[108.30751678,-7.25322222],[108.30745928,-7.25322833],[108.30737221,-7.25325579],[108.30728799,-7.25328613],[108.30724625,-7.25330095],[108.30721596,-7.25332157],[108.30718063,-7.25334287],[108.30714682,-7.253352],[108.30712604,-7.25334327],[108.3071154,-7.25332169],[108.3071069,-7.25330084],[108.3070977,-7.25327855],[108.30708211,-7.25324259],[108.30705282,-7.25321516],[108.30688254,-7.25313946],[108.30688,-7.25313833],[108.30667228,-7.25311191],[108.30664644,-7.25310793],[108.30664074,-7.25310025],[108.30663603,-7.25308779],[108.30663812,-7.25305815],[108.30664405,-7.25302759],[108.30665671,-7.25299132],[108.30665315,-7.25294635],[108.30664769,-7.25289851],[108.30664309,-7.25286596],[108.3066502,-7.25279906],[108.30653069,-7.25276393],[108.30647355,-7.25275092],[108.30644082,-7.25282005],[108.30643248,-7.25289328],[108.30629887,-7.25285591],[108.29866704,-7.2532995],[108.29846717,-7.25347082],[108.29858138,-7.25292116],[108.29861945,-7.25286882],[108.29897637,-7.25261897],[108.29968545,-7.25206456],[108.300178,-7.2517814],[108.300247,-7.25156249],[108.30513107,-7.25131209],[108.30556256,-7.25112278]]]}},{"type":"Feature","properties":{"Id":0.0,"Nama_RT":"RT 012","Luas":3.32061835763},"geometry":{"type":"Polygon","coordinates":[[[108.30641127,-7.2513504],[108.30648006,-7.25127703],[108.30650817,-7.25125926],[108.306514,-7.25124567],[108.30652132,-7.25122348],[108.30654009,-7.25120637],[108.30656889,-7.25119507],[108.30660911,-7.25119531],[108.3066752,-7.25119427],[108.30669236,-7.25120656],[108.30670167,-7.25121235],[108.30672462,-7.25121679],[108.3067433,-7.25121619],[108.30678366,-7.25119276],[108.30680311,-7.25118521],[108.30694167,-7.25114],[108.30702258,-7.25111719],[108.30705512,-7.25112025],[108.30708285,-7.25112807],[108.30710177,-7.25112698],[108.30710901,-7.2511177],[108.30713435,-7.25108271],[108.30716405,-7.25104128],[108.30719303,-7.25099842],[108.30722205,-7.25095054],[108.30724804,-7.25092774],[108.30726106,-7.25091204],[108.30728712,-7.25087776],[108.30729669,-7.25083981],[108.30732288,-7.2507833],[108.3073453,-7.25075761],[108.30736268,-7.25073404],[108.30737854,-7.25072338],[108.30740511,-7.25072569],[108.30741576,-7.25074584],[108.30743149,-7.2507574],[108.30748665,-7.25078284],[108.30750609,-7.25077434],[108.30751621,-7.25076436],[108.30752996,-7.2507458],[108.30755311,-7.25071868],[108.30756396,-7.25070583],[108.30757984,-7.25069301],[108.30759282,-7.25068377],[108.30765161,-7.25070133],[108.30767095,-7.25071149],[108.30769309,-7.25073242],[108.30770664,-7.25074899],[108.3077274,-7.25076059],[108.30775317,-7.25077509],[108.30778333,-7.25079667],[108.30779604,-7.25080142],[108.30776373,-7.25086098],[108.30776037,-7.25089348],[108.30776237,-7.25091931],[108.30777012,-7.25094374],[108.30777432,-7.25096313],[108.30778288,-7.25097251],[108.30781078,-7.25099132],[108.30781,-7.25100208],[108.30779838,-7.25102353],[108.30778391,-7.25104137],[108.3077788,-7.25105569],[108.3078984,-7.25111377],[108.30789043,-7.25112592],[108.3081102,-7.25124915],[108.3080855,-7.25129577],[108.30807102,-7.25131577],[108.3080609,-7.25132718],[108.30805219,-7.25134219],[108.30804848,-7.25136154],[108.30804979,-7.25138306],[108.30808781,-7.2513919],[108.30810214,-7.25139772],[108.30811071,-7.25140494],[108.30812356,-7.25141865],[108.30814294,-7.2514202],[108.3081953,-7.25143342],[108.30826479,-7.25146395],[108.30831067,-7.25147929],[108.3083558,-7.25149964],[108.30843039,-7.25151657],[108.30847408,-7.25153763],[108.30848556,-7.25153985],[108.30848551,-7.25154918],[108.30848546,-7.25155778],[108.30847744,-7.25157782],[108.30846724,-7.25160143],[108.30845562,-7.25162359],[108.30846202,-7.25163367],[108.30848064,-7.25164311],[108.30851287,-7.25165836],[108.30856521,-7.25167445],[108.30860108,-7.25168184],[108.30861255,-7.25168477],[108.30862106,-7.25170419],[108.30862748,-7.2517114],[108.30865188,-7.25171513],[108.30867193,-7.25172457],[108.30868772,-7.25172754],[108.30871205,-7.25174202],[108.30875503,-7.25176093],[108.30884461,-7.2517966],[108.30888835,-7.25180762],[108.30894782,-7.25183308],[108.30897435,-7.25184041],[108.30899152,-7.25185198],[108.30899865,-7.25186063],[108.30903022,-7.25186656],[108.30904813,-7.25187455],[108.30906025,-7.25189041],[108.30907313,-7.25189837],[108.3091212,-7.25190655],[108.30915128,-7.25192107],[108.30929252,-7.25196494],[108.30929616,-7.25195779],[108.30930557,-7.25194565],[108.30932993,-7.2519544],[108.30934345,-7.25197672],[108.30934913,-7.25198823],[108.30944101,-7.25197947],[108.30944101,-7.25198447],[108.30944101,-7.25200512],[108.30944101,-7.25201801],[108.30944014,-7.25207771],[108.30943863,-7.25218219],[108.30943395,-7.25224302],[108.30942911,-7.25230592],[108.30941483,-7.25234875],[108.30941721,-7.25242251],[108.30941721,-7.25247057],[108.30941721,-7.25252245],[108.30940066,-7.25257683],[108.30940055,-7.25257718],[108.30938756,-7.25266996],[108.30938588,-7.252682],[108.3093839,-7.25269615],[108.30921179,-7.25265203],[108.30903798,-7.25259619],[108.30894797,-7.25256727],[108.30894609,-7.25256152],[108.30893846,-7.25255669],[108.30877127,-7.2524878],[108.30875784,-7.25249155],[108.30875022,-7.25248577],[108.30871392,-7.25246929],[108.30841198,-7.2523537],[108.30839288,-7.25234498],[108.30838257,-7.25233521],[108.30837764,-7.25233055],[108.3083386,-7.25231818],[108.30817308,-7.25226574],[108.30814515,-7.25225195],[108.30813368,-7.25224901],[108.30812217,-7.25225109],[108.30799738,-7.25220488],[108.3079903,-7.25220225],[108.30797812,-7.25219644],[108.30797311,-7.25219355],[108.30795661,-7.25219058],[108.3079387,-7.25218258],[108.30793443,-7.2521761],[108.30792441,-7.25217031],[108.30786064,-7.25214482],[108.30769503,-7.2520922],[108.3076892,-7.25210651],[108.30767904,-7.25212438],[108.30767249,-7.25213869],[108.30765444,-7.25215436],[108.30763503,-7.2521564],[108.30762567,-7.25216065],[108.30761488,-7.25216273],[108.30743322,-7.25210338],[108.30742546,-7.25215976],[108.30740841,-7.25224859],[108.30748158,-7.25226481],[108.30751887,-7.25227435],[108.307531,-7.25228805],[108.30753162,-7.25230384],[108.30753002,-7.25233108],[108.30751433,-7.25240888],[108.30750845,-7.25243252],[108.30733627,-7.25237475],[108.30704346,-7.25227651],[108.30703767,-7.2522846],[108.30703333,-7.25229667],[108.30700819,-7.25228939],[108.30700363,-7.25230033],[108.30699802,-7.25231381],[108.30697086,-7.25237899],[108.30694954,-7.25236802],[108.3068759,-7.25235723],[108.30686957,-7.25234746],[108.30686819,-7.25233884],[108.30687333,-7.25232023],[108.30686489,-7.25229005],[108.30684858,-7.25225409],[108.30682657,-7.25221165],[108.30681709,-7.25219438],[108.30680483,-7.25216274],[108.30680216,-7.2521283],[108.3068033,-7.25209866],[108.30682173,-7.2520586],[108.306863,-7.2520445],[108.3068674,-7.25203951],[108.30688228,-7.25202262],[108.30690548,-7.25198642],[108.30692786,-7.25192726],[108.30692807,-7.25189236],[108.30692124,-7.25183207],[108.30690716,-7.25178465],[108.30687306,-7.25172133],[108.30684028,-7.2516781],[108.30677719,-7.25161676],[108.30672232,-7.25157808],[108.30669851,-7.2515613],[108.3065793,-7.25147811],[108.30651496,-7.25142752],[108.30641127,-7.2513504]]]}},{"type":"Feature","properties":{"Id":0.0,"Nama_RT":"RT 013","Luas":9.81245583747},"geometry":{"type":"Polygon","coordinates":[[[108.31021932,-7.24508322],[108.31023661,-7.24509287],[108.31023626,-7.24510887],[108.31024873,-7.24512687],[108.31026191,-7.24512456],[108.31027207,-7.24512642],[108.31028103,-7.24512946],[108.31028997,-7.24513608],[108.31029651,-7.2451433],[108.31030603,-7.24515232],[108.31031737,-7.24515896],[108.31032756,-7.24515663],[108.31033831,-7.24516028],[108.31034665,-7.2451669],[108.3103532,-7.24517292],[108.31036827,-7.24516631],[108.31038616,-7.24516594],[108.31040468,-7.24517083],[108.31041657,-7.24518465],[108.31044537,-7.24520933],[108.31047909,-7.24524061],[108.31051673,-7.24525218],[108.31056702,-7.24525009],[108.31062904,-7.24523764],[108.31069764,-7.24522696],[108.31074637,-7.24513854],[108.3107329,-7.24530922],[108.3107321,-7.24531938],[108.31065357,-7.24556922],[108.31060361,-7.24572151],[108.31057408,-7.24578713],[108.31047512,-7.24600704],[108.31042277,-7.24608795],[108.31034662,-7.24618075],[108.31001588,-7.24652577],[108.30995042,-7.24661674],[108.3097351,-7.246916],[108.30971977,-7.24699575],[108.30970647,-7.2470649],[108.30968751,-7.24716346],[108.30969227,-7.24736572],[108.30969128,-7.24739612],[108.30968038,-7.24772977],[108.30965658,-7.24784875],[108.30963755,-7.24796058],[108.30960888,-7.24800659],[108.30957888,-7.24805476],[108.30954713,-7.24810573],[108.30950192,-7.24817949],[108.30927349,-7.24841982],[108.30925525,-7.2484542],[108.30908842,-7.2487686],[108.30908789,-7.2487696],[108.30908157,-7.24892513],[108.30907495,-7.24908828],[108.30906885,-7.24923835],[108.30913548,-7.24930022],[108.30920924,-7.2493716],[108.30929728,-7.24949533],[108.30944719,-7.24973328],[108.3094686,-7.24978087],[108.30948801,-7.24985551],[108.30949061,-7.24986553],[108.30949954,-7.24989984],[108.30953543,-7.25003034],[108.30953194,-7.25006463],[108.30952905,-7.25009302],[108.30950287,-7.25019772],[108.3094767,-7.25030004],[108.30947373,-7.25030994],[108.30944814,-7.25039521],[108.30946004,-7.25049515],[108.30946304,-7.25051853],[108.30947194,-7.25058795],[108.30947247,-7.25061231],[108.30947387,-7.25067692],[108.30947432,-7.25069741],[108.30946718,-7.2507902],[108.30945766,-7.25091394],[108.30945708,-7.25092266],[108.30945068,-7.25101872],[108.30945052,-7.25102101],[108.30945052,-7.25115188],[108.30945052,-7.25126227],[108.30945052,-7.25131979],[108.30945052,-7.25132082],[108.30944576,-7.25144218],[108.30944837,-7.25150735],[108.30945052,-7.25156115],[108.30943863,-7.25162302],[108.30943625,-7.25171106],[108.30943798,-7.25176484],[108.30943961,-7.25181517],[108.30944101,-7.25185858],[108.30944101,-7.25196659],[108.30944101,-7.25196897],[108.30943958,-7.25197961],[108.30934913,-7.25198823],[108.30934345,-7.25197672],[108.30932993,-7.2519544],[108.30930557,-7.25194565],[108.30929616,-7.25195779],[108.30929252,-7.25196494],[108.30915128,-7.25192107],[108.3091212,-7.25190655],[108.30907313,-7.25189837],[108.30906025,-7.25189041],[108.30904813,-7.25187455],[108.30903022,-7.25186656],[108.30899865,-7.25186063],[108.30899152,-7.25185198],[108.30897435,-7.25184041],[108.30894782,-7.25183308],[108.30889849,-7.25181196],[108.30888835,-7.25180762],[108.30884461,-7.2517966],[108.30875503,-7.25176093],[108.30871205,-7.25174202],[108.30868772,-7.25172754],[108.30867193,-7.25172457],[108.30865188,-7.25171513],[108.30862748,-7.2517114],[108.30862106,-7.25170419],[108.30861255,-7.25168477],[108.30860108,-7.25168184],[108.30856521,-7.25167445],[108.30851287,-7.25165836],[108.30848064,-7.25164311],[108.30846202,-7.25163367],[108.30845562,-7.25162359],[108.30846724,-7.25160143],[108.30847744,-7.25157782],[108.30848546,-7.25155778],[108.30848551,-7.25154918],[108.30848556,-7.25153985],[108.30847408,-7.25153763],[108.30843039,-7.25151657],[108.3083558,-7.25149964],[108.30831067,-7.25147929],[108.30826479,-7.25146395],[108.3081953,-7.25143342],[108.30814294,-7.2514202],[108.30812356,-7.25141865],[108.30811071,-7.25140494],[108.30810214,-7.25139772],[108.30808781,-7.2513919],[108.30804979,-7.25138306],[108.30804848,-7.25136154],[108.30805219,-7.25134219],[108.3080609,-7.25132718],[108.30807102,-7.25131577],[108.3080855,-7.25129577],[108.3081102,-7.25124915],[108.30789043,-7.25112592],[108.3078984,-7.25111377],[108.3077788,-7.25105569],[108.30778391,-7.25104137],[108.30779838,-7.25102353],[108.30781,-7.25100208],[108.30781078,-7.25099132],[108.30778288,-7.25097251],[108.30777432,-7.25096313],[108.30777012,-7.25094374],[108.30776237,-7.25091931],[108.30776037,-7.25089348],[108.30776373,-7.25086098],[108.30779604,-7.25080142],[108.30779838,-7.25079712],[108.30782376,-7.25075032],[108.30787798,-7.25065264],[108.30788376,-7.25064223],[108.30797754,-7.25047327],[108.30809359,-7.25026419],[108.30811858,-7.25019995],[108.30813403,-7.25015957],[108.30810667,-7.25015],[108.30804904,-7.2501287],[108.30802325,-7.25011779],[108.30800252,-7.25010188],[108.30797896,-7.25007292],[108.30805867,-7.24995948],[108.30808256,-7.24992735],[108.30809279,-7.249898],[108.30806645,-7.24985935],[108.30804629,-7.24982576],[108.30802501,-7.24978141],[108.30799525,-7.24975254],[108.30796068,-7.24972843],[108.30792139,-7.24969233],[108.30786383,-7.24962911],[108.3078296,-7.24958683],[108.30777442,-7.2495253],[108.30773625,-7.24950212],[108.30769238,-7.24947126],[108.30768291,-7.24945399],[108.30768317,-7.24941],[108.30771613,-7.24934325],[108.3077566,-7.24930142],[108.30786045,-7.24923126],[108.30788054,-7.24919822],[108.30786978,-7.24907622],[108.3078743,-7.24904039],[108.30786168,-7.24898867],[108.30781043,-7.24890947],[108.30773621,-7.2488287],[108.30765611,-7.24877085],[108.30758023,-7.2487288],[108.30747423,-7.24867796],[108.30733862,-7.24861428],[108.30701307,-7.24850177],[108.30683878,-7.24852214],[108.30657534,-7.24853492],[108.30616862,-7.2484847],[108.30597265,-7.24842615],[108.30576293,-7.24826234],[108.30567258,-7.2481566],[108.30566865,-7.24801313],[108.30572452,-7.24781722],[108.30593129,-7.24773129],[108.30627418,-7.24758879],[108.30647109,-7.24778075],[108.30665251,-7.24795761],[108.3067377,-7.24789903],[108.306897,-7.24778947],[108.30708293,-7.2476616],[108.30716967,-7.24760196],[108.30719137,-7.24758703],[108.30736873,-7.24746506],[108.3074459,-7.24758854],[108.30749157,-7.2476616],[108.30768737,-7.24797489],[108.30780917,-7.24816976],[108.30784185,-7.24822206],[108.30788031,-7.24828359],[108.30779276,-7.24841976],[108.30772694,-7.24852211],[108.30772789,-7.24852545],[108.30813186,-7.24865984],[108.30817162,-7.2486741],[108.30823055,-7.24869523],[108.30827385,-7.24871076],[108.30831299,-7.24869913],[108.3083487,-7.24868852],[108.30834953,-7.24865453],[108.30835088,-7.24859931],[108.30834784,-7.24858097],[108.30854902,-7.24856347],[108.30856536,-7.24855363],[108.30854645,-7.24851181],[108.30857264,-7.24845602],[108.30863367,-7.24834084],[108.308641,-7.24831578],[108.30865798,-7.24827882],[108.30866527,-7.24825974],[108.30868076,-7.24827298],[108.30867724,-7.24826101],[108.30868569,-7.2482491],[108.30869882,-7.24825396],[108.30871933,-7.24822778],[108.30873265,-7.24820156],[108.30876643,-7.24815753],[108.30881437,-7.24814945],[108.30886125,-7.24811626],[108.30890819,-7.2480735],[108.30893358,-7.24803181],[108.30893962,-7.24801901],[108.3089474,-7.24799511],[108.30903414,-7.24772832],[108.30906592,-7.24765311],[108.30909803,-7.24759233],[108.30910519,-7.24757876],[108.30914864,-7.24749769],[108.30913221,-7.24744201],[108.3091265,-7.24739595],[108.30912966,-7.24736788],[108.30913484,-7.24735122],[108.30913701,-7.24733923],[108.30914247,-7.24732611],[108.3091522,-7.24730047],[108.30915765,-7.24729034],[108.30916911,-7.24727547],[108.30918233,-7.24726598],[108.30919675,-7.2472577],[108.30922674,-7.24724712],[108.30924811,-7.24723589],[108.30927032,-7.24722586],[108.30929492,-7.24721644],[108.30932435,-7.24719808],[108.30938822,-7.24712674],[108.30942565,-7.2470509],[108.30945371,-7.24699682],[108.3095263,-7.2468562],[108.3095684,-7.24682178],[108.30957391,-7.24680089],[108.30956627,-7.24677694],[108.30957177,-7.24675785],[108.30958447,-7.2467364],[108.30961944,-7.2467241],[108.30961031,-7.24658054],[108.30965132,-7.24644666],[108.30966326,-7.24643197],[108.30972915,-7.24635091],[108.30977143,-7.2462989],[108.30979422,-7.24621081],[108.30981398,-7.24614853],[108.30983056,-7.2461393],[108.3098393,-7.24611927],[108.30983809,-7.24607982],[108.30986181,-7.24593411],[108.30989822,-7.24583118],[108.30992896,-7.24574425],[108.30998248,-7.24559294],[108.31003671,-7.24553158],[108.31004194,-7.24549718],[108.31006217,-7.24547866],[108.31011264,-7.24544596],[108.31013001,-7.24542383],[108.31013878,-7.24539806],[108.31014824,-7.2453766],[108.31016892,-7.24536154],[108.31017626,-7.24533588],[108.3101753,-7.24529583],[108.31019553,-7.2450856],[108.31021932,-7.24508322]]]}},{"type":"Feature","properties":{"Id":0.0,"Nama_RT":"RT 014","Luas":22.0238104629},"geometry":{"type":"Polygon","coordinates":[[[108.30680311,-7.25118521],[108.30669841,-7.25107814],[108.30667224,-7.25102341],[108.30663416,-7.25089492],[108.30658895,-7.25084495],[108.30652233,-7.25078309],[108.3064676,-7.25074501],[108.30641763,-7.25072122],[108.30633435,-7.25071408],[108.30626535,-7.25070932],[108.306144,-7.25067601],[108.30611035,-7.2506579],[108.30610873,-7.25065702],[108.30608213,-7.2506427],[108.30600361,-7.25059511],[108.30592746,-7.25054514],[108.30588806,-7.25051559],[108.305881,-7.25046533],[108.30587488,-7.2504072],[108.30587007,-7.25037131],[108.30585665,-7.25033393],[108.30582669,-7.25029789],[108.30579671,-7.25026759],[108.3057639,-7.25022795],[108.30574323,-7.250202],[108.30572327,-7.25017606],[108.30570981,-7.25014443],[108.30569638,-7.25010777],[108.3056916,-7.2500659],[108.30568939,-7.25003481],[108.30567296,-7.24997972],[108.3056457,-7.24993413],[108.30559087,-7.24989436],[108.30555048,-7.24984152],[108.30555306,-7.24981046],[108.30555084,-7.24978056],[108.30552833,-7.24974217],[108.30549517,-7.2496822],[108.3054668,-7.24962107],[108.3054455,-7.24957911],[108.30543508,-7.24952047],[108.30543135,-7.2494431],[108.30543459,-7.24921934],[108.30545018,-7.24917544],[108.30546975,-7.24910479],[108.3054605,-7.24904927],[108.30539959,-7.24898579],[108.30504901,-7.24867578],[108.3039396,-7.24790163],[108.30136364,-7.24646381],[108.29948402,-7.24569237],[108.29917624,-7.24563525],[108.29924763,-7.24527596],[108.29924287,-7.24520933],[108.29918814,-7.24497138],[108.29914535,-7.24403891],[108.29914293,-7.24398629],[108.29918576,-7.24345091],[108.29929998,-7.24322724],[108.29932139,-7.243232],[108.30042985,-7.24371099],[108.30098114,-7.24394922],[108.30120238,-7.24404482],[108.30142484,-7.24414095],[108.30144149,-7.24416237],[108.3014737,-7.24427482],[108.30147861,-7.24429197],[108.3014825,-7.24430555],[108.30157712,-7.24463588],[108.30171303,-7.24473487],[108.30198877,-7.24493569],[108.3023291,-7.24517905],[108.30276609,-7.24549154],[108.3032992,-7.24587275],[108.30335408,-7.24591199],[108.30354048,-7.24604527],[108.30380472,-7.24623423],[108.30384985,-7.2462665],[108.30412029,-7.24645988],[108.30459428,-7.24679881],[108.30481552,-7.24681147],[108.30481734,-7.24681157],[108.30486757,-7.24681445],[108.30500365,-7.24682224],[108.30537021,-7.24684321],[108.30546754,-7.24684878],[108.3054723,-7.24687495],[108.30551663,-7.24704056],[108.3055319,-7.24709761],[108.3055729,-7.2472508],[108.30566776,-7.24760518],[108.30572452,-7.24781722],[108.30566865,-7.24801313],[108.30567258,-7.2481566],[108.30576293,-7.24826234],[108.30597265,-7.24842615],[108.30616862,-7.2484847],[108.30657534,-7.24853492],[108.30683878,-7.24852214],[108.30701307,-7.24850177],[108.30733862,-7.24861428],[108.30747423,-7.24867796],[108.30758023,-7.2487288],[108.30765611,-7.24877085],[108.30773621,-7.2488287],[108.30777034,-7.24886584],[108.30781043,-7.24890947],[108.30786168,-7.24898867],[108.3078743,-7.24904039],[108.30786978,-7.24907622],[108.30788054,-7.24919822],[108.30786045,-7.24923126],[108.3077566,-7.24930142],[108.30771613,-7.24934325],[108.30768317,-7.24941],[108.30768291,-7.24945399],[108.30769238,-7.24947126],[108.30773625,-7.24950212],[108.30777442,-7.2495253],[108.3078296,-7.24958683],[108.30786383,-7.24962911],[108.30792139,-7.24969233],[108.30796068,-7.24972843],[108.30799525,-7.24975254],[108.30802501,-7.24978141],[108.30804629,-7.24982576],[108.30806645,-7.24985935],[108.30809279,-7.249898],[108.30808256,-7.24992735],[108.30805867,-7.24995948],[108.30797896,-7.25007292],[108.30800252,-7.25010188],[108.30802325,-7.25011779],[108.30804904,-7.2501287],[108.30810667,-7.25015],[108.30813403,-7.25015957],[108.30811858,-7.25019995],[108.3080997,-7.25024849],[108.30809359,-7.25026419],[108.30797754,-7.25047327],[108.30788376,-7.25064223],[108.30787798,-7.25065264],[108.30782376,-7.25075032],[108.30779838,-7.25079712],[108.30779604,-7.25080142],[108.30778333,-7.25079667],[108.30775317,-7.25077509],[108.3077274,-7.25076059],[108.30770664,-7.25074899],[108.30769309,-7.25073242],[108.30767095,-7.25071149],[108.30765161,-7.25070133],[108.30759282,-7.25068377],[108.30757984,-7.25069301],[108.30756396,-7.25070583],[108.30755311,-7.25071868],[108.30752996,-7.2507458],[108.30751621,-7.25076436],[108.30750609,-7.25077434],[108.30748665,-7.25078284],[108.30743149,-7.2507574],[108.30741576,-7.25074584],[108.30740511,-7.25072569],[108.30737854,-7.25072338],[108.30736268,-7.25073404],[108.3073453,-7.25075761],[108.30732288,-7.2507833],[108.30729669,-7.25083981],[108.30728712,-7.25087776],[108.30726106,-7.25091204],[108.30724804,-7.25092774],[108.30722205,-7.25095054],[108.30719303,-7.25099842],[108.30716405,-7.25104128],[108.30713435,-7.25108271],[108.30710901,-7.2511177],[108.30710177,-7.25112698],[108.30708285,-7.25112807],[108.30705512,-7.25112025],[108.30702258,-7.25111719],[108.30694167,-7.25114],[108.3068959,-7.25115494],[108.30680311,-7.25118521]]]}},{"type":"Feature","properties":{"Id":0.0,"Nama_RT":"RT 015","Luas":3.88063336366},"geometry":{"type":"Polygon","coordinates":[[[108.30555084,-7.24978056],[108.30555306,-7.24981046],[108.30555048,-7.24984152],[108.30559087,-7.24989436],[108.3056457,-7.24993413],[108.30567296,-7.24997972],[108.30568939,-7.25003481],[108.3056916,-7.2500659],[108.30569638,-7.25010777],[108.30570981,-7.25014443],[108.30572327,-7.25017606],[108.30574323,-7.250202],[108.3057639,-7.25022795],[108.30579671,-7.25026759],[108.30582669,-7.25029789],[108.30585665,-7.25033393],[108.30587007,-7.25037131],[108.30587488,-7.2504072],[108.305881,-7.25046533],[108.30588806,-7.25051559],[108.30592746,-7.25054514],[108.30600361,-7.25059511],[108.30608213,-7.2506427],[108.30610873,-7.25065702],[108.30611035,-7.2506579],[108.306144,-7.25067601],[108.30626535,-7.25070932],[108.30633435,-7.25071408],[108.30641763,-7.25072122],[108.3064676,-7.25074501],[108.30652233,-7.25078309],[108.30658895,-7.25084495],[108.30663416,-7.25089492],[108.30667224,-7.25102341],[108.30669841,-7.25107814],[108.30680311,-7.25118521],[108.30678366,-7.25119276],[108.3067433,-7.25121619],[108.30672462,-7.25121679],[108.30670167,-7.25121235],[108.30669236,-7.25120656],[108.3066752,-7.25119427],[108.30660911,-7.25119531],[108.30656889,-7.25119507],[108.30654009,-7.25120637],[108.30652132,-7.25122348],[108.306514,-7.25124567],[108.30650817,-7.25125926],[108.30648006,-7.25127703],[108.30641127,-7.2513504],[108.3063898,-7.25133713],[108.30635526,-7.25130704],[108.30631602,-7.25126257],[108.3062815,-7.25123009],[108.30625058,-7.25119524],[108.30621012,-7.25115436],[108.30614603,-7.25114179],[108.30606821,-7.25114371],[108.30569414,-7.25112823],[108.30556256,-7.25112278],[108.30555001,-7.25112829],[108.30525007,-7.25125988],[108.30519822,-7.25128263],[108.30513821,-7.25130895],[108.30513107,-7.25131209],[108.30493702,-7.25132204],[108.30417514,-7.2513611],[108.30417503,-7.25136111],[108.30417557,-7.25125644],[108.30421497,-7.25107306],[108.30428717,-7.25084971],[108.30438923,-7.25059761],[108.304393,-7.25056655],[108.30443915,-7.25045565],[108.30446085,-7.25043068],[108.3044848,-7.25042962],[108.30453494,-7.25045263],[108.30463637,-7.25050703],[108.30479884,-7.25056298],[108.30488847,-7.25058862],[108.30489377,-7.25056044],[108.3049036,-7.25052221],[108.30492507,-7.25043695],[108.30493898,-7.25039256],[108.30495789,-7.25035251],[108.30497697,-7.25028448],[108.3049888,-7.25022789],[108.3049932,-7.25021214],[108.30493343,-7.25011854],[108.30492216,-7.25008046],[108.30491097,-7.25003019],[108.3049465,-7.24997374],[108.30500775,-7.24993967],[108.30502858,-7.2499398],[108.30504522,-7.24991981],[108.30504966,-7.2498976],[108.30501678,-7.24987087],[108.30495875,-7.24984614],[108.30488925,-7.24981632],[108.30484938,-7.24979815],[108.30481712,-7.2497872],[108.30476924,-7.24978692],[108.30473446,-7.24979747],[108.30464825,-7.24980174],[108.3045872,-7.24980018],[108.30440376,-7.24984811],[108.30439199,-7.24981457],[108.30437444,-7.24974632],[108.30435678,-7.24969721],[108.30433798,-7.24963613],[108.30438373,-7.24959337],[108.30444987,-7.24954355],[108.30454951,-7.24949513],[108.3045675,-7.24948926],[108.30457487,-7.24945823],[108.30457196,-7.24934345],[108.30457502,-7.24925883],[108.30459173,-7.24902559],[108.30461382,-7.24885358],[108.30466634,-7.2487181],[108.30471871,-7.2484453],[108.30504901,-7.24867578],[108.3053908,-7.24897802],[108.30539959,-7.24898579],[108.3054605,-7.24904927],[108.30546975,-7.24910479],[108.30545018,-7.24917544],[108.30543459,-7.24921934],[108.30543135,-7.2494431],[108.30543508,-7.24952047],[108.3054455,-7.24957911],[108.30545977,-7.24960722],[108.3054668,-7.24962107],[108.30549517,-7.2496822],[108.30552833,-7.24974217],[108.30555084,-7.24978056]]]}},{"type":"Feature","properties":{"Id":0.0,"Nama_RT":"RT 016","Luas":29.8548731203},"geometry":{"type":"Polygon","coordinates":[[[108.30439199,-7.24981457],[108.30440376,-7.24984811],[108.3045872,-7.24980018],[108.30464825,-7.24980174],[108.30473446,-7.24979747],[108.30476924,-7.24978692],[108.30481712,-7.2497872],[108.30484938,-7.24979815],[108.30488925,-7.24981632],[108.30495875,-7.24984614],[108.30501678,-7.24987087],[108.30504966,-7.2498976],[108.30504522,-7.24991981],[108.30502858,-7.2499398],[108.30500775,-7.24993967],[108.3049465,-7.24997374],[108.30491097,-7.25003019],[108.30492216,-7.25008046],[108.30493343,-7.25011854],[108.3049932,-7.25021214],[108.3049888,-7.25022789],[108.30497697,-7.25028448],[108.30495789,-7.25035251],[108.30493898,-7.25039256],[108.30492507,-7.25043695],[108.3049036,-7.25052221],[108.30489377,-7.25056044],[108.30488847,-7.25058862],[108.30479884,-7.25056298],[108.30463637,-7.25050703],[108.30453494,-7.25045263],[108.3044848,-7.25042962],[108.30446085,-7.25043068],[108.30443915,-7.25045565],[108.304393,-7.25056655],[108.30438923,-7.25059761],[108.30428717,-7.25084971],[108.30421497,-7.25107306],[108.30417557,-7.25125644],[108.30417503,-7.25136111],[108.3003377,-7.25155784],[108.300247,-7.25156249],[108.30024426,-7.25155729],[108.29982108,-7.25075347],[108.29964262,-7.25057739],[108.29939753,-7.25031089],[108.29929522,-7.24994922],[108.29891926,-7.24955661],[108.29881933,-7.24919255],[108.29878839,-7.2489665],[108.29879315,-7.24872855],[108.29881695,-7.24857865],[108.29882884,-7.24855723],[108.29936422,-7.24821697],[108.29929284,-7.24732467],[108.29924525,-7.24711766],[108.29920526,-7.24678529],[108.29916911,-7.24648472],[108.29917624,-7.24563525],[108.29948402,-7.24569237],[108.30136364,-7.24646381],[108.3039396,-7.24790163],[108.30471871,-7.2484453],[108.30466634,-7.2487181],[108.30461382,-7.24885358],[108.30459173,-7.24902559],[108.30457502,-7.24925883],[108.30457196,-7.24934345],[108.30457487,-7.24945823],[108.3045675,-7.24948926],[108.30454951,-7.24949513],[108.30444987,-7.24954355],[108.30438373,-7.24959337],[108.30433798,-7.24963613],[108.30435678,-7.24969721],[108.30437444,-7.24974632],[108.30439199,-7.24981457]]]}},{"type":"Feature","properties":{"Id":0.0,"Nama_RT":"RT 001","Luas":28.4568518185},"geometry":{"type":"Polygon","coordinates":[[[108.31077252,-7.25806745],[108.31077246,-7.25806867],[108.31212667,-7.25804167],[108.31233703,-7.25805572],[108.31339795,-7.25802545],[108.31332895,-7.2580897],[108.31331457,-7.25810186],[108.31320521,-7.25819439],[108.31312669,-7.25827054],[108.31312431,-7.2583562],[108.31311004,-7.25838237],[108.31301486,-7.2585061],[108.31292206,-7.25863935],[108.31277929,-7.25865363],[108.31269601,-7.25866553],[108.31263414,-7.25866315],[108.31254848,-7.25884161],[108.31250089,-7.25895582],[108.31234861,-7.2588535],[108.3123153,-7.25890585],[108.31230578,-7.25894154],[108.31231054,-7.25899151],[108.31233433,-7.25906052],[108.31236288,-7.2591319],[108.31237954,-7.25920328],[108.31239858,-7.25926277],[108.31242475,-7.25930798],[108.31246044,-7.25934605],[108.31252231,-7.25942695],[108.31257466,-7.25948644],[108.31257228,-7.25950786],[108.31256038,-7.25954831],[108.31251755,-7.25961731],[108.31257942,-7.25979577],[108.31260321,-7.25985764],[108.3126508,-7.2599314],[108.31279595,-7.25993854],[108.31294109,-7.25994092],[108.31307672,-7.25993616],[108.31309576,-7.26000754],[108.31311004,-7.26008131],[108.31312669,-7.26017172],[108.31315049,-7.26023835],[108.31315612,-7.26026651],[108.31316476,-7.26030973],[108.31316476,-7.26040253],[108.31315762,-7.26057385],[108.31315287,-7.26072376],[108.31314335,-7.26094267],[108.31314097,-7.2610093],[108.31311717,-7.26105926],[108.31303151,-7.26122345],[108.31296727,-7.26135432],[108.31290064,-7.26145425],[108.31310365,-7.26160257],[108.31306,-7.26166808],[108.3129214,-7.26187607],[108.3126625,-7.26220532],[108.31256276,-7.26230848],[108.31254134,-7.26232514],[108.31251993,-7.26233228],[108.31248662,-7.26233703],[108.31241334,-7.26246644],[108.31237478,-7.26253453],[108.31226057,-7.2627463],[108.31216777,-7.26291048],[108.31216301,-7.26298187],[108.3121465,-7.26304719],[108.31218895,-7.26317113],[108.31224367,-7.26333769],[108.31228888,-7.26345905],[108.31232484,-7.26354609],[108.31233409,-7.2635685],[108.31236741,-7.26365654],[108.3123912,-7.2637303],[108.31241975,-7.26381596],[108.31246258,-7.26394921],[108.31250066,-7.26405391],[108.31254587,-7.26419906],[108.31258394,-7.26438799],[108.31260059,-7.26449982],[108.31262915,-7.26464735],[108.31265294,-7.26479725],[108.31268149,-7.26494002],[108.31269807,-7.26506032],[108.31272282,-7.26517644],[108.31272899,-7.265207],[108.31260202,-7.26529363],[108.31252112,-7.26536026],[108.31245687,-7.26540785],[108.31238073,-7.26545544],[108.31232362,-7.26546733],[108.31225462,-7.26547923],[108.31221179,-7.26548399],[108.31214992,-7.26549351],[108.31205712,-7.26550541],[108.31200002,-7.26551016],[108.31193577,-7.26552444],[108.3118287,-7.26553634],[108.31172876,-7.26555062],[108.31164072,-7.26555775],[108.31154792,-7.26556965],[108.31144084,-7.26557679],[108.31132187,-7.26558869],[108.31121004,-7.26560296],[108.311122,-7.2656101],[108.31103871,-7.265622],[108.3110292,-7.26560296],[108.31102097,-7.26555714],[108.31101383,-7.26548813],[108.31102335,-7.26540723],[108.31103762,-7.26533109],[108.31104,-7.26524781],[108.31100431,-7.26516691],[108.31096148,-7.26509552],[108.31092579,-7.26496227],[108.31088058,-7.26481475],[108.31086154,-7.26472909],[108.31084489,-7.26461725],[108.31084727,-7.26450542],[108.31086154,-7.2642984],[108.31085441,-7.26403428],[108.31083061,-7.26396766],[108.31075685,-7.26385345],[108.31067357,-7.26372495],[108.3106117,-7.2636274],[108.31058553,-7.26360598],[108.31052128,-7.26356315],[108.31048321,-7.26353936],[108.31047603,-7.26353513],[108.31044276,-7.26351556],[108.31044038,-7.26337755],[108.31041183,-7.26333472],[108.31028096,-7.26315388],[108.31026668,-7.26310867],[108.31025478,-7.26302539],[108.31004301,-7.26279459],[108.30985979,-7.26258281],[108.30984789,-7.26255426],[108.30985784,-7.26245129],[108.30988121,-7.26220924],[108.30984313,-7.26203792],[108.30979792,-7.26180235],[108.3097432,-7.26153823],[108.30968371,-7.26130028],[108.30967419,-7.26126697],[108.30963519,-7.26120759],[108.30961324,-7.26117417],[108.30960062,-7.26088002],[108.3095414,-7.26069319],[108.30945304,-7.26057504],[108.30934413,-7.26052849],[108.30926529,-7.26050077],[108.30916475,-7.2604973],[108.30906981,-7.26050554],[108.30898891,-7.26043892],[108.30894132,-7.26039609],[108.30887945,-7.26035088],[108.30872003,-7.26025808],[108.30864151,-7.26020573],[108.30861057,-7.26018432],[108.30859207,-7.26015074],[108.30854633,-7.26006772],[108.30845829,-7.25989164],[108.3084107,-7.25971556],[108.30836778,-7.25960597],[108.30829886,-7.25943003],[108.30822034,-7.25922539],[108.30814896,-7.25900886],[108.30805821,-7.25880081],[108.3079849,-7.25863274],[108.30795384,-7.25856152],[108.30794698,-7.25854551],[108.3077338,-7.25826264],[108.30773063,-7.25824528],[108.30772695,-7.25822514],[108.30772544,-7.2582169],[108.30772332,-7.2582053],[108.30771983,-7.25818617],[108.30771719,-7.25817172],[108.30771602,-7.25816534],[108.30770035,-7.25807958],[108.30768355,-7.25794694],[108.30784919,-7.25794417],[108.30789661,-7.25794158],[108.30794692,-7.25793614],[108.30797996,-7.25793633],[108.30801446,-7.25793224],[108.30804464,-7.25792955],[108.30809349,-7.2579284],[108.30814232,-7.25793156],[108.30817972,-7.25792174],[108.30818265,-7.25791315],[108.30822716,-7.25791628],[108.30824014,-7.25790775],[108.30828611,-7.25790803],[108.30837084,-7.25791283],[108.30838957,-7.2579029],[108.30844847,-7.25790325],[108.3084801,-7.25789914],[108.30850021,-7.25789925],[108.30858931,-7.25789405],[108.30867265,-7.25789024],[108.30873013,-7.25788627],[108.30877182,-7.25788222],[108.30879484,-7.25787518],[108.30895289,-7.25787182],[108.30896871,-7.25786761],[108.30900315,-7.25787498],[108.30902757,-7.25787369],[108.3090549,-7.25786812],[108.30910232,-7.25786553],[108.30911958,-7.25786276],[108.30912975,-7.25784274],[108.30916704,-7.257853],[108.30918582,-7.2578359],[108.30922453,-7.25784904],[108.30928981,-7.25798283],[108.30931249,-7.25803461],[108.30937502,-7.25811675],[108.30942965,-7.2581099],[108.30947707,-7.25810731],[108.30971414,-7.25810154],[108.30977263,-7.25816931],[108.30988625,-7.25814703],[108.31005587,-7.25812939],[108.31006025,-7.25811794],[108.3101724,-7.25810139],[108.31024858,-7.25809324],[108.31030607,-7.25808927],[108.31037507,-7.25808107],[108.31041238,-7.25808847],[108.31050245,-7.25808063],[108.31077252,-7.25806745]]]}},{"type":"Feature","properties":{"Id":0.0,"Nama_RT":"RT 002","Luas":10.7071283273},"geometry":{"type":"Polygon","coordinates":[[[108.30993595,-7.25535796],[108.30995783,-7.25536166],[108.30997843,-7.25524039],[108.31000503,-7.2551187],[108.31000509,-7.25511841],[108.31024208,-7.255179],[108.31025522,-7.25514322],[108.31032546,-7.25516802],[108.31037274,-7.25518982],[108.31037409,-7.25520417],[108.31038689,-7.25522576],[108.31044004,-7.25522608],[108.31060075,-7.25525715],[108.31089667,-7.25530833],[108.31080686,-7.25535455],[108.31079045,-7.2553957],[108.31077036,-7.25545236],[108.31073587,-7.25551611],[108.31070204,-7.25556731],[108.31068658,-7.25559053],[108.3106701,-7.255675],[108.31064929,-7.25568176],[108.31063175,-7.25572903],[108.3106421,-7.25574902],[108.31065388,-7.25577828],[108.31066066,-7.25580898],[108.31066566,-7.25589],[108.31066213,-7.25596619],[108.31066206,-7.25596774],[108.3107,-7.25599333],[108.31084667,-7.25605167],[108.31086,-7.25606],[108.31088724,-7.25607956],[108.31093167,-7.25608333],[108.31099833,-7.25608667],[108.31157456,-7.25665623],[108.3116065,-7.25672097],[108.31162039,-7.25679995],[108.31160579,-7.25683932],[108.31162625,-7.25702233],[108.31127719,-7.25750297],[108.31077252,-7.25806745],[108.31050245,-7.25808063],[108.31041238,-7.25808847],[108.31037507,-7.25808107],[108.31030607,-7.25808927],[108.31024858,-7.25809324],[108.3101724,-7.25810139],[108.31006025,-7.25811794],[108.31005587,-7.25812939],[108.30988625,-7.25814703],[108.30977263,-7.25816931],[108.30971414,-7.25810154],[108.30947707,-7.25810731],[108.30942965,-7.2581099],[108.30937502,-7.25811675],[108.30931249,-7.25803461],[108.30928981,-7.25798283],[108.30922453,-7.25784904],[108.30918582,-7.2578359],[108.30916704,-7.257853],[108.30912975,-7.25784274],[108.30911958,-7.25786276],[108.30910232,-7.25786553],[108.3090549,-7.25786812],[108.30902757,-7.25787369],[108.30900315,-7.25787498],[108.30896871,-7.25786761],[108.30895289,-7.25787182],[108.30879484,-7.25787518],[108.30877182,-7.25788222],[108.30873013,-7.25788627],[108.30867265,-7.25789024],[108.30858931,-7.25789405],[108.30850021,-7.25789925],[108.3084801,-7.25789914],[108.30844847,-7.25790325],[108.30838957,-7.2579029],[108.30837084,-7.25791283],[108.30828611,-7.25790803],[108.30824014,-7.25790775],[108.30822716,-7.25791628],[108.30818265,-7.25791315],[108.30817972,-7.25792174],[108.30814232,-7.25793156],[108.30809349,-7.2579284],[108.30804464,-7.25792955],[108.30801446,-7.25793224],[108.30797996,-7.25793633],[108.30794692,-7.25793614],[108.30789661,-7.25794158],[108.30784919,-7.25794417],[108.30768355,-7.25794694],[108.30767194,-7.25781531],[108.30767851,-7.25774476],[108.30769811,-7.25753453],[108.30772077,-7.25743935],[108.30775159,-7.25730993],[108.3077849,-7.25722189],[108.30782773,-7.25710529],[108.30788484,-7.25695301],[108.3078936,-7.2569309],[108.30792509,-7.25685151],[108.30793265,-7.25683244],[108.30793957,-7.256815],[108.30794104,-7.25681117],[108.30799905,-7.25666033],[108.30803645,-7.25656174],[108.3080514,-7.25652233],[108.30807647,-7.2564519],[108.30810137,-7.25638194],[108.3081018,-7.25638072],[108.308113,-7.25634908],[108.30813465,-7.25628798],[108.30814182,-7.25626772],[108.30815107,-7.25619258],[108.30816086,-7.25611306],[108.30816479,-7.25605879],[108.30817248,-7.25595258],[108.30817275,-7.25594888],[108.30817648,-7.25584067],[108.30817751,-7.25581087],[108.30818941,-7.25576328],[108.30818941,-7.25569665],[108.30819378,-7.25562969],[108.30819565,-7.25560097],[108.30819655,-7.2555872],[108.30819302,-7.25553719],[108.30819014,-7.25549636],[108.30818717,-7.25545428],[108.30818506,-7.2554244],[108.30818293,-7.25539414],[108.30818055,-7.25536046],[108.3081587,-7.25520658],[108.30815485,-7.25517942],[108.30815111,-7.25515314],[108.30825499,-7.25515736],[108.3083088,-7.25516844],[108.30841528,-7.25517863],[108.30850136,-7.25519708],[108.30855879,-7.25520339],[108.30863778,-7.25520625],[108.3086892,-7.25521492],[108.3087131,-7.25522224],[108.30873823,-7.25522478],[108.30876455,-7.25522613],[108.30880523,-7.25522996],[108.30885069,-7.25523501],[108.30887818,-7.25524234],[108.30892605,-7.25524621],[108.30899429,-7.25524542],[108.30900379,-7.25525863],[108.30901815,-7.25525871],[108.30902409,-7.25526592],[108.30922029,-7.25528741],[108.30926815,-7.25529128],[108.30928487,-7.25529855],[108.3092932,-7.25530697],[108.30936262,-7.25530857],[108.3097038,-7.2553082],[108.30993595,-7.25535796]]]}},{"type":"Feature","properties":{"Id":0.0,"Nama_RT":"RT 003","Luas":13.7956079575},"geometry":{"type":"Polygon","coordinates":[[[108.31077252,-7.25806745],[108.31127719,-7.25750297],[108.31153634,-7.25714614],[108.31162625,-7.25702233],[108.31160579,-7.25683932],[108.31162039,-7.25679995],[108.3116065,-7.25672097],[108.31157456,-7.25665623],[108.31131048,-7.2563952],[108.31099833,-7.25608667],[108.31093167,-7.25608333],[108.31088724,-7.25607956],[108.31086,-7.25606],[108.31084667,-7.25605167],[108.3107,-7.25599333],[108.31066206,-7.25596774],[108.31066213,-7.25596619],[108.31066566,-7.25589],[108.3106633,-7.25585176],[108.31066066,-7.25580898],[108.31065388,-7.25577828],[108.3106421,-7.25574902],[108.31063175,-7.25572903],[108.31064929,-7.25568176],[108.3106701,-7.255675],[108.31068658,-7.25559053],[108.31073587,-7.25551611],[108.31077036,-7.25545236],[108.31080686,-7.25535455],[108.31089667,-7.25530833],[108.31100349,-7.25509937],[108.31103645,-7.25499198],[108.31111833,-7.255],[108.31121667,-7.254385],[108.31151667,-7.25438],[108.31147392,-7.25434225],[108.31252667,-7.25348833],[108.31262621,-7.25363301],[108.31276199,-7.25374858],[108.31301716,-7.25391983],[108.31321284,-7.25402858],[108.31345398,-7.25414238],[108.31365703,-7.25422008],[108.31382182,-7.25429039],[108.31398029,-7.25430771],[108.31398092,-7.25430873],[108.3139833,-7.25439677],[108.3139952,-7.25444198],[108.31403327,-7.25447292],[108.31411655,-7.25456809],[108.31417365,-7.25462758],[108.31421886,-7.25469659],[108.3142498,-7.25475369],[108.31427359,-7.25480366],[108.3143307,-7.25492025],[108.31430928,-7.25495833],[108.31425456,-7.25500116],[108.31419031,-7.25503923],[108.31411893,-7.25511299],[108.31408324,-7.25517962],[108.31406658,-7.25527004],[108.31406658,-7.25538425],[108.31406467,-7.25551997],[108.3140642,-7.25555319],[108.31407134,-7.25580066],[108.31407372,-7.25595532],[108.31407478,-7.25600716],[108.3140761,-7.25607191],[108.31405706,-7.25628607],[108.31404754,-7.25631938],[108.31401661,-7.25633365],[108.31398806,-7.25634793],[108.31398284,-7.25635247],[108.31396636,-7.25647896],[108.31396555,-7.25671183],[108.31396532,-7.25677813],[108.31391462,-7.25684599],[108.31384053,-7.25694518],[108.31383228,-7.25699194],[108.31381198,-7.25710698],[108.31379294,-7.2572093],[108.31374059,-7.25728068],[108.31366491,-7.25735965],[108.31357641,-7.257452],[108.31352882,-7.25750197],[108.31342888,-7.25785413],[108.31342311,-7.25788608],[108.31339795,-7.25802545],[108.31233703,-7.25805572],[108.31212667,-7.25804167],[108.31077246,-7.25806867],[108.31077252,-7.25806745]]]}},{"type":"Feature","properties":{"Id":0.0,"Nama_RT":"RT 005","Luas":3.21430322464},"geometry":{"type":"Polygon","coordinates":[[[108.31121667,-7.254385],[108.31111833,-7.255],[108.31103645,-7.25499198],[108.31092702,-7.25497651],[108.31095057,-7.25484157],[108.31094594,-7.25481524],[108.31093286,-7.25479962],[108.31095403,-7.25446025],[108.31090503,-7.25444681],[108.31085272,-7.25444674],[108.31075529,-7.25442274],[108.31073598,-7.25440971],[108.31069047,-7.25439223],[108.31068117,-7.25438643],[108.31071006,-7.25429946],[108.3106327,-7.25426314],[108.31064152,-7.25422876],[108.31045578,-7.25418104],[108.31047862,-7.25408292],[108.31043676,-7.25407669],[108.31040782,-7.25406556],[108.31038902,-7.25400628],[108.31036442,-7.25381367],[108.31032825,-7.25365506],[108.31028456,-7.25346914],[108.31038012,-7.25342059],[108.31043015,-7.25340214],[108.31046721,-7.25338847],[108.31059642,-7.25335778],[108.31078223,-7.25332785],[108.3109155,-7.25330638],[108.31115178,-7.25326712],[108.31122245,-7.25324856],[108.31127028,-7.25323143],[108.31131454,-7.25321215],[108.31135023,-7.25318717],[108.31141447,-7.25313649],[108.3114648,-7.25309031],[108.31149228,-7.2530651],[108.31153797,-7.25301656],[108.31160007,-7.25294518],[108.31169715,-7.25280812],[108.31178879,-7.25263155],[108.31182304,-7.25256554],[108.31185348,-7.25250688],[108.31205738,-7.25212371],[108.31223718,-7.25243605],[108.31231333,-7.25256833],[108.31245056,-7.25316012],[108.31247663,-7.25327254],[108.31252667,-7.25348833],[108.31233862,-7.25364086],[108.31207945,-7.25385109],[108.3119828,-7.25392948],[108.31196493,-7.25394398],[108.31154504,-7.25428456],[108.31147392,-7.25434225],[108.31151667,-7.25438],[108.31121667,-7.254385]]]}},{"type":"Feature","properties":{"Id":0.0,"Nama_RT":"RT 004","Luas":4.87796147618},"geometry":{"type":"Polygon","coordinates":[[[108.31089667,-7.25530833],[108.31082747,-7.25529636],[108.31060075,-7.25525715],[108.31044004,-7.25522608],[108.31038689,-7.25522576],[108.31037409,-7.25520417],[108.31037274,-7.25518982],[108.31032546,-7.25516802],[108.31025522,-7.25514322],[108.31024208,-7.255179],[108.31000509,-7.25511841],[108.31000503,-7.2551187],[108.30997843,-7.25524039],[108.30995783,-7.25536166],[108.30993595,-7.25535796],[108.3097038,-7.2553082],[108.30936262,-7.25530857],[108.3092932,-7.25530697],[108.30928487,-7.25529855],[108.30926815,-7.25529128],[108.30922029,-7.25528741],[108.30917308,-7.25528224],[108.30902409,-7.25526592],[108.30901815,-7.25525871],[108.30900379,-7.25525863],[108.30899429,-7.25524542],[108.30892605,-7.25524621],[108.30887818,-7.25524234],[108.30885069,-7.25523501],[108.30880523,-7.25522996],[108.30876455,-7.25522613],[108.30873823,-7.25522478],[108.3087131,-7.25522224],[108.3086892,-7.25521492],[108.30863778,-7.25520625],[108.30855879,-7.25520339],[108.30850136,-7.25519708],[108.30841528,-7.25517863],[108.3083088,-7.25516844],[108.30825499,-7.25515736],[108.30816327,-7.25515331],[108.30815111,-7.25515314],[108.30812785,-7.25498929],[108.30812334,-7.25495753],[108.30812345,-7.25495039],[108.30812516,-7.25483529],[108.30812754,-7.25475677],[108.30812814,-7.25475434],[108.30814783,-7.25467442],[108.30827817,-7.25443968],[108.308354,-7.25433598],[108.30839596,-7.25427861],[108.30842147,-7.25424374],[108.30847927,-7.25420012],[108.3084903,-7.2541918],[108.30852015,-7.25415],[108.30854473,-7.25412952],[108.30857726,-7.25410241],[108.30861091,-7.25407058],[108.30861175,-7.25406979],[108.3086653,-7.25401913],[108.30877714,-7.25392158],[108.30879483,-7.25390641],[108.3088271,-7.25387874],[108.30884852,-7.25383591],[108.30892466,-7.25373598],[108.30898053,-7.25365018],[108.30899129,-7.25363366],[108.30900157,-7.2536189],[108.30904602,-7.25355514],[108.30911264,-7.2534552],[108.3091864,-7.25335288],[108.30923875,-7.25327674],[108.30944533,-7.25337288],[108.30973698,-7.25344812],[108.30989458,-7.2534579],[108.31005838,-7.2534617],[108.31007733,-7.25357288],[108.310121,-7.25355337],[108.31024663,-7.25348841],[108.31028456,-7.25346914],[108.31032825,-7.25365506],[108.31036442,-7.25381367],[108.31038902,-7.25400628],[108.31040782,-7.25406556],[108.31043676,-7.25407669],[108.31047862,-7.25408292],[108.31045578,-7.25418104],[108.31064152,-7.25422876],[108.3106327,-7.25426314],[108.31071006,-7.25429946],[108.31068117,-7.25438643],[108.31069047,-7.25439223],[108.31073598,-7.25440971],[108.31075529,-7.25442274],[108.31085272,-7.25444674],[108.31090503,-7.25444681],[108.31095403,-7.25446025],[108.31093286,-7.25479962],[108.31094594,-7.25481524],[108.31095057,-7.25484157],[108.31092702,-7.25497651],[108.31103645,-7.25499198],[108.31100349,-7.25509937],[108.31089667,-7.25530833]]]}}]}