{
"type": "FeatureCollection",
"name": "Fasum",
"crs": { "type": "name", "properties": { "name": "urn:ogc:def:crs:OGC:1.3:CRS84" } },
"features": [
{ "type": "Feature", "properties": { "FID_": "0", "FID_1": 0, "OID_": 0, "Name": "Bank sampah rejeki ngampar", "FolderPath": "Fasilitas Umum Desa Gunung Sari/SSS", "SymbolID": 0.0, "X": 1.08310748333e+17, "Y": -7257973333000000.0, "Field9": null, "Field10": null, "Field11": null }, "geometry": { "type": "Point", "coordinates": [ 108310748333000000.0, -7257973333000000.0 ] } },
{ "type": "Feature", "properties": { "FID_": "1", "FID_1": 1, "OID_": 0, "Name": "BUMDES Bestari Gunungsari", "FolderPath": "Fasilitas Umum Desa Gunung Sari/SSS", "SymbolID": 0.0, "X": 1.0830479e+17, "Y": -7243190000000000.0, "Field9": null, "Field10": null, "Field11": null }, "geometry": { "type": "Point", "coordinates": [ 108304789999999008.0, -7243190000000000.0 ] } },
{ "type": "Feature", "properties": { "FID_": "2", "FID_1": 2, "OID_": 0, "Name": "Madrasah alfalah", "FolderPath": "Fasilitas Umum Desa Gunung Sari/SSS", "SymbolID": 0.0, "X": 1.0830517666700002e+17, "Y": -7250061667000000.0, "Field9": null, "Field10": null, "Field11": null }, "geometry": { "type": "Point", "coordinates": [ 108305176666999008.0, -7250061667000000.0 ] } },
{ "type": "Feature", "properties": { "FID_": "3", "FID_1": 3, "OID_": 0, "Name": "Masjid al-inayah", "FolderPath": "Fasilitas Umum Desa Gunung Sari/SSS", "SymbolID": 0.0, "X": 1.08307381667e+17, "Y": -7255076667000000.0, "Field9": null, "Field10": null, "Field11": null }, "geometry": { "type": "Point", "coordinates": [ 108307381667000000.0, -7255076667000000.0 ] } },
{ "type": "Feature", "properties": { "FID_": "4", "FID_1": 4, "OID_": 0, "Name": "Masjid al-mubarok", "FolderPath": "Fasilitas Umum Desa Gunung Sari/SSS", "SymbolID": 0.0, "X": 1.08306535e+17, "Y": -7244230000000000.0, "Field9": null, "Field10": null, "Field11": null }, "geometry": { "type": "Point", "coordinates": [ 108306534999999008.0, -7244230000000000.0 ] } },
{ "type": "Feature", "properties": { "FID_": "5", "FID_1": 5, "OID_": 0, "Name": "Masjid An-nur", "FolderPath": "Fasilitas Umum Desa Gunung Sari/SSS", "SymbolID": 0.0, "X": 1.08304711667e+17, "Y": -7250278333000001.0, "Field9": null, "Field10": null, "Field11": null }, "geometry": { "type": "Point", "coordinates": [ 108304711667000000.0, -7250278333000000.0 ] } },
{ "type": "Feature", "properties": { "FID_": "6", "FID_1": 6, "OID_": 0, "Name": "Masjid at-thohari", "FolderPath": "Fasilitas Umum Desa Gunung Sari/SSS", "SymbolID": 0.0, "X": 1.08302423333e+17, "Y": -7249176667000000.0, "Field9": null, "Field10": null, "Field11": null }, "geometry": { "type": "Point", "coordinates": [ 108302423332999008.0, -7249176667000000.0 ] } },
{ "type": "Feature", "properties": { "FID_": "7", "FID_1": 7, "OID_": 0, "Name": "Masjid Miftahul Hasanah", "FolderPath": "Fasilitas Umum Desa Gunung Sari/SSS", "SymbolID": 0.0, "X": 1.0830655833300002e+17, "Y": -7253880000000000.0, "Field9": null, "Field10": null, "Field11": null }, "geometry": { "type": "Point", "coordinates": [ 108306558332999008.0, -7253880000000000.0 ] } },
{ "type": "Feature", "properties": { "FID_": "8", "FID_1": 8, "OID_": 0, "Name": "Masjid miftahul saadah", "FolderPath": "Fasilitas Umum Desa Gunung Sari/SSS", "SymbolID": 0.0, "X": 1.0830994666699998e+17, "Y": -7253126666999999.0, "Field9": null, "Field10": null, "Field11": null }, "geometry": { "type": "Point", "coordinates": [ 108309946667000000.0, -7253126667000000.0 ] } },
{ "type": "Feature", "properties": { "FID_": "9", "FID_1": 9, "OID_": 0, "Name": "Masjid Nurul Iman", "FolderPath": "Fasilitas Umum Desa Gunung Sari/SSS", "SymbolID": 0.0, "X": 1.0831204666700002e+17, "Y": -7251454999999999.0, "Field9": null, "Field10": null, "Field11": null }, "geometry": { "type": "Point", "coordinates": [ 108312046667000000.0, -7251455000000000.0 ] } },
{ "type": "Feature", "properties": { "FID_": "10", "FID_1": 10, "OID_": 0, "Name": "MTS AT-TABIYAH GUNUNG SARi", "FolderPath": "Fasilitas Umum Desa Gunung Sari/SSS", "SymbolID": 0.0, "X": 1.0831014e+17, "Y": -7252825000000001.0, "Field9": null, "Field10": null, "Field11": null }, "geometry": { "type": "Point", "coordinates": [ 108310140000000000.0, -7252825000000000.0 ] } },
{ "type": "Feature", "properties": { "FID_": "11", "FID_1": 11, "OID_": 0, "Name": "Paud Kober Tunas Harapan", "FolderPath": "Fasilitas Umum Desa Gunung Sari/SSS", "SymbolID": 0.0, "X": 1.0831073881800002e+17, "Y": -7257418809000000.0, "Field9": null, "Field10": null, "Field11": null }, "geometry": { "type": "Point", "coordinates": [ 108310738818000000.0, -7257418809000000.0 ] } },
{ "type": "Feature", "properties": { "FID_": "12", "FID_1": 12, "OID_": 0, "Name": "Ponpes Riyadul Mubtadin", "FolderPath": "Fasilitas Umum Desa Gunung Sari/SSS", "SymbolID": 0.0, "X": 1.08305861667e+17, "Y": -7253860000000001.0, "Field9": null, "Field10": null, "Field11": null }, "geometry": { "type": "Point", "coordinates": [ 108305861667000000.0, -7253860000000000.0 ] } },
{ "type": "Feature", "properties": { "FID_": "13", "FID_1": 13, "OID_": 0, "Name": "SDN 1 Gunung Sari", "FolderPath": "Fasilitas Umum Desa Gunung Sari/SSS", "SymbolID": 0.0, "X": 1.0831069833300002e+17, "Y": -7260021667000000.0, "Field9": null, "Field10": null, "Field11": null }, "geometry": { "type": "Point", "coordinates": [ 108310698333000000.0, -7260021667000000.0 ] } },
{ "type": "Feature", "properties": { "FID_": "14", "FID_1": 14, "OID_": 0, "Name": "TPU Bangsa Wijaya", "FolderPath": "Fasilitas Umum Desa Gunung Sari/SSS", "SymbolID": 0.0, "X": 1.0830658378699998e+17, "Y": -7247973787000000.0, "Field9": null, "Field10": null, "Field11": null }, "geometry": { "type": "Point", "coordinates": [ 108306583786999008.0, -7247973787000000.0 ] } },
{ "type": "Feature", "properties": { "FID_": "15", "FID_1": 15, "OID_": 0, "Name": "Warung pojok Teh liin", "FolderPath": "Fasilitas Umum Desa Gunung Sari/SSS", "SymbolID": 0.0, "X": 1.08310081667e+17, "Y": -7252460000000000.0, "Field9": null, "Field10": null, "Field11": null }, "geometry": { "type": "Point", "coordinates": [ 108310081667000000.0, -7252460000000000.0 ] } },
{ "type": "Feature", "properties": { "FID_": "16", "FID_1": 16, "OID_": 0, "Name": "Wc Umum cadas ngampar", "FolderPath": "Fasilitas Umum Desa Gunung Sari/SSS", "SymbolID": 0.0, "X": 1.0830895e+17, "Y": -7248691667000000.0, "Field9": null, "Field10": null, "Field11": null }, "geometry": { "type": "Point", "coordinates": [ 108308949999999008.0, -7248691667000000.0 ] } },
{ "type": "Feature", "properties": { "FID_": "17", "FID_1": 17, "OID_": 0, "Name": "Yayasan al-wildan", "FolderPath": "Fasilitas Umum Desa Gunung Sari/SSS", "SymbolID": 0.0, "X": 1.0831249666699998e+17, "Y": -7264211667000000.0, "Field9": null, "Field10": null, "Field11": null }, "geometry": { "type": "Point", "coordinates": [ 108312496667000000.0, -7264211667000000.0 ] } },
{ "type": "Feature", "properties": { "FID_": "18", "FID_1": 18, "OID_": 0, "Name": "Bumdes gunungsari", "FolderPath": "Fasilitas Umum Desa Gunung Sari/SSS", "SymbolID": 0.0, "X": 1.0831052488600002e+17, "Y": -7259353269000000.0, "Field9": null, "Field10": null, "Field11": null }, "geometry": { "type": "Point", "coordinates": [ 108310524885999008.0, -7259353269000000.0 ] } },
{ "type": "Feature", "properties": { "FID_": "19", "FID_1": 19, "OID_": 0, "Name": "kantor desa gunungsari", "FolderPath": "Fasilitas Umum Desa Gunung Sari/SSS", "SymbolID": 0.0, "X": 1.0831047602e+17, "Y": -7259464581000000.0, "Field9": null, "Field10": null, "Field11": null }, "geometry": { "type": "Point", "coordinates": [ 108310476019999008.0, -7259464581000000.0 ] } },
{ "type": "Feature", "properties": { "FID_": "20", "FID_1": 20, "OID_": 0, "Name": "Lapangan Volly Cikatomas", "FolderPath": "Fasilitas Umum Desa Gunung Sari/SSS", "SymbolID": 0.0, "X": 1.08307697419e+17, "Y": -7250769895000000.0, "Field9": null, "Field10": null, "Field11": null }, "geometry": { "type": "Point", "coordinates": [ 108307697418999008.0, -7250769895000000.0 ] } },
{ "type": "Feature", "properties": { "FID_": "21", "FID_1": 21, "OID_": 0, "Name": "lapangan sepakbola desa gunungsari", "FolderPath": "Fasilitas Umum Desa Gunung Sari/SSS", "SymbolID": 0.0, "X": 1.0831064860300002e+17, "Y": -7260602592000000.0, "Field9": null, "Field10": null, "Field11": null }, "geometry": { "type": "Point", "coordinates": [ 108310648603000000.0, -7260602592000000.0 ] } },
{ "type": "Feature", "properties": { "FID_": "22", "FID_1": 22, "OID_": 0, "Name": "madrasah alfaqih", "FolderPath": "Fasilitas Umum Desa Gunung Sari/SSS", "SymbolID": 0.0, "X": 1.08307243371e+17, "Y": -7251606211000000.0, "Field9": null, "Field10": null, "Field11": null }, "geometry": { "type": "Point", "coordinates": [ 108307243370999008.0, -7251606211000000.0 ] } },
{ "type": "Feature", "properties": { "FID_": "23", "FID_1": 23, "OID_": 0, "Name": "Madrasah Nasru Sa'adah", "FolderPath": "Fasilitas Umum Desa Gunung Sari/SSS", "SymbolID": 0.0, "X": 1.08310105959e+17, "Y": -7254650812000000.0, "Field9": null, "Field10": null, "Field11": null }, "geometry": { "type": "Point", "coordinates": [ 108310105958999008.0, -7254650812000000.0 ] } },
{ "type": "Feature", "properties": { "FID_": "24", "FID_1": 24, "OID_": 0, "Name": "madrasah ibtidaiyah cikatomas", "FolderPath": "Fasilitas Umum Desa Gunung Sari/SSS", "SymbolID": 0.0, "X": 1.083085512e+17, "Y": -7250281200000001.0, "Field9": null, "Field10": null, "Field11": null }, "geometry": { "type": "Point", "coordinates": [ 108308551199999008.0, -7250281200000000.0 ] } },
{ "type": "Feature", "properties": { "FID_": "25", "FID_1": 25, "OID_": 0, "Name": "Masjid Miftahul Khoer", "FolderPath": "Fasilitas Umum Desa Gunung Sari/SSS", "SymbolID": 0.0, "X": 1.08307221746e+17, "Y": -7251576161999999.0, "Field9": null, "Field10": null, "Field11": null }, "geometry": { "type": "Point", "coordinates": [ 108307221745999008.0, -7251576162000000.0 ] } },
{ "type": "Feature", "properties": { "FID_": "26", "FID_1": 26, "OID_": 0, "Name": "masjid jami alqoriah", "FolderPath": "Fasilitas Umum Desa Gunung Sari/SSS", "SymbolID": 0.0, "X": 1.08308029426e+17, "Y": -7244679742000000.0, "Field9": null, "Field10": null, "Field11": null }, "geometry": { "type": "Point", "coordinates": [ 108308029426000000.0, -7244679742000000.0 ] } },
{ "type": "Feature", "properties": { "FID_": "27", "FID_1": 27, "OID_": 0, "Name": "Masjid Ar-Rahim", "FolderPath": "Fasilitas Umum Desa Gunung Sari/SSS", "SymbolID": 0.0, "X": 1.08310427656e+17, "Y": -7259711302000000.0, "Field9": null, "Field10": null, "Field11": null }, "geometry": { "type": "Point", "coordinates": [ 108310427656000000.0, -7259711302000000.0 ] } },
{ "type": "Feature", "properties": { "FID_": "28", "FID_1": 28, "OID_": 0, "Name": "masjid nash rusaadah", "FolderPath": "Fasilitas Umum Desa Gunung Sari/SSS", "SymbolID": 0.0, "X": 1.0831005332100002e+17, "Y": -7254618122000001.0, "Field9": null, "Field10": null, "Field11": null }, "geometry": { "type": "Point", "coordinates": [ 108310053320999008.0, -7254618122000000.0 ] } },
{ "type": "Feature", "properties": { "FID_": "29", "FID_1": 29, "OID_": 0, "Name": "masjid nurul huda rt 20", "FolderPath": "Fasilitas Umum Desa Gunung Sari/SSS", "SymbolID": 0.0, "X": 1.08306928882e+17, "Y": -7244457495000000.0, "Field9": null, "Field10": null, "Field11": null }, "geometry": { "type": "Point", "coordinates": [ 108306928881999008.0, -7244457495000000.0 ] } },
{ "type": "Feature", "properties": { "FID_": "30", "FID_1": 30, "OID_": 0, "Name": "Masjid Nurul Falah", "FolderPath": "Fasilitas Umum Desa Gunung Sari/SSS", "SymbolID": 0.0, "X": 1.08306673486e+17, "Y": -7255267593999999.0, "Field9": null, "Field10": null, "Field11": null }, "geometry": { "type": "Point", "coordinates": [ 108306673485999008.0, -7255267594000000.0 ] } },
{ "type": "Feature", "properties": { "FID_": "31", "FID_1": 31, "OID_": 0, "Name": "paud nurul yaqin", "FolderPath": "Fasilitas Umum Desa Gunung Sari/SSS", "SymbolID": 0.0, "X": 1.08307193438e+17, "Y": -7251757128000000.0, "Field9": null, "Field10": null, "Field11": null }, "geometry": { "type": "Point", "coordinates": [ 108307193437999008.0, -7251757128000000.0 ] } },
{ "type": "Feature", "properties": { "FID_": "32", "FID_1": 32, "OID_": 0, "Name": "penggilingan padi rt 19", "FolderPath": "Fasilitas Umum Desa Gunung Sari/SSS", "SymbolID": 0.0, "X": 1.0830765576099998e+17, "Y": -7245346606000000.0, "Field9": null, "Field10": null, "Field11": null }, "geometry": { "type": "Point", "coordinates": [ 108307655761000000.0, -7245346606000000.0 ] } },
{ "type": "Feature", "properties": { "FID_": "33", "FID_1": 33, "OID_": 0, "Name": "Mushola RT 03", "FolderPath": "Fasilitas Umum Desa Gunung Sari/SSS", "SymbolID": 0.0, "X": 1.08312120214e+17, "Y": -7258005920000000.0, "Field9": null, "Field10": null, "Field11": null }, "geometry": { "type": "Point", "coordinates": [ 108312120214000000.0, -7258005920000000.0 ] } },
{ "type": "Feature", "properties": { "FID_": "34", "FID_1": 34, "OID_": 0, "Name": "pos kamling rt 4", "FolderPath": "Fasilitas Umum Desa Gunung Sari/SSS", "SymbolID": 0.0, "X": 1.0831009171e+17, "Y": -7254430745000000.0, "Field9": null, "Field10": null, "Field11": null }, "geometry": { "type": "Point", "coordinates": [ 108310091709999008.0, -7254430745000000.0 ] } },
{ "type": "Feature", "properties": { "FID_": "35", "FID_1": 35, "OID_": 0, "Name": "Paud sps taam almadani", "FolderPath": "Fasilitas Umum Desa Gunung Sari/SSS", "SymbolID": 0.0, "X": 1.08306945801e+17, "Y": -7253482342000000.0, "Field9": null, "Field10": null, "Field11": null }, "geometry": { "type": "Point", "coordinates": [ 108306945800999008.0, -7253482342000000.0 ] } },
{ "type": "Feature", "properties": { "FID_": "36", "FID_1": 36, "OID_": 0, "Name": "poskesdes kantor desa", "FolderPath": "Fasilitas Umum Desa Gunung Sari/SSS", "SymbolID": 0.0, "X": 1.08310593115e+17, "Y": -7259703884000000.0, "Field9": null, "Field10": null, "Field11": null }, "geometry": { "type": "Point", "coordinates": [ 108310593115000000.0, -7259703884000000.0 ] } },
{ "type": "Feature", "properties": { "FID_": "37", "FID_1": 37, "OID_": 0, "Name": "posyandu anggrek", "FolderPath": "Fasilitas Umum Desa Gunung Sari/SSS", "SymbolID": 0.0, "X": 1.08307171622e+17, "Y": -7251812867000000.0, "Field9": null, "Field10": null, "Field11": null }, "geometry": { "type": "Point", "coordinates": [ 108307171621999008.0, -7251812867000000.0 ] } },
{ "type": "Feature", "properties": { "FID_": "38", "FID_1": 38, "OID_": 0, "Name": "Tempat Penggilingan Padi RT 20", "FolderPath": "Fasilitas Umum Desa Gunung Sari/SSS", "SymbolID": 0.0, "X": 1.0830755861499998e+17, "Y": -7244870514000000.0, "Field9": null, "Field10": null, "Field11": null }, "geometry": { "type": "Point", "coordinates": [ 108307558615000000.0, -7244870514000000.0 ] } },
{ "type": "Feature", "properties": { "FID_": "39", "FID_1": 39, "OID_": 0, "Name": "sma it al wildan aslsolihin", "FolderPath": "Fasilitas Umum Desa Gunung Sari/SSS", "SymbolID": 0.0, "X": 1.0831106350800002e+17, "Y": -7260798896000000.0, "Field9": null, "Field10": null, "Field11": null }, "geometry": { "type": "Point", "coordinates": [ 108311063508000000.0, -7260798896000000.0 ] } },
{ "type": "Feature", "properties": { "FID_": "40", "FID_1": 40, "OID_": 0, "Name": "TPU Dusun Desa", "FolderPath": "Fasilitas Umum Desa Gunung Sari/SSS", "SymbolID": 0.0, "X": 1.08311898177e+17, "Y": -7258526687999999.0, "Field9": null, "Field10": null, "Field11": null }, "geometry": { "type": "Point", "coordinates": [ 108311898177000000.0, -7258526688000000.0 ] } },
{ "type": "Feature", "properties": { "FID_": "41", "FID_1": 41, "OID_": 0, "Name": "Ayam Petelur RT 001", "FolderPath": "Fasilitas Umum Desa Gunung Sari/SSS", "SymbolID": 0.0, "X": 1.0831166166699998e+17, "Y": -7256923333000001.0, "Field9": null, "Field10": null, "Field11": null }, "geometry": { "type": "Point", "coordinates": [ 108311661666999008.0, -7256923333000000.0 ] } },
{ "type": "Feature", "properties": { "FID_": "42", "FID_1": 42, "OID_": 0, "Name": "DI Madrasah Ibtidaiyah Cikatomas", "FolderPath": "Fasilitas Umum Desa Gunung Sari/SSS", "SymbolID": 0.0, "X": 1.08308468333e+17, "Y": -7250313333000000.0, "Field9": null, "Field10": null, "Field11": null }, "geometry": { "type": "Point", "coordinates": [ 108308468332999008.0, -7250313333000000.0 ] } },
{ "type": "Feature", "properties": { "FID_": "43", "FID_1": 43, "OID_": 0, "Name": "Kamar Mandi (Cadas)", "FolderPath": "Fasilitas Umum Desa Gunung Sari/SSS", "SymbolID": 0.0, "X": 1.08308906667e+17, "Y": -7248738891000000.0, "Field9": null, "Field10": null, "Field11": null }, "geometry": { "type": "Point", "coordinates": [ 108308906667000000.0, -7248738891000000.0 ] } },
{ "type": "Feature", "properties": { "FID_": "44", "FID_1": 44, "OID_": 0, "Name": "Kamar Mandi + Mushola (Cadas)", "FolderPath": "Fasilitas Umum Desa Gunung Sari/SSS", "SymbolID": 0.0, "X": 1.0830893e+17, "Y": -7248686667000000.0, "Field9": null, "Field10": null, "Field11": null }, "geometry": { "type": "Point", "coordinates": [ 108308930000000000.0, -7248686667000000.0 ] } },
{ "type": "Feature", "properties": { "FID_": "45", "FID_1": 45, "OID_": 0, "Name": "Madrasah Alhasan", "FolderPath": "Fasilitas Umum Desa Gunung Sari/SSS", "SymbolID": 0.0, "X": 1.0830831833300002e+17, "Y": -7250625734000000.0, "Field9": null, "Field10": null, "Field11": null }, "geometry": { "type": "Point", "coordinates": [ 108308318333000000.0, -7250625734000000.0 ] } },
{ "type": "Feature", "properties": { "FID_": "46", "FID_1": 46, "OID_": 0, "Name": "Madrasah Ar-Rohim RT 001", "FolderPath": "Fasilitas Umum Desa Gunung Sari/SSS", "SymbolID": 0.0, "X": 1.08312038333e+17, "Y": -7260725000000001.0, "Field9": null, "Field10": null, "Field11": null }, "geometry": { "type": "Point", "coordinates": [ 108312038333000000.0, -7260725000000000.0 ] } },
{ "type": "Feature", "properties": { "FID_": "47", "FID_1": 47, "OID_": 0, "Name": "Masjid Arrohman RT 001", "FolderPath": "Fasilitas Umum Desa Gunung Sari/SSS", "SymbolID": 0.0, "X": 1.08311926667e+17, "Y": -7260755000000000.0, "Field9": null, "Field10": null, "Field11": null }, "geometry": { "type": "Point", "coordinates": [ 108311926666999008.0, -7260755000000000.0 ] } },
{ "type": "Feature", "properties": { "FID_": "48", "FID_1": 48, "OID_": 0, "Name": "Masjid Al-Inayah", "FolderPath": "Fasilitas Umum Desa Gunung Sari/SSS", "SymbolID": 0.0, "X": 1.0830833051e+17, "Y": -7249305567000000.0, "Field9": null, "Field10": null, "Field11": null }, "geometry": { "type": "Point", "coordinates": [ 108308330510000000.0, -7249305567000000.0 ] } },
{ "type": "Feature", "properties": { "FID_": "49", "FID_1": 49, "OID_": 0, "Name": "Masjid Al-Mutmainah", "FolderPath": "Fasilitas Umum Desa Gunung Sari/SSS", "SymbolID": 0.0, "X": 1.0830849e+17, "Y": -7248138332999999.0, "Field9": null, "Field10": null, "Field11": null }, "geometry": { "type": "Point", "coordinates": [ 108308490000000000.0, -7248138333000000.0 ] } },
{ "type": "Feature", "properties": { "FID_": "50", "FID_1": 50, "OID_": 0, "Name": "Mesjid Al-Amanah", "FolderPath": "Fasilitas Umum Desa Gunung Sari/SSS", "SymbolID": 0.0, "X": 1.0830598e+17, "Y": -7243331667000000.0, "Field9": null, "Field10": null, "Field11": null }, "geometry": { "type": "Point", "coordinates": [ 108305980000000000.0, -7243331667000000.0 ] } },
{ "type": "Feature", "properties": { "FID_": "51", "FID_1": 51, "OID_": 0, "Name": "Mesjid Jami Al Hasan", "FolderPath": "Fasilitas Umum Desa Gunung Sari/SSS", "SymbolID": 0.0, "X": 1.08308276667e+17, "Y": -7250680000000000.0, "Field9": null, "Field10": null, "Field11": null }, "geometry": { "type": "Point", "coordinates": [ 108308276667000000.0, -7250680000000000.0 ] } },
{ "type": "Feature", "properties": { "FID_": "52", "FID_1": 52, "OID_": 0, "Name": "Musholla Cadas", "FolderPath": "Fasilitas Umum Desa Gunung Sari/SSS", "SymbolID": 0.0, "X": 1.0830892833300002e+17, "Y": -7248673377999999.0, "Field9": null, "Field10": null, "Field11": null }, "geometry": { "type": "Point", "coordinates": [ 108308928332999008.0, -7248673378000000.0 ] } },
{ "type": "Feature", "properties": { "FID_": "53", "FID_1": 53, "OID_": 0, "Name": "Pos Ronda Blok Jagabaya", "FolderPath": "Fasilitas Umum Desa Gunung Sari/SSS", "SymbolID": 0.0, "X": 1.0830839e+17, "Y": -7250213332999999.0, "Field9": null, "Field10": null, "Field11": null }, "geometry": { "type": "Point", "coordinates": [ 108308390000000000.0, -7250213333000000.0 ] } },
{ "type": "Feature", "properties": { "FID_": "54", "FID_1": 54, "OID_": 0, "Name": "River Tubing Cadas Pangeran", "FolderPath": "Fasilitas Umum Desa Gunung Sari/SSS", "SymbolID": 0.0, "X": 1.08309146749e+17, "Y": -7250204249999999.0, "Field9": null, "Field10": null, "Field11": null }, "geometry": { "type": "Point", "coordinates": [ 108309146749000000.0, -7250204250000000.0 ] } },
{ "type": "Feature", "properties": { "FID_": "55", "FID_1": 55, "OID_": 0, "Name": "Toilet Umum (Cadas)", "FolderPath": "Fasilitas Umum Desa Gunung Sari/SSS", "SymbolID": 0.0, "X": 1.0830894e+17, "Y": -7248650000000000.0, "Field9": null, "Field10": null, "Field11": null }, "geometry": { "type": "Point", "coordinates": [ 108308940000000000.0, -7248650000000000.0 ] } },
{ "type": "Feature", "properties": { "FID_": "56", "FID_1": 56, "OID_": 0, "Name": "Masjid jami miftahul mubtadin", "FolderPath": "Fasilitas Umum Desa Gunung Sari/SSS", "SymbolID": 0.0, "X": 1.08306753333e+17, "Y": -7252521667000000.0, "Field9": null, "Field10": null, "Field11": null }, "geometry": { "type": "Point", "coordinates": [ 108306753333000000.0, -7252521667000000.0 ] } }
]
}
