{
"type": "FeatureCollection",
"name": "umkm",
"crs": { "type": "name", "properties": { "name": "urn:ogc:def:crs:OGC:1.3:CRS84" } },
"features": [
{ "type": "Feature", "properties": { "Name": "265 riverside", "description": null, "timestamp": "2026-07-06T11:59:19+07:00", "begin": null, "end": null, "altitudeMode": null, "tessellate": -1, "extrude": 0, "visibility": -1, "drawOrder": null, "icon": null }, "geometry": { "type": "Point", "coordinates": [ 108.308973333333, -7.24864833333336, 498.820007324218921 ] } },
{ "type": "Feature", "properties": { "Name": "Asri cell", "description": null, "timestamp": "2026-07-11T08:33:35+07:00", "begin": null, "end": null, "altitudeMode": null, "tessellate": -1, "extrude": 0, "visibility": -1, "drawOrder": null, "icon": null }, "geometry": { "type": "Point", "coordinates": [ 108.31239, -7.25131666666667, 546.178100585937955 ] } },
{ "type": "Feature", "properties": { "Name": "Batagor Siomay Bandung Idaman", "description": null, "timestamp": "2026-07-01T10:03:19+07:00", "begin": null, "end": null, "altitudeMode": null, "tessellate": -1, "extrude": 0, "visibility": -1, "drawOrder": null, "icon": null }, "geometry": { "type": "Point", "coordinates": [ 108.309946666667003, -7.25548, 476.696014404296989 ] } },
{ "type": "Feature", "properties": { "Name": "Bengkel Las Generasi Teknik", "description": null, "timestamp": "2026-07-01T10:05:34+07:00", "begin": null, "end": null, "altitudeMode": null, "tessellate": -1, "extrude": 0, "visibility": -1, "drawOrder": null, "icon": null }, "geometry": { "type": "Point", "coordinates": [ 108.31004, -7.255341666666659, 477.958648681641023 ] } },
{ "type": "Feature", "properties": { "Name": "Depot air Agunsa", "description": null, "timestamp": "2026-07-11T09:39:07+07:00", "begin": null, "end": null, "altitudeMode": null, "tessellate": -1, "extrude": 0, "visibility": -1, "drawOrder": null, "icon": null }, "geometry": { "type": "Point", "coordinates": [ 108.310185, -7.25567, 475.510833740233977 ] } },
{ "type": "Feature", "properties": { "Name": "Fitria wedding", "description": null, "timestamp": "2026-06-30T09:44:57+07:00", "begin": null, "end": null, "altitudeMode": null, "tessellate": -1, "extrude": 0, "visibility": -1, "drawOrder": null, "icon": null }, "geometry": { "type": "Point", "coordinates": [ 108.307316666667006, -7.25149833333334, 503.063995361328011 ] } },
{ "type": "Feature", "properties": { "Name": "Pabrik  Idaman", "description": null, "timestamp": "2026-06-30T09:02:33+07:00", "begin": null, "end": null, "altitudeMode": null, "tessellate": -1, "extrude": 0, "visibility": -1, "drawOrder": null, "icon": null }, "geometry": { "type": "Point", "coordinates": [ 108.30377, -7.24993666666669, 533.148742675781023 ] } },
{ "type": "Feature", "properties": { "Name": "PD Ridwan", "description": null, "timestamp": "2026-06-30T09:23:36+07:00", "begin": null, "end": null, "altitudeMode": null, "tessellate": -1, "extrude": 0, "visibility": -1, "drawOrder": null, "icon": null }, "geometry": { "type": "Point", "coordinates": [ 108.305458333332993, -7.250566666666671, 515.692016601562045 ] } },
{ "type": "Feature", "properties": { "Name": "PD Ridwan", "description": null, "timestamp": "2026-06-30T09:32:44+07:00", "begin": null, "end": null, "altitudeMode": null, "tessellate": -1, "extrude": 0, "visibility": -1, "drawOrder": null, "icon": null }, "geometry": { "type": "Point", "coordinates": [ 108.305963333332997, -7.250595, 515.247253417968977 ] } },
{ "type": "Feature", "properties": { "Name": "Qilla Cell", "description": null, "timestamp": "2026-07-01T10:02:21+07:00", "begin": null, "end": null, "altitudeMode": null, "tessellate": -1, "extrude": 0, "visibility": -1, "drawOrder": null, "icon": null }, "geometry": { "type": "Point", "coordinates": [ 108.310001666667006, -7.25559833333337, 476.991241455078011 ] } },
{ "type": "Feature", "properties": { "Name": "Rent Car EYQ", "description": null, "timestamp": "2026-07-11T08:48:23+07:00", "begin": null, "end": null, "altitudeMode": null, "tessellate": -1, "extrude": 0, "visibility": -1, "drawOrder": null, "icon": null }, "geometry": { "type": "Point", "coordinates": [ 108.310319601063995, -7.2529518379669, 496.405242919921875 ] } },
{ "type": "Feature", "properties": { "Name": "Rin Hidroponik", "description": null, "timestamp": "2026-07-01T09:42:26+07:00", "begin": null, "end": null, "altitudeMode": null, "tessellate": -1, "extrude": 0, "visibility": -1, "drawOrder": null, "icon": null }, "geometry": { "type": "Point", "coordinates": [ 108.310809247012998, -7.258576297965831, 464.051605224608977 ] } },
{ "type": "Feature", "properties": { "Name": "Rumah Produksi Pd Ridwan", "description": null, "timestamp": "2026-07-11T09:51:57+07:00", "begin": null, "end": null, "altitudeMode": null, "tessellate": -1, "extrude": 0, "visibility": -1, "drawOrder": null, "icon": null }, "geometry": { "type": "Point", "coordinates": [ 108.304131666667004, -7.24975166666668, 532.781372070312045 ] } },
{ "type": "Feature", "properties": { "Name": "Saung Batu karut", "description": null, "timestamp": "2026-07-06T12:13:30+07:00", "begin": null, "end": null, "altitudeMode": null, "tessellate": -1, "extrude": 0, "visibility": -1, "drawOrder": null, "icon": null }, "geometry": { "type": "Point", "coordinates": [ 108.30955, -7.24704833333334, 508.579650878906023 ] } },
{ "type": "Feature", "properties": { "Name": "Saung seblak Cadas ngampar", "description": null, "timestamp": "2026-07-06T11:54:44+07:00", "begin": null, "end": null, "altitudeMode": null, "tessellate": -1, "extrude": 0, "visibility": -1, "drawOrder": null, "icon": null }, "geometry": { "type": "Point", "coordinates": [ 108.308978333333002, -7.24878, 497.817993164061988 ] } },
{ "type": "Feature", "properties": { "Name": "Seblak goceng", "description": null, "timestamp": "2026-07-01T11:41:58+07:00", "begin": null, "end": null, "altitudeMode": null, "tessellate": -1, "extrude": 0, "visibility": -1, "drawOrder": null, "icon": null }, "geometry": { "type": "Point", "coordinates": [ 108.310205, -7.25468166666667, 485.245483398438012 ] } },
{ "type": "Feature", "properties": { "Name": "Seblak jeuleunggeng", "description": null, "timestamp": "2026-07-11T08:25:21+07:00", "begin": null, "end": null, "altitudeMode": null, "tessellate": -1, "extrude": 0, "visibility": -1, "drawOrder": null, "icon": null }, "geometry": { "type": "Point", "coordinates": [ 108.311766666666998, -7.25266833333334, 522.117980957031023 ] } },
{ "type": "Feature", "properties": { "Name": "SIBUNGSU CELL", "description": null, "timestamp": "2026-06-30T09:58:25+07:00", "begin": null, "end": null, "altitudeMode": null, "tessellate": -1, "extrude": 0, "visibility": -1, "drawOrder": null, "icon": null }, "geometry": { "type": "Point", "coordinates": [ 108.305403333333004, -7.25018666666667, 517.556274414062045 ] } },
{ "type": "Feature", "properties": { "Name": "Snack Anugrah", "description": null, "timestamp": "2026-07-11T08:26:35+07:00", "begin": null, "end": null, "altitudeMode": null, "tessellate": -1, "extrude": 0, "visibility": -1, "drawOrder": null, "icon": null }, "geometry": { "type": "Point", "coordinates": [ 108.311851666666996, -7.2525, 526.666015625 ] } },
{ "type": "Feature", "properties": { "Name": "Toko itong", "description": null, "timestamp": "2026-07-10T14:50:55+07:00", "begin": null, "end": null, "altitudeMode": null, "tessellate": -1, "extrude": 0, "visibility": -1, "drawOrder": null, "icon": null }, "geometry": { "type": "Point", "coordinates": [ 108.307891666667004, -7.2445866666667, 557.078002929687955 ] } },
{ "type": "Feature", "properties": { "Name": "Toko Lita Sandal", "description": null, "timestamp": "2026-07-01T09:40:36+07:00", "begin": null, "end": null, "altitudeMode": null, "tessellate": -1, "extrude": 0, "visibility": -1, "drawOrder": null, "icon": null }, "geometry": { "type": "Point", "coordinates": [ 108.310798522188406, -7.259313312168382, 454.909973144531023 ] } },
{ "type": "Feature", "properties": { "Name": "Toko Rasya Jaya", "description": null, "timestamp": "2026-07-01T10:01:07+07:00", "begin": null, "end": null, "altitudeMode": null, "tessellate": -1, "extrude": 0, "visibility": -1, "drawOrder": null, "icon": null }, "geometry": { "type": "Point", "coordinates": [ 108.31024, -7.25553, 476.466461181641023 ] } },
{ "type": "Feature", "properties": { "Name": "Warung afsya", "description": null, "timestamp": "2026-06-30T09:16:48+07:00", "begin": null, "end": null, "altitudeMode": null, "tessellate": -1, "extrude": 0, "visibility": -1, "drawOrder": null, "icon": null }, "geometry": { "type": "Point", "coordinates": [ 108.305418333332995, -7.250581666666669, 516.635131835937955 ] } },
{ "type": "Feature", "properties": { "Name": "Warung alif", "description": null, "timestamp": "2026-06-29T10:32:45+07:00", "begin": null, "end": null, "altitudeMode": null, "tessellate": -1, "extrude": 0, "visibility": -1, "drawOrder": null, "icon": null }, "geometry": { "type": "Point", "coordinates": [ 108.306345, -7.24414825782909, 574.469482421875 ] } },
{ "type": "Feature", "properties": { "Name": "Warung bi Dadah", "description": null, "timestamp": "2026-06-30T10:06:53+07:00", "begin": null, "end": null, "altitudeMode": null, "tessellate": -1, "extrude": 0, "visibility": -1, "drawOrder": null, "icon": null }, "geometry": { "type": "Point", "coordinates": [ 108.305303333333001, -7.249943333333341, 522.169555664062045 ] } },
{ "type": "Feature", "properties": { "Name": "Warung Bu ii", "description": null, "timestamp": "2026-07-01T09:35:28+07:00", "begin": null, "end": null, "altitudeMode": null, "tessellate": -1, "extrude": 0, "visibility": -1, "drawOrder": null, "icon": null }, "geometry": { "type": "Point", "coordinates": [ 108.310827759206305, -7.259928157901045, 450.216003417968977 ] } },
{ "type": "Feature", "properties": { "Name": "Warung Bu oom", "description": null, "timestamp": "2026-06-30T08:59:53+07:00", "begin": null, "end": null, "altitudeMode": null, "tessellate": -1, "extrude": 0, "visibility": -1, "drawOrder": null, "icon": null }, "geometry": { "type": "Point", "coordinates": [ 108.304118333332994, -7.25008, 531.812194824218977 ] } },
{ "type": "Feature", "properties": { "Name": "Warung Cirancana store", "description": null, "timestamp": "2026-07-11T09:13:18+07:00", "begin": null, "end": null, "altitudeMode": null, "tessellate": -1, "extrude": 0, "visibility": -1, "drawOrder": null, "icon": null }, "geometry": { "type": "Point", "coordinates": [ 108.306865, -7.25387166666666, 492.877990722656023 ] } },
{ "type": "Feature", "properties": { "Name": "Warung ghifar", "description": null, "timestamp": "2026-07-01T11:44:06+07:00", "begin": null, "end": null, "altitudeMode": null, "tessellate": -1, "extrude": 0, "visibility": -1, "drawOrder": null, "icon": null }, "geometry": { "type": "Point", "coordinates": [ 108.310278333333002, -7.25510333333333, 481.884735107421989 ] } },
{ "type": "Feature", "properties": { "Name": "Warung ibu diah", "description": null, "timestamp": "2026-06-29T10:35:46+07:00", "begin": null, "end": null, "altitudeMode": null, "tessellate": -1, "extrude": 0, "visibility": -1, "drawOrder": null, "icon": null }, "geometry": { "type": "Point", "coordinates": [ 108.306591666667003, -7.24404333333334, 572.77978515625 ] } },
{ "type": "Feature", "properties": { "Name": "Warung ibu ida", "description": null, "timestamp": "2026-07-11T08:41:24+07:00", "begin": null, "end": null, "altitudeMode": null, "tessellate": -1, "extrude": 0, "visibility": -1, "drawOrder": null, "icon": null }, "geometry": { "type": "Point", "coordinates": [ 108.31048, -7.25331166666666, 497.240783691406023 ] } },
{ "type": "Feature", "properties": { "Name": "Warung ibu Lina", "description": null, "timestamp": "2026-07-06T12:04:33+07:00", "begin": null, "end": null, "altitudeMode": null, "tessellate": -1, "extrude": 0, "visibility": -1, "drawOrder": null, "icon": null }, "geometry": { "type": "Point", "coordinates": [ 108.309435, -7.24809666666668, 499.727935791016023 ] } },
{ "type": "Feature", "properties": { "Name": "Warung Ibu Yati", "description": null, "timestamp": "2026-07-06T12:01:39+07:00", "begin": null, "end": null, "altitudeMode": null, "tessellate": -1, "extrude": 0, "visibility": -1, "drawOrder": null, "icon": null }, "geometry": { "type": "Point", "coordinates": [ 108.309095, -7.24855666666667, 497.875122070311988 ] } },
{ "type": "Feature", "properties": { "Name": "Warung Ibu Yenik", "description": null, "timestamp": "2026-06-29T11:15:55+07:00", "begin": null, "end": null, "altitudeMode": null, "tessellate": -1, "extrude": 0, "visibility": -1, "drawOrder": null, "icon": null }, "geometry": { "type": "Point", "coordinates": [ 108.308633333333006, -7.24473, 553.411987304687955 ] } },
{ "type": "Feature", "properties": { "Name": "Warung Mamih endut", "description": null, "timestamp": "2026-07-01T09:38:00+07:00", "begin": null, "end": null, "altitudeMode": null, "tessellate": -1, "extrude": 0, "visibility": -1, "drawOrder": null, "icon": null }, "geometry": { "type": "Point", "coordinates": [ 108.3108232482966, -7.259791171720069, 451.29598999023392 ] } },
{ "type": "Feature", "properties": { "Name": "Warung pa elan", "description": null, "timestamp": "2026-07-06T12:07:10+07:00", "begin": null, "end": null, "altitudeMode": null, "tessellate": -1, "extrude": 0, "visibility": -1, "drawOrder": null, "icon": null }, "geometry": { "type": "Point", "coordinates": [ 108.309471666666994, -7.248025, 500.752868652343977 ] } },
{ "type": "Feature", "properties": { "Name": "Warung pojok Teh liin", "description": null, "timestamp": "2026-07-01T10:37:21+07:00", "begin": null, "end": null, "altitudeMode": null, "tessellate": -1, "extrude": 0, "visibility": -1, "drawOrder": null, "icon": null }, "geometry": { "type": "Point", "coordinates": [ 108.310081666667003, -7.25246, 494.543670654296875 ] } },
{ "type": "Feature", "properties": { "Name": "Warung Puncak Ibun", "description": null, "timestamp": "2026-06-29T10:22:07+07:00", "begin": null, "end": null, "altitudeMode": null, "tessellate": -1, "extrude": 0, "visibility": -1, "drawOrder": null, "icon": null }, "geometry": { "type": "Point", "coordinates": [ 108.30658, -7.244345, 572.182312011718977 ] } },
{ "type": "Feature", "properties": { "Name": "Warung puncak nineung", "description": null, "timestamp": "2026-07-11T08:29:08+07:00", "begin": null, "end": null, "altitudeMode": null, "tessellate": -1, "extrude": 0, "visibility": -1, "drawOrder": null, "icon": null }, "geometry": { "type": "Point", "coordinates": [ 108.312121666666997, -7.25158666666667, 542.305480957031023 ] } },
{ "type": "Feature", "properties": { "Name": "Warung sembako alfamil", "description": null, "timestamp": "2026-07-09T12:38:35+07:00", "begin": null, "end": null, "altitudeMode": null, "tessellate": -1, "extrude": 0, "visibility": -1, "drawOrder": null, "icon": null }, "geometry": { "type": "Point", "coordinates": [ 108.311538696289006, -7.25308847427372, 509.961456298828011 ] } },
{ "type": "Feature", "properties": { "Name": "Warung sosis bakar baru bangkit", "description": null, "timestamp": "2026-06-29T11:12:43+07:00", "begin": null, "end": null, "altitudeMode": null, "tessellate": -1, "extrude": 0, "visibility": -1, "drawOrder": null, "icon": null }, "geometry": { "type": "Point", "coordinates": [ 108.308381666667003, -7.24470166666667, 556.526245117187955 ] } },
{ "type": "Feature", "properties": { "Name": "Warung Tanjakan", "description": null, "timestamp": "2026-06-29T11:21:03+07:00", "begin": null, "end": null, "altitudeMode": null, "tessellate": -1, "extrude": 0, "visibility": -1, "drawOrder": null, "icon": null }, "geometry": { "type": "Point", "coordinates": [ 108.309021666666993, -7.24521166666665, 540.629028320312045 ] } },
{ "type": "Feature", "properties": { "Name": "Warung Teh umi", "description": null, "timestamp": "2026-06-30T08:54:25+07:00", "begin": null, "end": null, "altitudeMode": null, "tessellate": -1, "extrude": 0, "visibility": -1, "drawOrder": null, "icon": null }, "geometry": { "type": "Point", "coordinates": [ 108.304305, -7.25013166666667, 529.559875488281023 ] } },
{ "type": "Feature", "properties": { "Name": "Warung warni", "description": null, "timestamp": "2026-07-09T12:40:01+07:00", "begin": null, "end": null, "altitudeMode": null, "tessellate": -1, "extrude": 0, "visibility": -1, "drawOrder": null, "icon": null }, "geometry": { "type": "Point", "coordinates": [ 108.311455977342902, -7.253049046024298, 510.802001953124886 ] } },
{ "type": "Feature", "properties": { "Name": "Warung Bu Rani", "description": null, "timestamp": null, "begin": null, "end": null, "altitudeMode": null, "tessellate": -1, "extrude": 0, "visibility": -1, "drawOrder": null, "icon": null }, "geometry": { "type": "Point", "coordinates": [ 108.310796865673396, -7.257778603280457, 455.499675221581072 ] } },
{ "type": "Feature", "properties": { "Name": "Pabrik Aci RT 001", "description": null, "timestamp": "2026-07-01T09:43:42+07:00", "begin": null, "end": null, "altitudeMode": null, "tessellate": -1, "extrude": 0, "visibility": -1, "drawOrder": null, "icon": null }, "geometry": { "type": "Point", "coordinates": [ 108.31166, -7.259405, 471.160583496093977 ] } },
{ "type": "Feature", "properties": { "Name": "Produksi Kerupuk 3 Saudara", "description": null, "timestamp": "2026-07-01T10:00:00+07:00", "begin": null, "end": null, "altitudeMode": null, "tessellate": -1, "extrude": 0, "visibility": -1, "drawOrder": null, "icon": null }, "geometry": { "type": "Point", "coordinates": [ 108.311852553443003, -7.25978510688505, 468.507720947266023 ] } },
{ "type": "Feature", "properties": { "Name": "Kolam Renang Sultan", "description": null, "timestamp": "2026-07-01T11:13:31+07:00", "begin": null, "end": null, "altitudeMode": null, "tessellate": -1, "extrude": 0, "visibility": -1, "drawOrder": null, "icon": null }, "geometry": { "type": "Point", "coordinates": [ 108.308838333333, -7.25010333333336, 490.478302001953011 ] } },
{ "type": "Feature", "properties": { "Name": "Sosis Bakar", "description": null, "timestamp": "2026-07-01T11:11:00+07:00", "begin": null, "end": null, "altitudeMode": null, "tessellate": -1, "extrude": 0, "visibility": -1, "drawOrder": null, "icon": null }, "geometry": { "type": "Point", "coordinates": [ 108.308748968954006, -7.25011085283464, 491.310119628906023 ] } },
{ "type": "Feature", "properties": { "Name": "Servis Komputer & Pusat Percetakan (Spectra)", "description": null, "timestamp": "2026-07-01T10:42:52+07:00", "begin": null, "end": null, "altitudeMode": null, "tessellate": -1, "extrude": 0, "visibility": -1, "drawOrder": null, "icon": null }, "geometry": { "type": "Point", "coordinates": [ 108.308460444207995, -7.25010113222327, 495.495391845703011 ] } },
{ "type": "Feature", "properties": { "Name": "Toko Berdikari (H. Eti)", "description": "Toko Umum", "timestamp": "2026-07-01T10:29:31+07:00", "begin": null, "end": null, "altitudeMode": null, "tessellate": -1, "extrude": 0, "visibility": -1, "drawOrder": null, "icon": null }, "geometry": { "type": "Point", "coordinates": [ 108.308362771966003, -7.24993299424562, 498.389678955078011 ] } },
{ "type": "Feature", "properties": { "Name": "Warung Bapak Apip", "description": "Sembako, terigu, kopi", "timestamp": "2026-06-29T10:08:55+07:00", "begin": null, "end": null, "altitudeMode": null, "tessellate": -1, "extrude": 0, "visibility": -1, "drawOrder": null, "icon": null }, "geometry": { "type": "Point", "coordinates": [ 108.30633, -7.243478333333371, 575.692687988281023 ] } },
{ "type": "Feature", "properties": { "Name": "Warung Ibu Erna", "description": null, "timestamp": "2026-07-01T10:11:31+07:00", "begin": null, "end": null, "altitudeMode": null, "tessellate": -1, "extrude": 0, "visibility": -1, "drawOrder": null, "icon": null }, "geometry": { "type": "Point", "coordinates": [ 108.312395, -7.26186666666667, 441.727844238281023 ] } },
{ "type": "Feature", "properties": { "Name": "Warung Ibu Nia", "description": "Sembako", "timestamp": "2026-07-01T09:47:31+07:00", "begin": null, "end": null, "altitudeMode": null, "tessellate": -1, "extrude": 0, "visibility": -1, "drawOrder": null, "icon": null }, "geometry": { "type": "Point", "coordinates": [ 108.312041666667, -7.26041833333333, 459.131988525391023 ] } },
{ "type": "Feature", "properties": { "Name": "Warung Ibu Tati", "description": null, "timestamp": "2026-07-01T11:10:02+07:00", "begin": null, "end": null, "altitudeMode": null, "tessellate": -1, "extrude": 0, "visibility": -1, "drawOrder": null, "icon": null }, "geometry": { "type": "Point", "coordinates": [ 108.308712893410004, -7.25014678798061, 491.565948486328125 ] } },
{ "type": "Feature", "properties": { "Name": "Warung Ibu Zahra (Baso Ade Irma)", "description": null, "timestamp": "2026-07-01T11:16:20+07:00", "begin": null, "end": null, "altitudeMode": null, "tessellate": -1, "extrude": 0, "visibility": -1, "drawOrder": null, "icon": null }, "geometry": { "type": "Point", "coordinates": [ 108.309213333333005, -7.250151666666699, 488.438537597656023 ] } },
{ "type": "Feature", "properties": { "Name": "Warung Keripik Kaca", "description": null, "timestamp": "2026-06-29T10:13:06+07:00", "begin": null, "end": null, "altitudeMode": null, "tessellate": -1, "extrude": 0, "visibility": -1, "drawOrder": null, "icon": null }, "geometry": { "type": "Point", "coordinates": [ 108.306251666666995, -7.243498333333349, 577.357421875 ] } },
{ "type": "Feature", "properties": { "Name": "Warung Kolam Renang Sultanesr", "description": null, "timestamp": "2026-07-01T11:12:01+07:00", "begin": null, "end": null, "altitudeMode": null, "tessellate": -1, "extrude": 0, "visibility": -1, "drawOrder": null, "icon": null }, "geometry": { "type": "Point", "coordinates": [ 108.308780272223999, -7.25006449143005, 491.082275390625 ] } },
{ "type": "Feature", "properties": { "Name": "Warung Sembilan Belas", "description": null, "timestamp": "2026-07-06T12:26:19+07:00", "begin": null, "end": null, "altitudeMode": null, "tessellate": -1, "extrude": 0, "visibility": -1, "drawOrder": null, "icon": null }, "geometry": { "type": "Point", "coordinates": [ 108.308935, -7.24882, 497.997985839843921 ] } },
{ "type": "Feature", "properties": { "Name": "Warung Si Bolang", "description": null, "timestamp": "2026-07-06T12:48:11+07:00", "begin": null, "end": null, "altitudeMode": null, "tessellate": -1, "extrude": 0, "visibility": -1, "drawOrder": null, "icon": null }, "geometry": { "type": "Point", "coordinates": [ 108.309175, -7.24957, 490.046447753906023 ] } },
{ "type": "Feature", "properties": { "Name": "Warung Tanjakan Cilopadang", "description": "Sembako", "timestamp": "2026-06-29T11:25:40+07:00", "begin": null, "end": null, "altitudeMode": null, "tessellate": -1, "extrude": 0, "visibility": -1, "drawOrder": null, "icon": null }, "geometry": { "type": "Point", "coordinates": [ 108.308548333332993, -7.247763333333359, 516.560241699218977 ] } },
{ "type": "Feature", "properties": { "Name": "Warung Teh Alis", "description": null, "timestamp": "2026-07-06T12:44:33+07:00", "begin": null, "end": null, "altitudeMode": null, "tessellate": -1, "extrude": 0, "visibility": -1, "drawOrder": null, "icon": null }, "geometry": { "type": "Point", "coordinates": [ 108.308978333333002, -7.24929166666667, 492.761108398438012 ] } },
{ "type": "Feature", "properties": { "Name": "Warung Umi Azmi", "description": null, "timestamp": "2026-07-01T10:51:30+07:00", "begin": null, "end": null, "altitudeMode": null, "tessellate": -1, "extrude": 0, "visibility": -1, "drawOrder": null, "icon": null }, "geometry": { "type": "Point", "coordinates": [ 108.308386666667005, -7.25062833333334, 492.950317382811875 ] } },
{ "type": "Feature", "properties": { "Name": "Warung Umi Ian", "description": null, "timestamp": "2026-07-06T12:53:23+07:00", "begin": null, "end": null, "altitudeMode": null, "tessellate": -1, "extrude": 0, "visibility": -1, "drawOrder": null, "icon": null }, "geometry": { "type": "Point", "coordinates": [ 108.309241666667006, -7.24963166666668, 490.358032226561875 ] } },
{ "type": "Feature", "properties": { "Name": "Mie Ayam Goceng Gang Asna", "description": null, "timestamp": "2026-07-09T12:39:05+07:00", "begin": null, "end": null, "altitudeMode": null, "tessellate": -1, "extrude": 0, "visibility": -1, "drawOrder": null, "icon": null }, "geometry": { "type": "Point", "coordinates": [ 108.31156487, -7.253065050000041, 510.708038330078011 ] } },
{ "type": "Feature", "properties": { "Name": "WidiShop & Widi BRILink", "description": null, "timestamp": "2026-07-09T12:41:22+07:00", "begin": null, "end": null, "altitudeMode": null, "tessellate": -1, "extrude": 0, "visibility": -1, "drawOrder": null, "icon": null }, "geometry": { "type": "Point", "coordinates": [ 108.31146776, -7.25315569, 507.947021484374886 ] } },
{ "type": "Feature", "properties": { "Name": "Bengkel mobil rt 19", "description": null, "timestamp": "2026-06-29T10:04:09+07:00", "begin": null, "end": null, "altitudeMode": null, "tessellate": -1, "extrude": 0, "visibility": -1, "drawOrder": null, "icon": null }, "geometry": { "type": "Point", "coordinates": [ 108.307750811800005, -7.24525126162917, 559.04931640625 ] } },
{ "type": "Feature", "properties": { "Name": "bri al mugni", "description": null, "timestamp": "2026-07-01T10:09:14+07:00", "begin": null, "end": null, "altitudeMode": null, "tessellate": -1, "extrude": 0, "visibility": -1, "drawOrder": null, "icon": null }, "geometry": { "type": "Point", "coordinates": [ 108.310147281735993, -7.254091403447091, 488.679138183593921 ] } },
{ "type": "Feature", "properties": { "Name": "Pengrajin kayu juantika mabel rt 12", "description": null, "timestamp": "2026-06-30T09:23:52+07:00", "begin": null, "end": null, "altitudeMode": null, "tessellate": -1, "extrude": 0, "visibility": -1, "drawOrder": null, "icon": null }, "geometry": { "type": "Point", "coordinates": [ 108.307756260036996, -7.25081546232105, 0.0 ] } },
{ "type": "Feature", "properties": { "Name": "Pijet Reflexi", "description": null, "timestamp": "2026-06-29T09:33:54+07:00", "begin": null, "end": null, "altitudeMode": null, "tessellate": -1, "extrude": 0, "visibility": -1, "drawOrder": null, "icon": null }, "geometry": { "type": "Point", "coordinates": [ 108.308829478920003, -7.24508429411799, 546.825317382812045 ] } },
{ "type": "Feature", "properties": { "Name": "seblak prasmanan teh enur rt 6", "description": null, "timestamp": "2026-06-30T10:24:13+07:00", "begin": null, "end": null, "altitudeMode": null, "tessellate": -1, "extrude": 0, "visibility": -1, "drawOrder": null, "icon": null }, "geometry": { "type": "Point", "coordinates": [ 108.306473661214, -7.257699645124421, 504.965087890624886 ] } },
{ "type": "Feature", "properties": { "Name": "toko batu akik ppkj accescoris", "description": "no hp 085295485587", "timestamp": "2026-07-01T09:48:35+07:00", "begin": null, "end": null, "altitudeMode": null, "tessellate": -1, "extrude": 0, "visibility": -1, "drawOrder": null, "icon": null }, "geometry": { "type": "Point", "coordinates": [ 108.310292121022997, -7.25567038636658, 474.738494873046875 ] } },
{ "type": "Feature", "properties": { "Name": "toko buah ibu nisa rt 2", "description": null, "timestamp": "2026-07-01T09:44:48+07:00", "begin": null, "end": null, "altitudeMode": null, "tessellate": -1, "extrude": 0, "visibility": -1, "drawOrder": null, "icon": null }, "geometry": { "type": "Point", "coordinates": [ 108.310531591997005, -7.25627379957586, 467.622589111328011 ] } },
{ "type": "Feature", "properties": { "Name": "depot air cadas ngampar", "description": null, "timestamp": "2026-07-01T10:16:53+07:00", "begin": null, "end": null, "altitudeMode": null, "tessellate": -1, "extrude": 0, "visibility": -1, "drawOrder": null, "icon": null }, "geometry": { "type": "Point", "coordinates": [ 108.309940639914004, -7.25034945356729, 498.355529785156023 ] } },
{ "type": "Feature", "properties": { "Name": "toko kerupuk raja enak rt 11", "description": null, "timestamp": "2026-06-30T09:38:01+07:00", "begin": null, "end": null, "altitudeMode": null, "tessellate": -1, "extrude": 0, "visibility": -1, "drawOrder": null, "icon": null }, "geometry": { "type": "Point", "coordinates": [ 108.306918740273005, -7.25301751401279, 0.0 ] } },
{ "type": "Feature", "properties": { "Name": "Bengkel Las Karya Mandiri Steel", "description": null, "timestamp": "2026-07-01T09:53:02+07:00", "begin": null, "end": null, "altitudeMode": null, "tessellate": -1, "extrude": 0, "visibility": -1, "drawOrder": null, "icon": null }, "geometry": { "type": "Point", "coordinates": [ 108.311215136200005, -7.25567776244133, 475.724822998046875 ] } },
{ "type": "Feature", "properties": { "Name": "toko suhyar", "description": null, "timestamp": "2026-06-30T09:15:33+07:00", "begin": null, "end": null, "altitudeMode": null, "tessellate": -1, "extrude": 0, "visibility": -1, "drawOrder": null, "icon": null }, "geometry": { "type": "Point", "coordinates": [ 108.308059684932005, -7.25004591979086, 502.118896484375 ] } },
{ "type": "Feature", "properties": { "Name": "Toko santi", "description": null, "timestamp": "2026-06-29T09:24:36+07:00", "begin": null, "end": null, "altitudeMode": null, "tessellate": -1, "extrude": 0, "visibility": -1, "drawOrder": null, "icon": null }, "geometry": { "type": "Point", "coordinates": [ 108.307882039825998, -7.24466737842467, 556.822082519531023 ] } },
{ "type": "Feature", "properties": { "Name": "Toko Jahit Ibu Iin", "description": null, "timestamp": "2026-06-30T09:19:30+07:00", "begin": null, "end": null, "altitudeMode": null, "tessellate": -1, "extrude": 0, "visibility": -1, "drawOrder": null, "icon": null }, "geometry": { "type": "Point", "coordinates": [ 108.308062199502999, -7.25034724920989, 0.0 ] } },
{ "type": "Feature", "properties": { "Name": "warung mak aji", "description": null, "timestamp": "2026-06-29T10:19:02+07:00", "begin": null, "end": null, "altitudeMode": null, "tessellate": -1, "extrude": 0, "visibility": -1, "drawOrder": null, "icon": null }, "geometry": { "type": "Point", "coordinates": [ 108.307176651432997, -7.24403831642122, 565.093505859375 ] } },
{ "type": "Feature", "properties": { "Name": "warung pak engkus", "description": null, "timestamp": "2026-06-30T09:49:51+07:00", "begin": null, "end": null, "altitudeMode": null, "tessellate": -1, "extrude": 0, "visibility": -1, "drawOrder": null, "icon": null }, "geometry": { "type": "Point", "coordinates": [ 108.307047653943002, -7.253762749023741, 487.659637451171989 ] } },
{ "type": "Feature", "properties": { "Name": "Taufik Monel Ringstone", "description": null, "timestamp": "2026-07-01T10:05:43+07:00", "begin": null, "end": null, "altitudeMode": null, "tessellate": -1, "extrude": 0, "visibility": -1, "drawOrder": null, "icon": null }, "geometry": { "type": "Point", "coordinates": [ 108.310095900670007, -7.2540890565142, 487.853271484374886 ] } },
{ "type": "Feature", "properties": { "Name": "Warung bapak Nana", "description": null, "timestamp": "2026-07-01T09:46:28+07:00", "begin": null, "end": null, "altitudeMode": null, "tessellate": -1, "extrude": 0, "visibility": -1, "drawOrder": null, "icon": null }, "geometry": { "type": "Point", "coordinates": [ 108.310553636402005, -7.25617447402331, 467.791046142578011 ] } },
{ "type": "Feature", "properties": { "Name": "warung pak edi", "description": null, "timestamp": "2026-06-30T12:00:51+07:00", "begin": null, "end": null, "altitudeMode": null, "tessellate": -1, "extrude": 0, "visibility": -1, "drawOrder": null, "icon": null }, "geometry": { "type": "Point", "coordinates": [ 108.306304775385001, -7.25593050726228, 515.181640625 ] } },
{ "type": "Feature", "properties": { "Name": "warung winmart rt 8", "description": null, "timestamp": "2026-06-30T09:53:19+07:00", "begin": null, "end": null, "altitudeMode": null, "tessellate": -1, "extrude": 0, "visibility": -1, "drawOrder": null, "icon": null }, "geometry": { "type": "Point", "coordinates": [ 108.306686142459995, -7.2552523389459, 497.381103515625 ] } },
{ "type": "Feature", "properties": { "Name": "Rizki  jaya motor", "description": null, "timestamp": "2026-07-12T15:15:07+07:00", "begin": null, "end": null, "altitudeMode": null, "tessellate": -1, "extrude": 0, "visibility": -1, "drawOrder": null, "icon": null }, "geometry": { "type": "Point", "coordinates": [ 108.310243333333005, -7.25185, 500.913848876953011 ] } },
{ "type": "Feature", "properties": { "Name": "Pom Mini Barokah", "description": null, "timestamp": null, "begin": null, "end": null, "altitudeMode": null, "tessellate": -1, "extrude": 0, "visibility": -1, "drawOrder": null, "icon": null }, "geometry": { "type": "Point", "coordinates": [ 108.310099645238395, -7.254140563710119, 484.338369494150186 ] } },
{ "type": "Feature", "properties": { "Name": "Nadira Cell", "description": null, "timestamp": null, "begin": null, "end": null, "altitudeMode": null, "tessellate": -1, "extrude": 0, "visibility": -1, "drawOrder": null, "icon": null }, "geometry": { "type": "Point", "coordinates": [ 108.310093379987805, -7.254103341546029, 484.330339140311082 ] } },
{ "type": "Feature", "properties": { "Name": "Bengkel Cat Mobil Body Repair(JIM)", "description": null, "timestamp": null, "begin": null, "end": null, "altitudeMode": null, "tessellate": -1, "extrude": 0, "visibility": -1, "drawOrder": null, "icon": null }, "geometry": { "type": "Point", "coordinates": [ 108.310157088534197, -7.254826214058695, 480.25911612273552 ] } },
{ "type": "Feature", "properties": { "Name": "toko dara rt7", "description": null, "timestamp": "2026-06-30T10:25:44+07:00", "begin": null, "end": null, "altitudeMode": null, "tessellate": -1, "extrude": 0, "visibility": -1, "drawOrder": null, "icon": null }, "geometry": { "type": "Point", "coordinates": [ 108.306404007598999, -7.25761205423623, 507.506225585938012 ] } },
{ "type": "Feature", "properties": { "Name": "Warung teh eva", "description": null, "timestamp": "2026-07-12T15:15:49+07:00", "begin": null, "end": null, "altitudeMode": null, "tessellate": -1, "extrude": 0, "visibility": -1, "drawOrder": null, "icon": null }, "geometry": { "type": "Point", "coordinates": [ 108.310278333333002, -7.25173, 501.471557617188012 ] } },
{ "type": "Feature", "properties": { "Name": "Warung Timbel Cadas (WTC)", "description": null, "timestamp": null, "begin": null, "end": null, "altitudeMode": null, "tessellate": -1, "extrude": 0, "visibility": -1, "drawOrder": null, "icon": null }, "geometry": { "type": "Point", "coordinates": [ 108.309653630980705, -7.250341618409145, 484.79129609789851 ] } },
{ "type": "Feature", "properties": { "Name": "Toko Barokah", "description": null, "timestamp": "2026-07-01T11:06:48+07:00", "begin": null, "end": null, "altitudeMode": null, "tessellate": -1, "extrude": 0, "visibility": -1, "drawOrder": null, "icon": null }, "geometry": { "type": "Point", "coordinates": [ 108.308905, -7.25016666666667, 489.907196044921875 ] } }
]
}
